,Name,Locality,Postalcode,Address,Region,Country,Neighborhood,Phone,Website,Category Labels
0,,,,,,,,,,
0,Galerie du Passage,Périgueux,24000,"7 rue André Saigne, passage Staine Cécile",Dordogne,fr,,05 53 46 75 37,http://www.galerie-d-art-du-passage-perigueux.fr/,"[[u'Social', u'Arts', u'Art Dealers and Galleries']]"
0,Galerie Benedicte Giniaux,Bergerac,24100,3 place Docteur Cayla,Dordogne,fr,,05 53 23 49 51,http://www.galeriebenedicteginiaux.fr,"[[u'Social', u'Arts', u'Art Dealers and Galleries']]"
0,Galerie Buffon,Bergerac,24100,8 rue Buffon,Dordogne,fr,,06 23 06 63 31,,"[[u'Social', u'Arts', u'Art Dealers and Galleries']]"
0,Galerie des Artistes Bergerac,Bergerac,24100,24 place Gambetta,Dordogne,fr,,,,"[[u'Social', u'Arts']]"
0,Galerie Phi2,Villamblard,24140,55 rue Gabriel Reymond,Dordogne,fr,,06 82 81 13 74,,"[[u'Social', u'Arts', u'Art Dealers and Galleries']]"
0,Galerie d'Art Anton Gidding,Saint Cyprien,24220,rue Gambetta,Dordogne,fr,,05 53 59 67 17,,"[[u'Social', u'Arts', u'Art Dealers and Galleries']]"
0,La Galerie Brocante de St Cyprien,Saint Cyprien,24220,34 rue Gambetta,Dordogne,fr,,05 53 30 20 71,,"[[u'Social', u'Arts', u'Art Dealers and Galleries']]"
0,Galerie Carmensac à Meyrals,Meyrals,24220,Carmensac,Dordogne,fr,,05 53 29 44 21,,"[[u'Social', u'Arts', u'Art Dealers and Galleries']]"
0,Galerie du Puy Joli,Brantôme,24310,27 rue Puyjoli de Meyjounissas,Dordogne,fr,,05 53 46 31 40,,"[[u'Social', u'Arts', u'Art Dealers and Galleries']]"
0,Galerie des Quatre Saisons,Saint Aulaye,24410,19 rue Docteur Hippolyte Lacroix,Dordogne,fr,,05 53 90 54 60,,"[[u'Social', u'Arts', u'Art Dealers and Galleries']]"
0,Galerie du Bois Vert,Beaumont du Périgord,24440,rue Foussal,Dordogne,fr,,,,"[[u'Social', u'Arts', u'Museums']]"
0,Galerie le 5,Ribérac,24600,5 place du Général de Gaulle,Dordogne,fr,,05 53 90 93 38,http://galeriele5.free.fr/site/accueil.php/,"[[u'Social', u'Arts', u'Art Dealers and Galleries']]"
0,Galerie catherine lapeyriere,Champcevinel,24750,Rejaillac,Dordogne,fr,,,,"[[u'Social', u'Arts']]"
0,Galerie Pat Pierson,Sainte Foy la Grande,33220,116 rue de la République,Gironde,fr,,05 57 46 03 54,,"[[u'Social', u'Arts', u'Art Dealers and Galleries']]"
0,Galerie Beaubadat,Bordeaux,33000,3 rue Beaubadat,Gironde,fr,,05 56 52 83 78,http://www.galerie-beaubadat.fr,"[[u'Social', u'Arts', u'Museums']]"
0,Galerie d-x,Bordeaux,33000,10 place des Quinconces,Gironde,fr,,05 56 23 35 20,http://www.galeriedx.com,"[[u'Social', u'Arts', u'Art Dealers and Galleries']]"
0,Galerie des Remparts,Bordeaux,33000,63 rue des Remparts,Gironde,fr,,05 56 52 22 25,http://www.galeriedesremparts.com/,"[[u'Social', u'Arts', u'Art Dealers and Galleries']]"
0,Galerie a Deux Pas d'ici,Bordeaux,33000,67 rue des Remparts,Gironde,fr,,05 47 33 51 00,http://www.adeuxpasdici.com/contacts-galerie-Bordeaux/,"[[u'Social', u'Arts', u'Art Dealers and Galleries']]"
0,Galerie Art Céleste,Bordeaux,33000,53 rue des Ayres,Gironde,fr,,05 56 48 15 76,,"[[u'Social', u'Arts', u'Art Dealers and Galleries']]"
0,Galerie Montaut,Bordeaux,33000,1 rue Esprit des Lois,Gironde,fr,,05 56 81 96 38,http://www.montaut.com,"[[u'Social', u'Arts', u'Art Dealers and Galleries']]"
0,Galerie le Troisième Oeil,Bordeaux,33000,17 rue des Remparts,Gironde,fr,,05 56 44 32 23,,"[[u'Social', u'Arts', u'Art Dealers and Galleries']]"
0,Galerie du Palais Gallien,Bordeaux,33000,105 rue Fondaudège,Gironde,fr,,05 56 48 68 50,http://www.galeriedupalaisgallien.com,"[[u'Social', u'Arts', u'Art Dealers and Galleries']]"
0,Galerie Vent d'Est,Bordeaux,33000,31 rue Bouffard,Gironde,fr,,05 56 31 86 92,http://www.galerieventdest.com,"[[u'Social', u'Arts', u'Art Dealers and Galleries']]"
0,Galerie Imagine,Bordeaux,33000,16 rue du Parlement Sainte Catherine,Gironde,fr,,05 56 51 18 22,,"[[u'Social', u'Arts', u'Art Dealers and Galleries']]"
0,Galerie Axiome,Bordeaux,33000,15 rue Fondaudège,Gironde,fr,,,http://www.galerie-axiome.com,"[[u'Social', u'Arts', u'Art Dealers and Galleries']]"
0,Galerie Cortex Athletico,Bordeaux,33000,20 rue Ferrère,Gironde,fr,,05 56 94 31 89,http://www.cortexathletico.com,"[[u'Social', u'Arts', u'Art Dealers and Galleries']]"
0,Galerie Ilka Bree,Bordeaux,33000,7 rue Cornac,Gironde,fr,,05 56 44 74 92,,"[[u'Social', u'Arts', u'Art Dealers and Galleries']]"
0,Galerie d'Art Anton Gidding,Bordeaux,33000,90 rue Notre Dame,Gironde,fr,,06 09 87 62 75,,"[[u'Social', u'Arts', u'Art Dealers and Galleries']]"
0,Des Sélènes Galerie,Bordeaux,33000,15 rue Buhan,Gironde,fr,,09 72 45 16 21,,"[[u'Social', u'Arts', u'Art Dealers and Galleries']]"
0,Galerie Anne-Laure Jaloune,Bordeaux,33000,28 rue Fondaudège,Gironde,fr,,05 57 83 07 94,,"[[u'Social', u'Arts', u'Art Dealers and Galleries']]"
0,Galerie Art et Déco,Bordeaux,33000,34 rue des Remparts,Gironde,fr,,05 56 52 21 54,,"[[u'Social', u'Arts', u'Museums']]"
0,Galerie Anne-Laure Jalounegalerie Anne-Laure Jaloune,Bordeaux,33000,28 rue Fondaudège,Gironde,fr,,05 57 83 07 94,,"[[u'Social', u'Arts', u'Art Dealers and Galleries']]"
0,Galerie des Beaux-Arts,Bordeaux,33000,place du Colonel Raynal,Gironde,fr,,05 56 96 51 60,,"[[u'Social', u'Arts', u'Museums']]"
0,Ceci n Establissements pas une galerie,Bordeaux,33000,84 rue Porte Dijeaux,Gironde,fr,,05 56 06 84 10,,"[[u'Social', u'Arts', u'Art Dealers and Galleries']]"
0,Galerie Hom's,Bordeaux,33000,61 rue Fondaudège,Gironde,fr,,05 56 52 62 33,,"[[u'Social', u'Arts', u'Art Dealers and Galleries']]"
0,Galerie Collection Particulière,Bordeaux,33000,29 31 29 rue Bouffard,Gironde,fr,,06 67 75 38 88,,"[[u'Social', u'Arts', u'Art Dealers and Galleries']]"
0,Galerie 2000,Bordeaux,33000,34 rue Notre Dame,Gironde,fr,,05 56 44 12 67,,"[[u'Social', u'Arts', u'Art Dealers and Galleries']]"
0,La Galerie K,Bordeaux,33000,60 rue Bouffard,Gironde,fr,,05 56 81 99 35,,"[[u'Social', u'Arts', u'Art Dealers and Galleries']]"
0,Atelier-Galerie Cristina,Bordeaux,33000,3 rue du Chai des Farines,Gironde,fr,,,,"[[u'Social', u'Arts', u'Museums']]"
0,Galerie Condillac,Bordeaux,33000,24 rue Condillac,Gironde,fr,,05 56 79 03 98,,"[[u'Social', u'Arts']]"
0,Galerie Trente Trois à Bordeaux,Bordeaux,33000,60 rue Bouffard,Gironde,fr,,05 56 81 99 35,,"[[u'Social', u'Arts', u'Art Dealers and Galleries']]"
0,Galerie Thema,Bordeaux,33000,35 rue Bouffard,Gironde,fr,,05 56 81 34 20,,"[[u'Social', u'Arts', u'Art Dealers and Galleries']]"
0,Besançon Dominique,Bordeaux,33000,2 Ter rue Mably,Gironde,fr,,05 56 81 63 20,http://www.galeriemably.com,"[[u'Social', u'Arts', u'Art Dealers and Galleries']]"
0,Espace Rolland,Bordeaux,33000,18 rue Rolland,Gironde,fr,,09 81 95 74 21,http://www.wix.com/galerierolland/galerie-rolland,"[[u'Social', u'Arts', u'Art Dealers and Galleries']]"
0,Musée des Beaux-Arts,Bordeaux,33000,20 cours d' Albret,Gironde,fr,,05 56 10 20 56,http://www.musba-bordeaux.fr,"[[u'Social', u'Arts', u'Museums'], [u'Landmarks']]"
0,Bouillon d' Art,Bordeaux,33000,37 rue Bouffard,Gironde,fr,,05 56 30 42 64,http://www.bouillondart.com,"[[u'Social', u'Arts', u'Art Dealers and Galleries']]"
0,Art Home Deco,Bordeaux,33000,24 rue Vital Carles,Gironde,fr,,05 56 81 57 11,http://www.art-home-deco.com,"[[u'Social', u'Arts', u'Art Dealers and Galleries']]"
0,Alhambra Productions,Bordeaux,33000,30 Passage Galerie Bordelaise,Gironde,fr,,05 56 51 26 71,,"[[u'Social', u'Arts']]"
0,Interface Consultants,Bordeaux,33000,105 rue Fondaudège,Gironde,fr,,05 56 48 68 50,http://www.galerie-palaisgallien.com,"[[u'Social', u'Arts', u'Art Dealers and Galleries']]"
0,Galerie des Arcades,Arcachon,33120,242 boulevard de la Côte d'Argent,Gironde,fr,,05 56 54 06 97,,"[[u'Social', u'Arts', u'Art Dealers and Galleries']]"
0,Galerie Saint Martin,Arcachon,33120,244 boulevard de la Plage,Gironde,fr,,05 56 66 43 03,http://www.galerie-saint-martin.com,"[[u'Social', u'Arts', u'Art Dealers and Galleries']]"
0,Sum'Art,Arcachon,33120,253 boulevard de la Côte d'Argent,Gironde,fr,,05 56 83 63 71,http://www.galerie-saint-martin.com,"[[u'Social', u'Arts', u'Art Dealers and Galleries']]"
0,Galerie Mylona,Fronsac,33126,31 rue Général de Gaulle,Gironde,fr,,05 57 51 81 42,,"[[u'Social', u'Arts', u'Art Dealers and Galleries']]"
0,Galerie Imago,Bègles,33130,58 avenue du Maréchal de Lattre de Tassigny,Gironde,fr,,05 56 49 34 72,,"[[u'Social', u'Arts', u'Art Dealers and Galleries']]"
0,Arret sur l'Image Galerie,Bordeaux,33300,1 quai Armand Lalande,Gironde,fr,,05 56 69 16 48,http://www.arretsurlimage.com,"[[u'Social', u'Arts', u'Art Dealers and Galleries']]"
0,Galerie MLS,Bordeaux,33300,123 quai des Chartrons,Gironde,fr,,,http://www.123-galerie-mls.fr,"[[u'Social', u'Arts', u'Art Dealers and Galleries']]"
0,Galerie Essences Primitives,Bordeaux,33300,61 rue Pomme d'Or,Gironde,fr,,,,"[[u'Social', u'Arts', u'Art Dealers and Galleries']]"
0,Arret sur l'Image Gallerie,Bordeaux,33300,45 cours du Médoc,Gironde,fr,,05 35 40 11 05,http://www.itiphoto.com,"[[u'Social', u'Arts', u'Art Dealers and Galleries']]"
0,Editions Montaut,Saint Sulpice et Cameyrac,33450,102 route de la Borde,Gironde,fr,,05 56 72 10 22,http://www.montaut.com,"[[u'Social', u'Arts', u'Art Dealers and Galleries']]"
0,Galerie Saint-Luc,Andernos Les Bains,33510,5 avenue Pasteur,Gironde,fr,,05 57 76 02 82,http://www.galeriesaintluc.com,"[[u'Social', u'Arts', u'Art Dealers and Galleries']]"
0,Galerie des 7 Arts,Castres Gironde,33640,7 place Mairie,Gironde,fr,,05 56 86 10 43,http://www.galeriedes7arts.fr,"[[u'Social', u'Arts', u'Art Dealers and Galleries']]"
0,Galerie ACDC,Bordeaux,33800,1 rue des Etables,Gironde,fr,,09 81 95 44 22,http://www.galerieacdc.com,"[[u'Social', u'Arts', u'Art Dealers and Galleries']]"
0,Aerolithe Galerie,Bordeaux,33800,230 cours de la Marne,Gironde,fr,,09 81 39 42 44,,"[[u'Social', u'Arts', u'Art Dealers and Galleries']]"
0,Galerie du Triangle,Bordeaux,33800,1 rue des Etables,Gironde,fr,,05 56 91 57 77,,"[[u'Social', u'Arts', u'Art Dealers and Galleries']]"
0,Association Tinbox,Bordeaux,33800,16 rue du Portail,Gironde,fr,,06 63 27 52 49,http://www.galerie-tinbox.com,"[[u'Social', u'Arts', u'Art Dealers and Galleries']]"
0,Dom-Art Galerie,Dax,40100,44 rue Neuve,Landes,fr,,05 58 58 17 64,http://www.dom-art.fr/,"[[u'Social', u'Arts', u'Art Dealers and Galleries']]"
0,Antiquites la Chine du Port,Capbreton,40130,quai Bonamour,Landes,fr,,05 58 72 68 34,http://www.galerie-tableaux-landes.com/,"[[u'Social', u'Arts', u'Art Dealers and Galleries']]"
0,La Galerie,Hossegor,40150,Villa Araï Dou Sou 37 avenue Point d'Orgue,Landes,fr,,09 71 44 92 12,,"[[u'Social', u'Arts', u'Art Dealers and Galleries']]"
0,Galerie Municipale,Biscarrosse,40600,163 rue Jules Ferry,Landes,fr,,05 58 78 73 74,,"[[u'Social', u'Arts', u'Art Dealers and Galleries']]"
0,Galerie Municipale,Biscarrosse,40600,60 avenue 14 Juillet,Landes,fr,,05 58 78 03 20,,"[[u'Social', u'Arts', u'Art Dealers and Galleries']]"
0,Galerie Municipale Salle Pourbal,Biscarrosse,40600,60 avenue du Quatorze Juillet,Landes,fr,,05 58 78 02 87,,"[[u'Social', u'Arts', u'Art Dealers and Galleries']]"
0,Galerie Anton,Agen,47000,87 rue Montesquieu,Lot-et-Garonne,fr,,05 53 47 40 70,,"[[u'Social', u'Arts', u'Art Dealers and Galleries']]"
0,Galerie Brodoux,Agen,47000,70 rue Montesquieu,Lot-et-Garonne,fr,,05 53 66 30 67,,"[[u'Social', u'Arts']]"
0,Graal,Agen,47000,174 boulevard de la République,Lot-et-Garonne,fr,,05 53 68 50 60,http://www.galeriegraal.com,"[[u'Social', u'Arts', u'Art Dealers and Galleries']]"
0,Galerie de la Cité,Penne D'agenais,47140,2 rue 14 Juillet,Lot-et-Garonne,fr,,05 53 41 34 51,,"[[u'Social', u'Arts', u'Art Dealers and Galleries']]"
0,Pfleger Mandrafina Atelier Galerie,Monflanquin,47150,21 place des Arcades,Lot-et-Garonne,fr,,05 53 70 39 93,,"[[u'Social', u'Arts']]"
0,Galerie EGREGORE,Marmande,47200,92 boulevard Meyniel,Lot-et-Garonne,fr,,06 09 05 83 80,http://www.galerie-egregore.com,"[[u'Social', u'Arts', u'Art Dealers and Galleries']]"
0,Gajac Galerie d'Art,Villeneuve sur Lot,47300,19 rue de Penne,Lot-et-Garonne,fr,,05 53 40 20 33,,"[[u'Social', u'Arts', u'Art Dealers and Galleries']]"
0,Galerie Feille,Clairac,47320,2 rue Eglise,Lot-et-Garonne,fr,,05 53 84 32 00,,"[[u'Social', u'Arts', u'Art Dealers and Galleries']]"
0,Galerie Bouscayrol,Pau,64000,9 place Georges Clemenceau,Pyrénées-Atlantiques,fr,,05 59 27 82 67,http://www.galeriebouscayrol.com/index.php,"[[u'Social', u'Arts', u'Art Dealers and Galleries']]"
0,Galerie Insolitudes,Pau,64000,11-13 avenue Leon Say,Pyrénées-Atlantiques,fr,,05 59 27 55 84,,"[[u'Social', u'Arts', u'Art Dealers and Galleries']]"
0,Galerie Henry,Pau,64000,16 rue Lamothe,Pyrénées-Atlantiques,fr,,05 59 27 12 14,,"[[u'Social', u'Arts', u'Art Dealers and Galleries']]"
0,Galerie Dubasque,Bayonne,64100,10 rue de la Monnaie,Pyrénées-Atlantiques,fr,,05 59 46 13 06,,"[[u'Social', u'Arts', u'Art Dealers and Galleries']]"
0,Galerie Dazelle,Bayonne,64100,31 rue des Basques,Pyrénées-Atlantiques,fr,,06 61 73 38 91,,"[[u'Social', u'Arts', u'Art Dealers and Galleries']]"
0,Lafouresse Jean-Bruno,Bayonne,64100,13 rue de la Vieille Boucherie,Pyrénées-Atlantiques,fr,,06 85 23 00 49,http://www.atelier-galerie-lafouresse.com,"[[u'Social', u'Arts', u'Art Dealers and Galleries']]"
0,Galerie Carré Rouge,Biarritz,64200,22 avenue de la Reine Victoria,Pyrénées-Atlantiques,fr,,05 59 24 75 96,http://www.galerie-carrerouge.com,"[[u'Social', u'Arts', u'Art Dealers and Galleries']]"
0,Galerie Anne Broitman,Biarritz,64200,8 rue Gambetta,Pyrénées-Atlantiques,fr,,05 59 23 72 26,http://www.galeriegaab-biarritz.com/index.php?option=com_contact&view=contact&id=1&Itemid=4,"[[u'Social', u'Arts', u'Art Dealers and Galleries']]"
0,Galerie Diane et Eric Lhoste,Biarritz,64200,25 avenue Edouard VII,Pyrénées-Atlantiques,fr,,06 07 83 38 91,http://www.galerielhoste.com,"[[u'Social', u'Arts', u'Art Dealers and Galleries']]"
0,Galerie Jean-Claude Cazaux,Biarritz,64200,26 avenue de Verdun,Pyrénées-Atlantiques,fr,,05 59 22 12 56,http://www.galerie-jean-claude-cazaux.com,"[[u'Social', u'Arts', u'Art Dealers and Galleries']]"
0,Galerie Page,Biarritz,64200,37 rue de Mazagran,Pyrénées-Atlantiques,fr,,05 59 24 97 52,http://galerie-page-biarritz.blogspot.com,"[[u'Social', u'Arts', u'Art Dealers and Galleries']]"
0,Galerie Bouscayrol,Biarritz,64200,2 avenue de la Reine Victoria,Pyrénées-Atlantiques,fr,,05 59 24 11 61,http://www.galeriebouscayrol.com/index.php,"[[u'Social', u'Arts', u'Art Dealers and Galleries']]"
0,Galerie Hausseguy,Biarritz,64200,14 rue Broquedis,Pyrénées-Atlantiques,fr,,06 64 64 58 42,http://www.galeriehausseguy.com,"[[u'Social', u'Arts', u'Art Dealers and Galleries']]"
0,Galerie Simon,Biarritz,64200,4 avenue Edouard VII,Pyrénées-Atlantiques,fr,,05 59 24 62 49,http://www.galerie-simon.com,"[[u'Social', u'Arts', u'Art Dealers and Galleries']]"
0,Aski Galerie,Biarritz,64200,28 rue Gambetta,Pyrénées-Atlantiques,fr,,05 59 24 37 49,,"[[u'Social', u'Arts', u'Art Dealers and Galleries']]"
0,Galerie de la Reine,Biarritz,64200,3 avenue de la Marne,Pyrénées-Atlantiques,fr,,06 23 94 20 27,,"[[u'Social', u'Arts', u'Art Dealers and Galleries']]"
0,Galerie Art et Loisir,Biarritz,64200,5 avenue de la Reine Victoria,Pyrénées-Atlantiques,fr,,05 59 24 87 80,,"[[u'Social', u'Arts', u'Art Dealers and Galleries']]"
0,Galerie Privilege,Biarritz,64200,43 rue Mazagran,Pyrénées-Atlantiques,fr,,05 59 22 25 43,,"[[u'Social', u'Arts']]"
0,Simon Jean-Louis,Biarritz,64200,4 avenue Edouard VII,Pyrénées-Atlantiques,fr,,05 59 24 62 49,http://www.galeriesimon.com/,"[[u'Social', u'Arts', u'Art Dealers and Galleries']]"
0,Artmany,Biarritz,64200,3 rue du Centre,Pyrénées-Atlantiques,fr,,05 59 24 04 24,http://www.artmany.com,"[[u'Social', u'Arts', u'Art Dealers and Galleries']]"
0,Artmany S.A.R.L.,Biarritz,64200,3 rue Centre,Pyrénées-Atlantiques,fr,,06 07 26 46 75,http://www.artmany-antiquites-biarritz.fr,"[[u'Social', u'Arts', u'Art Dealers and Galleries']]"
0,Galerie 1510,Saint Jean Pied de Port,64220,32 rue de la Citadelle,Pyrénées-Atlantiques,fr,,05 59 37 33 40,,"[[u'Social', u'Arts', u'Art Dealers and Galleries']]"
0,Galerie Catherine et Frédéric Portal,Saint Jean de Luz,64500,17 rue Tourasse,Pyrénées-Atlantiques,fr,,05 59 26 70 67,http://www.galerie-catherinefredericportal.com,"[[u'Social', u'Arts', u'Art Dealers and Galleries']]"
0,Gérard Verrier Galerie d'art,Saint Jean de Luz,64500,3 place Louis XIV,Pyrénées-Atlantiques,fr,,05 59 51 19 35,http://www.gerardverriergaleriedart.com,"[[u'Social', u'Arts', u'Art Dealers and Galleries']]"
0,Galerie d'Ici et d'Ailleurs,Saint Jean de Luz,64500,6 rue Saint Jacques,Pyrénées-Atlantiques,fr,,05 59 51 10 66,,"[[u'Social', u'Arts', u'Art Dealers and Galleries']]"
0,Galerie Alma,Saint Jean de Luz,64500,8 place Louis Xiv,Pyrénées-Atlantiques,fr,,05 59 26 12 83,,"[[u'Social', u'Arts', u'Art Dealers and Galleries']]"
0,Galerie Alma,Saint Jean de Luz,64500,6 rue Garat,Pyrénées-Atlantiques,fr,,05 59 85 86 28,,"[[u'Social', u'Arts', u'Art Dealers and Galleries']]"
0,Galerie Uria Monzon,Saint Jean de Luz,64500,9 rue Pocalette,Pyrénées-Atlantiques,fr,,,,"[[u'Social', u'Arts', u'Art Dealers and Galleries']]"
0,Merle Marie,Saint Jean de Luz,64500,9 rue Garat,Pyrénées-Atlantiques,fr,,05 59 23 04 73,,"[[u'Social', u'Arts', u'Art Dealers and Galleries']]"
0,Hordago,Saint Jean de Luz,64500,3 rue Saint Jacques,Pyrénées-Atlantiques,fr,,05 59 26 35 77,http://www.galerie-hordago.com,"[[u'Social', u'Arts', u'Art Dealers and Galleries']]"
0,Galerie Art Expo,Moulins,03000,34 place d'Allier,Allier,fr,,04 70 34 21 26,,"[[u'Social', u'Arts', u'Art Dealers and Galleries']]"
0,Galerie d'Art les Tournesols,Vichy,03200,23 rue du Parc,Allier,fr,,04 70 31 74 08,http://galerie-les-tournesols.fr,"[[u'Social', u'Arts', u'Art Dealers and Galleries']]"
0,Galerie de l'Opéra,Vichy,03200,6 rue du Casino,Allier,fr,,04 70 31 90 27,http://pagesperso-orange.fr/galerie.opera.vichy,"[[u'Social', u'Arts', u'Art Dealers and Galleries']]"
0,Sarl Galerie 8,Vichy,03200,8 rue Source de l'Hopital,Allier,fr,,07 61 29 47 46,http://www.galerie8.fr,"[[u'Social', u'Arts', u'Art Dealers and Galleries']]"
0,La Galerie du Parc,Vichy,03200,21 rue du Parc,Allier,fr,,06 85 15 42 67,,"[[u'Social', u'Arts', u'Art Dealers and Galleries']]"
0,Now Gallery,Vichy,03200,3 Galerie Source Hôpital,Allier,fr,,04 70 32 19 56,,"[[u'Social', u'Arts', u'Art Dealers and Galleries']]"
0,Galerie les Tourelles,Brioude,43100,21 place Eugène Gilbert,Haute-Loire,fr,,04 71 50 05 45,,"[[u'Social', u'Arts', u'Art Dealers and Galleries']]"
0,Galerie les Tourelles,La Chaise Dieu,43160,place de l'Abbaye,Haute-Loire,fr,,04 71 00 11 64,,"[[u'Social', u'Arts', u'Art Dealers and Galleries']]"
0,Galerie Christiane Vallé,Clermont Ferrand,63000,15 rue Philippe Marcombes,Puy-de-Dôme,fr,,04 73 92 06 32,http://www.galerie-art-peinture-sculpture-christiane-valle.com,"[[u'Social', u'Arts', u'Art Dealers and Galleries']]"
0,Galerie Gastaud,Clermont Ferrand,63000,7 rue du Terrail,Puy-de-Dôme,fr,,04 73 92 07 97,http://www.galerie-gastaud.com,"[[u'Social', u'Arts', u'Art Dealers and Galleries']]"
0,Galerie Aa,Clermont Ferrand,63000,9 rue des Chaussetiers,Puy-de-Dôme,fr,,04 73 91 35 23,http://www.galerieaa.com,"[[u'Social', u'Arts', u'Art Dealers and Galleries']]"
0,Galerie Bertrand Trocmez,Clermont Ferrand,63000,11 rue Philippe Marcombes,Puy-de-Dôme,fr,,09 52 32 01 28,http://www.galerie-trocmez.fr,"[[u'Social', u'Arts', u'Art Dealers and Galleries']]"
0,Galerie d'Art Salvany,Clermont Ferrand,63000,27 rue Blatin,Puy-de-Dôme,fr,,04 73 34 23 00,http://www.salvany.fr,"[[u'Social', u'Arts', u'Art Dealers and Galleries']]"
0,Galerie les Intemporels,Clermont Ferrand,63000,21 rue Blatin,Puy-de-Dôme,fr,,04 73 29 02 07,,"[[u'Social', u'Arts', u'Art Dealers and Galleries']]"
0,Galerie In Extenso,Clermont Ferrand,63000,12 rue de la Coifferie,Puy-de-Dôme,fr,,09 81 84 26 52,http://www.inextensoasso.com,"[[u'Social', u'Arts', u'Art Dealers and Galleries']]"
0,Galerie d'Art Graal,Clermont Ferrand,63000,14 Bis place Gilbert Gaillard,Puy-de-Dôme,fr,,04 73 16 71 75,,"[[u'Social', u'Arts', u'Art Dealers and Galleries']]"
0,Galerie Francis Petit,Clermont Ferrand,63000,Centre Jaude,Puy-de-Dôme,fr,,04 73 93 48 49,,"[[u'Social', u'Arts', u'Art Dealers and Galleries']]"
0,Moutt'art,Clermont Ferrand,63000,25 rue de la Treille,Puy-de-Dôme,fr,,04 73 91 08 46,http://www.galerie-art-singulier.com/,"[[u'Social', u'Arts', u'Art Dealers and Galleries']]"
0,Galerie Nicole Cholet,Busséol,63270,rue medicis,Puy-de-Dôme,fr,,04 73 69 58 91,,"[[u'Social', u'Arts', u'Art Dealers and Galleries']]"
0,Galerie le Rempart,Thiers,63300,3 bis rue du Docteur Camille Joubert,Puy-de-Dôme,fr,,06 08 58 15 63,,"[[u'Social', u'Arts', u'Art Dealers and Galleries']]"
0,Galerie Totem,Caen,14000,18 place Jean Letellier,Calvados,fr,,02 31 50 01 09,,"[[u'Social', u'Arts', u'Art Dealers and Galleries']]"
0,Pure Galerie Art et Design,Caen,14000,30 rue Arcisse de Caumont,Calvados,fr,,02 31 38 82 82,,"[[u'Social', u'Arts', u'Art Dealers and Galleries']]"
0,Tristan Patrick Galerie,Caen,14000,33 rue Montoir Poissonnerie,Calvados,fr,,02 31 24 64 73,,"[[u'Social', u'Arts']]"
0,Galerie Art-Culture-France à Caen,Caen,14000,2 avenue du Six Juin,Calvados,fr,,02 31 39 02 77,http://www.art-culture-france.com,"[[u'Social', u'Arts', u'Art Dealers and Galleries']]"
0,Galerie Duthilleul,Caen,14000,43 place de l'Ancienne Boucherie,Calvados,fr,,,,"[[u'Social', u'Arts', u'Art Dealers and Galleries']]"
0,Galerie du Paradis,Lisieux,14100,4 rue du Paradis,Calvados,fr,,,,"[[u'Social', u'Arts']]"
0,La Galerie,Arromanches les Bains,14117,22 rue du Maréchal Joffre,Calvados,fr,,02 31 10 02 92,http://www.la-galerie.net,"[[u'Social', u'Arts', u'Art Dealers and Galleries']]"
0,Galerie Catherine Stein,Trouville sur Mer,14360,29 rue Victor Hugo,Calvados,fr,,09 65 29 58 58,,"[[u'Social', u'Arts', u'Museums']]"
0,Galerie Juste Pour Vou Art,Cabourg,14390,route de Caen,Calvados,fr,,02 31 74 34 15,,"[[u'Social', u'Arts', u'Art Dealers and Galleries']]"
0,Galerie du Duc Guillaume,Bayeux,14400,18 rue Cuisiniers,Calvados,fr,,,,"[[u'Social', u'Arts']]"
0,Galerie Normandy,Honfleur,14600,29 rue du Dauphin,Calvados,fr,,02 31 89 09 00,http://www.galeries-bartoux.com,"[[u'Social', u'Arts', u'Art Dealers and Galleries']]"
0,Galeries Bartoux Galerie Sainte Catherine,Honfleur,14600,34 quai Staine Catherine,Calvados,fr,,02 31 89 29 00,http://www.galeries-bartoux.com,"[[u'Social', u'Arts', u'Art Dealers and Galleries']]"
0,Galerie de l'Estuaire,Honfleur,14600,28 place Pierre Berthelot,Calvados,fr,,02 31 89 11 20,http://www.galerie-estuaire-honfleur.com,"[[u'Social', u'Arts', u'Art Dealers and Galleries']]"
0,Galerie 13,Honfleur,14600,13 rue Cachin,Calvados,fr,,02 31 89 72 61,http://www.galerie13-honfleur.com/,"[[u'Social', u'Arts', u'Art Dealers and Galleries']]"
0,Galerie Arts de l'Enclos,Honfleur,14600,2 rue Saint Antoine,Calvados,fr,,02 31 89 19 13,http://www.galeriedaniellebourdette.com,"[[u'Social', u'Arts', u'Art Dealers and Galleries']]"
0,Boudin Galerie,Honfleur,14600,6 place Hôtel de Ville rue Geneviève Seydoux,Calvados,fr,,02 31 89 06 66,http://www.galerie-boudin.fr,"[[u'Social', u'Arts', u'Art Dealers and Galleries']]"
0,C.G.B. Galerie,Honfleur,14600,10 place Staine Catherine,Calvados,fr,,02 31 89 31 12,http://www.cgbgalerie.fr/,"[[u'Social', u'Arts', u'Art Dealers and Galleries']]"
0,Galerie Chaye,Honfleur,14600,6 place Arthur Boudin,Calvados,fr,,02 31 89 08 07,http://www.galeriechaye.com,"[[u'Social', u'Arts', u'Art Dealers and Galleries']]"
0,Galerie d'Art J.C Robert,Honfleur,14600,25 rue du Dauphin,Calvados,fr,,02 31 89 00 60,http://www.galerie-jch-robert.com/,"[[u'Social', u'Arts', u'Art Dealers and Galleries']]"
0,Galeries Bartoux Galerie du Vieux Honfleur,Honfleur,14600,31 rue du Dauphin,Calvados,fr,,02 31 89 95 70,http://www.galeries-bartoux.com,"[[u'Social', u'Arts', u'Art Dealers and Galleries']]"
0,Galerie Obéniche,Honfleur,14600,11 rue des Logettes,Calvados,fr,,02 31 89 96 69,,"[[u'Social', u'Arts', u'Art Dealers and Galleries']]"
0,Galerie Art et Tradition,Honfleur,14600,20 place Hamelin,Calvados,fr,,02 31 89 10 30,,"[[u'Social', u'Arts', u'Art Dealers and Galleries']]"
0,Galerie Bartoux,Honfleur,14600,30 place Staine Catherine,Calvados,fr,,02 31 89 94 23,http://www.galeries-bartoux.com,"[[u'Social', u'Arts', u'Art Dealers and Galleries']]"
0,Galerie Bourdette-Gorzkowski,Honfleur,14600,5 quai Saint Etienne,Calvados,fr,,06 11 54 54 79,http://www.galeriedaniellebourdette.com,"[[u'Social', u'Arts', u'Art Dealers and Galleries']]"
0,Galeries Bartoux Galerie du Dauphin,Honfleur,14600,30 place Staine Catherine,Calvados,fr,,02 31 89 94 23,http://www.galeries-bartoux.com,"[[u'Social', u'Arts', u'Art Dealers and Galleries']]"
0,Galerie du Dauphin,Honfleur,14600,30 place Sainte Catherine,Calvados,fr,,02 31 89 15 53,http://www.galeries-bartoux.com/GALERIE_DU_DAUPHIN-galerie-fr-4-1.html,"[[u'Social', u'Arts']]"
0,Galerie Corinne Roux,Honfleur,14600,13 rue de l'Homme de Bois,Calvados,fr,,06 60 02 22 62,,"[[u'Social', u'Arts', u'Art Dealers and Galleries']]"
0,Galerie Jeannet,Honfleur,14600,3 rue République,Calvados,fr,,02 31 89 76 14,,"[[u'Social', u'Arts', u'Art Dealers and Galleries']]"
0,Galerie ArTiane,Honfleur,14600,32 place Pierre Berthelot,Calvados,fr,,06 61 77 63 55,http://www.artiane.com/,"[[u'Social', u'Arts', u'Art Dealers and Galleries']]"
0,Galerie Obéniche,Honfleur,14600,6 place Staine Catherine,Calvados,fr,,02 31 88 97 56,http://www.galerie-obeniche.com,"[[u'Social', u'Arts', u'Art Dealers and Galleries']]"
0,Galerie Laurent Leblanc,Honfleur,14600,15 rue des Logettes,Calvados,fr,,02 31 89 21 53,,"[[u'Social', u'Arts', u'Art Dealers and Galleries']]"
0,Galerie Francois Dudouit,Honfleur,14600,19 rue des Capucins,Calvados,fr,,02 31 98 88 42,,"[[u'Social', u'Arts', u'Art Dealers and Galleries']]"
0,Fontan Jean,Honfleur,14600,40 rue du Dauphin,Calvados,fr,,02 31 87 13 70,,"[[u'Social', u'Arts', u'Art Dealers and Galleries']]"
0,Le Bateau Lavoir,Honfleur,14600,26 rue du Dauphin,Calvados,fr,,02 31 89 75 03,,"[[u'Social', u'Arts', u'Art Dealers and Galleries']]"
0,Galerie Lazoukine,Deauville,14800,"2 d, rue Breney",Calvados,fr,,02 31 98 15 15,,"[[u'Social', u'Arts', u'Art Dealers and Galleries']]"
0,Galerie Annick Guyet,Deauville,14800,19 avenue de la République,Calvados,fr,,06 12 38 81 62,,"[[u'Social', u'Arts', u'Art Dealers and Galleries']]"
0,La Galerie de Tourgéville,Tourgéville,14800,Cd 27 la Fromagerie,Calvados,fr,,02 31 87 31 11,,"[[u'Social', u'Arts', u'Art Dealers and Galleries']]"
0,Galerie de la Marine,Cherbourg Octeville,50100,3 Bis rue Christine,Manche,fr,,02 33 53 07 35,,"[[u'Social', u'Arts']]"
0,Galerie du Cotentin,Cherbourg Octeville,50100,53 rue Gambetta,Manche,fr,,,,"[[u'Social', u'Arts', u'Art Dealers and Galleries']]"
0,Duval Christiane,Equeurdreville Hainneville,50120,45 rue de la Paix,Manche,fr,,02 33 93 86 28,,"[[u'Social', u'Arts', u'Art Dealers and Galleries']]"
0,Galerie Morin,Coutances,50200,46 rue Saint Nicolas,Manche,fr,,02 33 45 73 98,,"[[u'Social', u'Arts', u'Art Dealers and Galleries']]"
0,Galerie Doublet,Avranches,50300,61 rue de la Constitution,Manche,fr,,02 33 58 03 91,,"[[u'Social', u'Arts', u'Art Dealers and Galleries']]"
0,Galerie Chaon,Granville,50400,6 rue Paul Poirier,Manche,fr,,02 33 79 15 51,http://www.galerie-chaon.fr,"[[u'Social', u'Arts', u'Art Dealers and Galleries']]"
0,Galerie Flamme et Art,Granville,50400,1251 route de Villedieu,Manche,fr,,02 33 49 42 03,http://www.galerieflammeetart.fr,"[[u'Social', u'Arts', u'Art Dealers and Galleries']]"
0,Galerie Gautier Granville,Granville,50400,116 rue Couraye,Manche,fr,,,,"[[u'Social', u'Arts']]"
0,Galerie de Normandie,Saint Vaast la Hougue,50550,26 rue de Verrue,Manche,fr,,02 33 54 08 56,http://www.galerie-de-normandie.fr/,"[[u'Social', u'Arts', u'Art Dealers and Galleries']]"
0,Galerie du Cotentin,Saint Vaast la Hougue,50550,9 quai Vauban,Manche,fr,,02 33 53 37 48,,"[[u'Social', u'Arts', u'Art Dealers and Galleries']]"
0,Drak Arts,Barfleur,50760,40 rue Saint Thomas,Manche,fr,,02 33 23 91 40,,"[[u'Social', u'Arts', u'Art Dealers and Galleries']]"
0,Atelier-Galerie Claude Dahmen-B,Rémalard,61110,28 rue de l'Eglise,Orne,fr,,02 33 83 73 33,,"[[u'Social', u'Arts']]"
0,Art et Passions,Mortagne au Perche,61400,33 place République,Orne,fr,,02 33 83 91 71,,"[[u'Social', u'Arts', u'Art Dealers and Galleries']]"
0,Galerie Christian Dazy,Dijon,21000,16 place des Ducs de Bourgogne,Côte-d'Or,fr,,03 80 36 41 40,http://www.galeriedazy.com,"[[u'Social', u'Arts', u'Art Dealers and Galleries']]"
0,Galerie Axeltae,Dijon,21000,16 rue Michel Servet,Côte-d'Or,fr,,03 80 33 21 85,http://www.axeltae.fr,"[[u'Social', u'Arts', u'Art Dealers and Galleries']]"
0,Alchimia Cafe & Galerie,Dijon,21000,13-15 rue Auguste Comte,Côte-d'Or,fr,,03 80 46 10 42,,"[[u'Social', u'Arts', u'Art Dealers and Galleries']]"
0,Open Art Galerie,Dijon,21000,8 rue Auguste Comte,Côte-d'Or,fr,,03 80 72 31 47,http://www.open-art-galerie.com,"[[u'Social', u'Arts', u'Art Dealers and Galleries']]"
0,Galerie Barnoud,Dijon,21000,27 rue Berlier,Côte-d'Or,fr,,03 80 66 23 26,,"[[u'Social', u'Arts', u'Art Dealers and Galleries']]"
0,Galerie des Trois Pignons,Dijon,21000,5 rue de la Chaudronnerie,Côte-d'Or,fr,,03 80 63 73 67,,"[[u'Social', u'Arts', u'Art Dealers and Galleries']]"
0,Galerie 6,Dijon,21000,6 rue Auguste Comte,Côte-d'Or,fr,,03 80 71 68 46,,"[[u'Social', u'Arts', u'Art Dealers and Galleries']]"
0,Galerie de Guise,Dijon,21000,56 rue Berbisey,Côte-d'Or,fr,,03 80 30 13 25,,"[[u'Social', u'Arts', u'Art Dealers and Galleries']]"
0,Galerie d'Art Ariane,Dijon,21000,25 rue de l'Amiral Roussin,Côte-d'Or,fr,,03 80 54 23 38,,"[[u'Social', u'Arts', u'Art Dealers and Galleries']]"
0,Galerie Gaston Gérard,Dijon,21000,25 rue du Petit Potet,Côte-d'Or,fr,,03 80 50 88 82,,"[[u'Social', u'Arts', u'Art Dealers and Galleries']]"
0,Galerie 44,Dijon,21000,44 boulevard Jeanne d'Arc,Côte-d'Or,fr,,03 80 36 45 64,,"[[u'Social', u'Arts', u'Art Dealers and Galleries']]"
0,Galerie Jeanne d'Arc,Dijon,21000,93 rue de Mirande,Côte-d'Or,fr,,03 80 36 43 74,,"[[u'Social', u'Arts', u'Art Dealers and Galleries']]"
0,Art Pour le Dire,Dijon,21000,4 boulevard Université,Côte-d'Or,fr,,03 80 38 22 35,,"[[u'Social', u'Arts', u'Art Dealers and Galleries']]"
0,Galerie du Cerf,Saint Jean De Losne,21170,3 rue Martene,Côte-d'Or,fr,,03 80 29 04 44,,"[[u'Social', u'Arts']]"
0,Ar'Toubeix Galerie,Meursault,21190,11 rue Maréchal de Lattre de Tassigny,Côte-d'Or,fr,,03 80 21 67 56,http://arnold.toubeix.voila.net,"[[u'Social', u'Arts', u'Art Dealers and Galleries']]"
0,Galerie de l'Hôtel de Saulx,Beaune,21200,13 place Fleury,Côte-d'Or,fr,,03 80 24 68 34,http://perso.wanadoo.fr/galeriedesaulx/,"[[u'Social', u'Arts', u'Art Dealers and Galleries']]"
0,Galerie Titren,Beaune,21200,8 rue Edouard Fraysse,Côte-d'Or,fr,,03 80 24 78 07,,"[[u'Social', u'Arts', u'Art Dealers and Galleries']]"
0,Galerie 47,Beaune,21200,47 rue Poterne,Côte-d'Or,fr,,03 80 25 06 36,,"[[u'Social', u'Arts']]"
0,Atelier Alain Seguin,Beaune,21200,6 rue Notre Dame,Côte-d'Or,fr,,03 80 24 02 96,,"[[u'Social', u'Arts', u'Art Dealers and Galleries']]"
0,Graglia Michel,Beaune,21200,21 rue Maufoux,Côte-d'Or,fr,,03 80 22 23 50,http://www.galerie-graglia.com,"[[u'Social', u'Arts', u'Art Dealers and Galleries']]"
0,Galerie le Pavé,Nolay,21340,33 rue de la République,Côte-d'Or,fr,,06 72 68 79 20,,"[[u'Social', u'Arts', u'Art Dealers and Galleries']]"
0,Galerie Barnoud,Quétigny,21800,Entrepôt 9 9 boulevard Europe,Côte-d'Or,fr,,03 80 66 23 26,http://www.galerie-barnoud.com,"[[u'Social', u'Arts', u'Art Dealers and Galleries']]"
0,La Galerie Saint Vincent,Nevers,58000,9 rue Ferdinand Gambon,Nièvre,fr,,03 86 61 51 70,,"[[u'Social', u'Arts', u'Art Dealers and Galleries']]"
0,Galerie des Chapelains,Nevers,58000,27 Bis rue Saint Etienne,Nièvre,fr,,03 86 61 25 21,,"[[u'Social', u'Arts', u'Art Dealers and Galleries']]"
0,La Galerie,Saint Andelain,58150,le Bourg,Nièvre,fr,,03 86 27 11 85,,"[[u'Social', u'Arts', u'Art Dealers and Galleries']]"
0,Galerie Présents du Passé,La Charité sur Loire,58400,1 rue du Pont,Nièvre,fr,,03 86 70 16 93,,"[[u'Social', u'Arts', u'Art Dealers and Galleries']]"
0,Galerie Licence Iv,Mâcon,71000,42 rue Dufour,Saône-et-Loire,fr,,09 52 52 01 56,,"[[u'Social', u'Arts', u'Art Dealers and Galleries']]"
0,Galerie Songe,Montceau les Mines,71300,64 quai Jules Chagot,Saône-et-Loire,fr,,03 85 58 37 34,http://www.galerie-songe.com,"[[u'Social', u'Arts', u'Art Dealers and Galleries']]"
0,Galerie Mireille Kazmine,Montceau les Mines,71300,13 rue de la République,Saône-et-Loire,fr,,03 85 57 58 61,,"[[u'Social', u'Arts', u'Art Dealers and Galleries']]"
0,Galerie Madeline Jolly,Toulon sur Arroux,71320,19 rue Eugène Fichot,Saône-et-Loire,fr,,03 85 79 60 31,http://www.cocteau-art.com,"[[u'Social', u'Arts', u'Art Dealers and Galleries']]"
0,Galerie Artisanale et Gourmand,Cormatin,71460,rue de la Filaterie,Saône-et-Loire,fr,,03 85 50 35 34,http://www.galerie-artisanale-et-gourmande.fr/contact.php,"[[u'Social', u'Arts'], [u'Landmarks']]"
0,Le Praillot,Bonnay,71460,la Charite Besanceuil,Saône-et-Loire,fr,,03 85 59 45 63,,"[[u'Social', u'Arts', u'Art Dealers and Galleries']]"
0,Galerie Philippe Auguste,Châteauneuf,71740,le Bourg,Saône-et-Loire,fr,,03 85 26 29 94,,"[[u'Social', u'Arts', u'Art Dealers and Galleries']]"
0,Galerie des Lombards,Auxerre,89000,5 rue Joubert,Yonne,fr,,03 86 51 19 59,,"[[u'Social', u'Arts', u'Art Dealers and Galleries']]"
0,Disco Star à Auxerre,Auxerre,89000,Galerie Horloge 9 place Maréchal Leclerc,Yonne,fr,,06 63 44 14 99,,"[[u'Social', u'Arts']]"
0,Galerie Abélard,Sens,89100,15 rue Abélard,Yonne,fr,,03 86 95 49 79,,"[[u'Social', u'Arts', u'Art Dealers and Galleries']]"
0,Galerie de l'Ancienne Poste,Toucy,89130,24 rue Philippe Verger,Yonne,fr,,03 86 74 33 00,http://www.galerie-ancienne-poste.com,"[[u'Social', u'Arts', u'Art Dealers and Galleries']]"
0,La Galerie 14,Toucy,89130,14 rue Philippe Verger,Yonne,fr,,09 54 95 67 92,http://www.galerie14.com,"[[u'Social', u'Arts', u'Art Dealers and Galleries']]"
0,Jupiter,Venizy,89210,2 rue Robinauderie Vigny,Yonne,fr,,03 86 43 40 92,http://www.galerie-jupiter.com/show_room_1.php,"[[u'Social', u'Arts', u'Art Dealers and Galleries']]"
0,Galerie des Arcades,Noyers,89310,13 place de l'Hôtel de Ville,Yonne,fr,,03 86 82 60 05,,"[[u'Social', u'Arts', u'Art Dealers and Galleries']]"
0,Galerie d'Art Saint Pierre,Vézelay,89450,68 grande rue Saint Pierre,Yonne,fr,,03 86 33 27 96,http://www.hosotte.com,"[[u'Social', u'Arts', u'Art Dealers and Galleries']]"
0,Galerie Lempereur à Vézelay,Vézelay,89450,47 rue Saint Etienne,Yonne,fr,,09 65 29 88 88,,"[[u'Social', u'Arts', u'Art Dealers and Galleries']]"
0,Galerie des Quais,Saint Brieuc,22000,16 le Lègue quai Chanoine Guinard,Côtes-d'Armor,fr,,06 07 13 21 10,,"[[u'Social', u'Arts', u'Art Dealers and Galleries']]"
0,Galerie Flore,Saint Brieuc,22000,12 rue Saint Goueno,Côtes-d'Armor,fr,,02 96 33 13 20,,"[[u'Social', u'Arts', u'Art Dealers and Galleries']]"
0,Galerie Frederic Thibault,Saint Brieuc,22000,12 place du Martray,Côtes-d'Armor,fr,,02 96 77 09 63,,"[[u'Social', u'Arts', u'Art Dealers and Galleries']]"
0,La Galerie des Arts,Saint Brieuc,22000,22 rue Houvenagle,Côtes-d'Armor,fr,,06 32 29 29 53,,"[[u'Social', u'Arts', u'Art Dealers and Galleries']]"
0,Galerie Del'Art,Dinan,22100,6 Impasse des Clarisses,Côtes-d'Armor,fr,,02 96 85 49 79,,"[[u'Social', u'Arts', u'Art Dealers and Galleries']]"
0,Galerie Saint Sauveur,Dinan,22100,12 rue de l'Apport,Côtes-d'Armor,fr,,02 96 85 26 62,,"[[u'Social', u'Arts', u'Art Dealers and Galleries']]"
0,Galerie des Quais,Plérin,22190,9 rue Pierre Méheust,Côtes-d'Armor,fr,,02 96 52 16 96,,"[[u'Social', u'Arts', u'Art Dealers and Galleries']]"
0,Atelier Galerie Colvestre,Tréguier,22220,26 rue Colvestre,Côtes-d'Armor,fr,,02 96 92 41 26,http://www.premiumorange.com/violettelegallou/,"[[u'Social', u'Arts', u'Art Dealers and Galleries']]"
0,Atelier Galerie Colvestre,Plouguiel,22220,,Côtes-d'Armor,fr,,02 96 92 50 57,http://www.premiumorange.com/violettelegallou/,"[[u'Social', u'Arts', u'Museums']]"
0,Galerie du Dourven,Tredrez Locquemeau,22300,allée du Dourven,Côtes-d'Armor,fr,,02 96 35 21 42,http://www.itineraires-bis.org,"[[u'Social', u'Arts', u'Art Dealers and Galleries']]"
0,Galerie Alain le Nost,Paimpol,22500,2 rue Georges Brassens,Côtes-d'Armor,fr,,02 96 20 58 46,http://www.le-nost.fr,"[[u'Social', u'Arts', u'Art Dealers and Galleries']]"
0,Galerie Sillage,Paimpol,22500,5 rue de la Vieille Poissonnerie,Côtes-d'Armor,fr,,02 96 55 16 74,http://www.galeriesillage.fr,"[[u'Social', u'Arts', u'Art Dealers and Galleries']]"
0,Galerie d'Art Athena,Binic,22520,2 quai Jean Bart,Côtes-d'Armor,fr,,02 96 73 30 73,http://www.galeriedart-athena.com,"[[u'Social', u'Arts', u'Art Dealers and Galleries']]"
0,Galerie Sainte Catherine Galerie d'art,Quimper,29000,13 rue Staine Catherine,Finistère,fr,,02 98 90 17 89,,"[[u'Social', u'Arts', u'Art Dealers and Galleries']]"
0,Galerie Seize,Quimper,29000,15 rue de l'Amiral Ronarc'h,Finistère,fr,,02 98 55 47 43,http://www.galerie-seize.fr,"[[u'Social', u'Arts', u'Art Dealers and Galleries']]"
0,Galerie Philippe Théallet,Quimper,29000,13 rue Sainte Catherine,Finistère,fr,,02 98 90 18 22,http://www.theallet.com/,"[[u'Social', u'Arts', u'Art Dealers and Galleries']]"
0,Galerie Saluden,Quimper,29000,18 rue Laennec,Finistère,fr,,02 98 95 15 94,http://www.galerie-saluden.fr/,"[[u'Social', u'Arts', u'Art Dealers and Galleries']]"
0,Galerie Art'Ys,Quimper,29000,5 rue Saint Mathieu,Finistère,fr,,02 98 95 13 25,,"[[u'Social', u'Arts', u'Art Dealers and Galleries']]"
0,Galerie Artem,Quimper,29000,16 rue Sainte Catherine,Finistère,fr,,02 98 53 27 29,,"[[u'Social', u'Arts', u'Art Dealers and Galleries']]"
0,Galerie Patrick Gaultier,Quimper,29000,14 rue du Parc,Finistère,fr,,02 98 95 69 40,,"[[u'Social', u'Arts', u'Art Dealers and Galleries']]"
0,Galerie d'Armorique,Quimper,29000,13 rue des Boucheries,Finistère,fr,,02 98 95 72 25,,"[[u'Social', u'Arts', u'Art Dealers and Galleries']]"
0,Galerie to,Quimper,29000,3 rue Laennec,Finistère,fr,,,,"[[u'Social', u'Arts']]"
0,Arts et Civilisations,Quimper,29000,4 rue René Théophile Laënnec,Finistère,fr,,02 98 95 70 95,http://artsetcivilisations.net/index.htm?T=0003&HO=9001&CP=0001&PA=9001,"[[u'Social', u'Arts', u'Art Dealers and Galleries']]"
0,Misslen Jean-Marie,Quimper,29000,12 rue des Boucheries,Finistère,fr,,02 98 95 21 77,http://www.galerie-misslen.odexpo.com,"[[u'Social', u'Arts', u'Art Dealers and Galleries']]"
0,Galerie de l'Iroise,Douarnenez,29100,31 rue Voltaire,Finistère,fr,,02 98 11 06 85,,"[[u'Social', u'Arts', u'Art Dealers and Galleries']]"
0,Atelier Bois Plage,Douarnenez,29100,2 rue du Couëdic,Finistère,fr,,02 98 92 98 75,,"[[u'Social', u'Arts', u'Art Dealers and Galleries']]"
0,Galerie Patricia Oranin,Pont l'Abbé,29120,6 Bis rue Carnot,Finistère,fr,,02 98 66 04 12,http://www.galerie-patricia-oranin.com,"[[u'Social', u'Arts', u'Art Dealers and Galleries']]"
0,Galerie Marine en Ré,Pont l'Abbé,29120,23 place Gambetta,Finistère,fr,,02 98 54 40 27,,"[[u'Social', u'Arts', u'Art Dealers and Galleries']]"
0,Galerie Ka,Pont l'Abbé,29120,30 rue du Général de Gaulle,Finistère,fr,,02 29 40 46 20,,"[[u'Social', u'Arts', u'Art Dealers and Galleries']]"
0,Galerie Picot-le Roy,Crozon,29160,14 quai Kador,Finistère,fr,,02 98 17 01 97,http://www.picotleroy.com,"[[u'Social', u'Arts', u'Art Dealers and Galleries']]"
0,Galerie Picot-le Roy,Crozon,29160,Nuage Bleu 14 quai Kador,Finistère,fr,,06 03 34 34 60,http://www.picotleroy.com,"[[u'Social', u'Arts', u'Art Dealers and Galleries']]"
0,Galerie du Manoir,Saint Évarzec,29170,156 route de Concarneau,Finistère,fr,,02 98 56 20 80,,"[[u'Social', u'Arts', u'Art Dealers and Galleries']]"
0,Galerie d'Art la Navire,Brest,29200,4 avenue Georges Clemenceau,Finistère,fr,,02 98 44 94 29,http://www.lanavire.com,"[[u'Social', u'Arts', u'Art Dealers and Galleries']]"
0,Galerie Antinoé Cordelle,Brest,29200,30 rue Emile Zola,Finistère,fr,,02 98 80 52 48,,"[[u'Social', u'Arts']]"
0,Galerie Zonzon,Brest,29200,50 rue Emile Zola,Finistère,fr,,02 98 46 75 63,http://www.galeriezonzon.com,"[[u'Social', u'Arts', u'Art Dealers and Galleries']]"
0,Galerie Stella Vega,Brest,29200,6 rue Graveran,Finistère,fr,,02 98 46 18 13,,"[[u'Social', u'Arts', u'Art Dealers and Galleries']]"
0,La Galerie des Docks,Brest,29200,quai Eric Tabarly,Finistère,fr,,02 98 43 90 04,,"[[u'Social', u'Arts', u'Art Dealers and Galleries']]"
0,Galerie Jean Mace,Brest,29200,40 rue Jean Mace,Finistère,fr,,02 98 44 34 08,,"[[u'Social', u'Arts', u'Art Dealers and Galleries']]"
0,Galerie Stella Vega,Brest,29200,27 rue Siam,Finistère,fr,,02 98 46 18 13,,"[[u'Social', u'Arts', u'Art Dealers and Galleries']]"
0,Atelier,Brest,29200,15 rue Navarin,Finistère,fr,,02 98 44 59 83,,"[[u'Social', u'Arts', u'Art Dealers and Galleries']]"
0,Galerie Rejane Louin,Locquirec,29241,19 rue de l'Église,Finistère,fr,,02 98 79 36 57,http://www.galerierejanelouin.fr,"[[u'Social', u'Arts', u'Museums']]"
0,Galerie le Bouchon,Camaret sur Mer,29570,2 rue Liege,Finistère,fr,,02 98 27 89 85,,"[[u'Social', u'Arts', u'Art Dealers and Galleries']]"
0,La Galerie Carantec,Carantec,29660,9 rue de Tourville,Finistère,fr,,02 98 67 93 40,,"[[u'Social', u'Arts', u'Art Dealers and Galleries']]"
0,La Galerie Carantec,Carantec,29660,22 rue Pasteur,Finistère,fr,,02 98 67 93 40,,"[[u'Social', u'Arts', u'Art Dealers and Galleries']]"
0,Galerie Kervoazec,Plouhinec,29780,37 rue de Kervoazec,Finistère,fr,,02 98 74 91 51,,"[[u'Social', u'Arts', u'Art Dealers and Galleries']]"
0,La Corne Au Fer,Confort Meilars,29790,10 rue de Pen Ar Bed,Finistère,fr,,02 98 74 19 63,http://www.galerie-lacorneaufer.fr,"[[u'Social', u'Arts', u'Art Dealers and Galleries']]"
0,Galerie le Croissant de Lune,Landerneau,29800,12 rue Saint Thomas,Finistère,fr,,02 98 21 42 82,,"[[u'Social', u'Arts', u'Art Dealers and Galleries']]"
0,Gaillard Jean-Pierre,Landéda,29870,145 lieu-dit Ty Korn,Finistère,fr,,06 80 15 11 57,,"[[u'Social', u'Arts', u'Art Dealers and Galleries']]"
0,Galerie Gloux,Concarneau,29900,22 avenue du Docteur Pierre Nicolas,Finistère,fr,,02 98 97 32 23,http://www.facebook.com,"[[u'Social', u'Arts', u'Art Dealers and Galleries']]"
0,Galerie H Depoid,Concarneau,29900,2 boulevard Alfred Guillou,Finistère,fr,,02 98 97 30 58,,"[[u'Social', u'Arts', u'Art Dealers and Galleries']]"
0,Galerie Trannod,Concarneau,29900,11 rue Saint Guenole,Finistère,fr,,,,"[[u'Social', u'Arts', u'Art Dealers and Galleries']]"
0,Tilly Claudine,Concarneau,29900,chemin de Kerauret Bihan,Finistère,fr,,06 72 77 10 38,http://claudine.tilly.capifrance.fr,"[[u'Social', u'Arts', u'Art Dealers and Galleries']]"
0,Galerie M.guenaizia,Pont Aven,29930,6 place de l'Hôtel de Ville,Finistère,fr,,02 98 06 14 38,http://www.mguenaizia.com,"[[u'Social', u'Arts', u'Art Dealers and Galleries']]"
0,Galerie Dominique C,Pont Aven,29930,24 rue du Général de Gaulle,Finistère,fr,,02 98 09 13 59,http://www.galeriedominiquec.com,"[[u'Social', u'Arts', u'Art Dealers and Galleries']]"
0,Galerie l'Oiseau Bleu,Pont Aven,29930,2 place de l'Hôtel de Ville,Finistère,fr,,02 98 09 11 57,http://alain-thomas.com,"[[u'Social', u'Arts', u'Art Dealers and Galleries']]"
0,Galerie Artis,Pont Aven,29930,24 place de l'Hôtel de Ville,Finistère,fr,,02 98 06 03 50,http://www.galerietyaven.fr,"[[u'Social', u'Arts', u'Art Dealers and Galleries']]"
0,Galerie HB22,Pont Aven,29930,22 rue du Port,Finistère,fr,,02 98 71 08 56,,"[[u'Social', u'Arts', u'Art Dealers and Galleries']]"
0,Galerie du Verneur,Pont Aven,29930,4 rue Louis Lomenech,Finistère,fr,,02 98 06 02 16,,"[[u'Social', u'Arts', u'Art Dealers and Galleries']]"
0,Galerie Plisson,Pont Aven,29930,5 rue Emile Bernard,Finistère,fr,,02 98 06 57 14,,"[[u'Social', u'Arts', u'Art Dealers and Galleries']]"
0,Jaf' Art Galerie,Pont Aven,29930,11 rue du Général de Gaulle,Finistère,fr,,02 98 35 07 87,http://www.jaf-artgalerie.com/,"[[u'Social', u'Arts', u'Art Dealers and Galleries']]"
0,Galerie B,Pont Aven,29930,26 B rue du Général de Gaulle,Finistère,fr,,02 98 09 17 32,,"[[u'Social', u'Arts', u'Art Dealers and Galleries']]"
0,Galerie Daniel Besseiche,Pont Aven,29930,13 rue du Port,Finistère,fr,,02 98 06 11 02,,"[[u'Social', u'Arts', u'Art Dealers and Galleries']]"
0,Galerie Au Pont de l'Art,Pont Aven,29930,8 rue du Port,Finistère,fr,,02 98 35 00 70,,"[[u'Social', u'Arts', u'Art Dealers and Galleries']]"
0,Galerie le Breton,Pont Aven,29930,2 rue Meunières,Finistère,fr,,02 98 06 18 46,,"[[u'Social', u'Arts', u'Art Dealers and Galleries']]"
0,Galerie 22,Bénodet,29950,22 avenue de la Plage,Finistère,fr,,02 98 57 25 20,,"[[u'Social', u'Arts', u'Art Dealers and Galleries']]"
0,Galerie Minssen,Île Tudy,29980,10 rue des Cyprès,Finistère,fr,,06 86 75 64 62,,"[[u'Social', u'Arts', u'Art Dealers and Galleries']]"
0,Galerie d'Antrain,Rennes,35000,32 rue d'Antrain,Ille-et-Vilaine,fr,,02 99 63 00 09,http://www.galerie-antrain-cadres.fr,"[[u'Social', u'Arts', u'Art Dealers and Galleries']]"
0,Galerie Laute,Rennes,35000,17 rue Bertrand,Ille-et-Vilaine,fr,,02 99 79 23 81,http://www.galerielaute.com,"[[u'Social', u'Arts', u'Art Dealers and Galleries']]"
0,Galerie Art & Essai,Rennes,35000,2 place du Recteur Henri le Moal,Ille-et-Vilaine,fr,,02 99 14 11 42,http://www.univ-rennes2.fr/service-culturel/expositions,"[[u'Social', u'Arts', u'Art Dealers and Galleries']]"
0,Galerie Divet,Rennes,35000,4 rue Saint Guillaume,Ille-et-Vilaine,fr,,06 07 96 50 06,http://www.galeriedivet.com,"[[u'Social', u'Arts', u'Art Dealers and Galleries']]"
0,Galerie Nathalie Clouard,Rennes,35000,22 rue Hoche,Ille-et-Vilaine,fr,,09 64 14 54 37,http://www.galerie-nathalie-clouard.com,"[[u'Social', u'Arts', u'Art Dealers and Galleries']]"
0,Galerie Anaïs COLIN,Rennes,35000,24 rue Hoche,Ille-et-Vilaine,fr,,06 11 66 18 91,http://www.anaiscolin.com,"[[u'Social', u'Arts', u'Art Dealers and Galleries']]"
0,Galerie du Parlement,Rennes,35000,1 place du Parlement de Bretagne,Ille-et-Vilaine,fr,,02 99 22 25 22,http://www.galerieduparlement.com,"[[u'Social', u'Arts', u'Art Dealers and Galleries']]"
0,Barbotin Galerie,Rennes,35000,16 quai Duguay Trouin,Ille-et-Vilaine,fr,,02 99 31 01 77,,"[[u'Social', u'Arts', u'Art Dealers and Galleries']]"
0,Galerie Yves Halter,Rennes,35000,19 rue de la Monnaie,Ille-et-Vilaine,fr,,02 99 65 01 00,,"[[u'Social', u'Arts', u'Museums']]"
0,Galerie du Cloître,Rennes,35000,34 rue Hoche,Ille-et-Vilaine,fr,,02 23 62 22 60,,"[[u'Social', u'Arts', u'Art Dealers and Galleries']]"
0,Galerie Tony Rocfort,Rennes,35000,18 rue de Bertrand,Ille-et-Vilaine,fr,,02 99 27 58 60,,"[[u'Social', u'Arts', u'Art Dealers and Galleries']]"
0,Galerie Un Autre Regard,Rennes,35000,30 rue du Pré Botté,Ille-et-Vilaine,fr,,02 99 79 23 81,,"[[u'Social', u'Arts', u'Museums']]"
0,No Galerie,Rennes,35000,39 rue Armand Rébillon,Ille-et-Vilaine,fr,,06 20 58 38 54,,"[[u'Social', u'Arts', u'Art Dealers and Galleries']]"
0,Galerie Sambre,Rennes,35000,7 quai d'Ille et Rance,Ille-et-Vilaine,fr,,02 23 46 76 44,,"[[u'Social', u'Arts', u'Art Dealers and Galleries']]"
0,Galerie Taa Ka Na,Rennes,35000,8 rue de Coetquen,Ille-et-Vilaine,fr,,02 99 77 29 13,,"[[u'Social', u'Arts', u'Art Dealers and Galleries']]"
0,Galerie Massicot,Rennes,35000,9 rue de l'Horloge,Ille-et-Vilaine,fr,,02 99 79 05 81,,"[[u'Social', u'Arts', u'Art Dealers and Galleries']]"
0,Rançon Louis,Rennes,35000,12 rue de la Visitation,Ille-et-Vilaine,fr,,02 23 20 05 18,http://www.galerie-rancon.com,"[[u'Social', u'Arts', u'Art Dealers and Galleries']]"
0,Oniris,Rennes,35000,38 rue d'Antrain,Ille-et-Vilaine,fr,,02 99 36 46 06,http://www.galerie-oniris.fr,"[[u'Social', u'Arts', u'Art Dealers and Galleries']]"
0,Galerie Plél'Art,Plélan le Grand,35380,le Gué,Ille-et-Vilaine,fr,,02 90 30 51 66,,"[[u'Social', u'Arts', u'Art Dealers and Galleries']]"
0,Galerie du Marais,Saint Malo,35400,1 place Gasnier Duparc,Ille-et-Vilaine,fr,,02 99 56 80 54,http://www.galerie-du-marais.com,"[[u'Social', u'Arts', u'Art Dealers and Galleries']]"
0,Galerie des Sablons,Saint Malo,35400,13 rue de Siam,Ille-et-Vilaine,fr,,02 99 82 33 40,,"[[u'Social', u'Arts', u'Art Dealers and Galleries']]"
0,Atelier Galerie Shwan,Saint Malo,35400,place Vauban,Ille-et-Vilaine,fr,,06 86 89 28 46,,"[[u'Social', u'Arts', u'Art Dealers and Galleries']]"
0,Galerie Ombre et Lumière,Saint Malo,35400,7 Passage de l'Émerillon,Ille-et-Vilaine,fr,,02 23 18 44 80,,"[[u'Social', u'Arts', u'Art Dealers and Galleries']]"
0,Galerie Plisson,Saint Malo,35400,9 rue des Cordiers,Ille-et-Vilaine,fr,,02 23 18 44 80,,"[[u'Social', u'Arts', u'Art Dealers and Galleries']]"
0,La Petite Galerie,Saint Malo,35400,4 rue du Pourpris,Ille-et-Vilaine,fr,,,,"[[u'Social', u'Arts']]"
0,Galerie Alpheios,Saint Malo,35400,4 place Jean de Chatillon,Ille-et-Vilaine,fr,,06 33 75 93 54,,"[[u'Social', u'Arts', u'Museums']]"
0,Petit Pierre,Saint Malo,35400,1 place Jean de Chatillon,Ille-et-Vilaine,fr,,02 99 40 29 78,,"[[u'Social', u'Arts', u'Art Dealers and Galleries']]"
0,Les Artistes et la Mer,Saint Malo,35400,9 rue de la Blatrerie,Ille-et-Vilaine,fr,,02 99 56 49 46,,"[[u'Social', u'Arts', u'Art Dealers and Galleries']]"
0,Galerie Leterreau,Rennes,35700,17 rue d'Antrain,Ille-et-Vilaine,fr,,02 99 87 02 15,http://www.briecleterreau.com,"[[u'Social', u'Arts', u'Art Dealers and Galleries']]"
0,Oniris Neo,Rennes,35700,38 rue d'Antrain,Ille-et-Vilaine,fr,,06 71 63 36 33,http://www.galerie-oniris.fr,"[[u'Social', u'Arts', u'Art Dealers and Galleries']]"
0,Galerie Mica,Saint Grégoire,35760,route Meuble Impasse Brosse,Ille-et-Vilaine,fr,,02 99 13 17 82,http://www.espace-mica.com,"[[u'Social', u'Arts', u'Art Dealers and Galleries']]"
0,Galerie Daniel Besseiche,Dinard,35800,6 boulevard du Président Wilson,Ille-et-Vilaine,fr,,02 99 46 51 15,http://besseiche.com,"[[u'Social', u'Arts', u'Art Dealers and Galleries']]"
0,Galerie du Phonographe,Dinard,35800,7 rue du Maréchal Leclerc,Ille-et-Vilaine,fr,,02 99 46 60 66,,"[[u'Social', u'Arts', u'Art Dealers and Galleries']]"
0,Galerie d'Art du Prince Noir,Dinard,35800,70 Bis avenue George V,Ille-et-Vilaine,fr,,02 99 46 29 99,,"[[u'Social', u'Arts', u'Art Dealers and Galleries']]"
0,Galerie Saphir,Dinard,35800,38 rue du Maréchal Leclerc,Ille-et-Vilaine,fr,,02 99 46 86 85,,"[[u'Social', u'Arts', u'Art Dealers and Galleries']]"
0,Galerie Din'art,Dinard,35800,35 rue du Maréchal Leclerc,Ille-et-Vilaine,fr,,02 99 46 92 23,,"[[u'Social', u'Arts', u'Art Dealers and Galleries']]"
0,Art Littoral Galerie,Dinard,35800,6 Bis rue Maréchal Leclerc,Ille-et-Vilaine,fr,,02 99 46 84 84,,"[[u'Social', u'Arts', u'Art Dealers and Galleries']]"
0,Galerie Sirénades,Dinard,35800,40 rue du maréchal Leclerc,Ille-et-Vilaine,fr,,02 99 46 23 89,,"[[u'Social', u'Arts', u'Art Dealers and Galleries']]"
0,Art Littoral Galerie,Dinard,35800,26 rue de la Paix,Ille-et-Vilaine,fr,,02 99 46 84 84,,"[[u'Social', u'Arts', u'Art Dealers and Galleries']]"
0,Galerie Raymond Glémeau dit Ronan,Dinard,35800,71 boulevard Feart,Ille-et-Vilaine,fr,,02 99 46 17 49,,"[[u'Social', u'Arts', u'Art Dealers and Galleries']]"
0,Galerie d'Art Arc-en-Ciel,Dinard,35800,4 bis rue du Maréchal Leclerc,Ille-et-Vilaine,fr,,02 99 16 32 90,,"[[u'Social', u'Arts', u'Art Dealers and Galleries']]"
0,Galerie Art Comparaison,Dinard,35800,8 rue du Maréchal Leclerc,Ille-et-Vilaine,fr,,02 99 16 40 29,,"[[u'Social', u'Arts', u'Art Dealers and Galleries']]"
0,Artémise,Dinard,35800,1 rue Alain Gerbault,Ille-et-Vilaine,fr,,02 99 16 98 73,http://www.galerie-artemise.com/contact/contact.htm,"[[u'Social', u'Arts', u'Art Dealers and Galleries']]"
0,Bonade Alexandre,Dinard,35800,11 rue Levavasseur,Ille-et-Vilaine,fr,,02 99 16 91 14,,"[[u'Social', u'Arts', u'Art Dealers and Galleries']]"
0,Editions Vue sur Mer,Dinard,35800,16 rue Levavasseur,Ille-et-Vilaine,fr,,02 99 88 14 99,,"[[u'Social', u'Arts', u'Art Dealers and Galleries']]"
0,Galerie Doyen,Vannes,56000,4 rue de la Bienfaisance,Morbihan,fr,,02 97 47 08 93,http://www.galerie-doyen.com,"[[u'Social', u'Arts', u'Art Dealers and Galleries']]"
0,Galerie le Lieu,Lorient,56100,quai de Rohan,Morbihan,fr,,02 97 21 18 02,http://www.galerielelieu.com,"[[u'Social', u'Arts', u'Art Dealers and Galleries']]"
0,La Palette,Lorient,56100,12 place Anatole le Braz,Morbihan,fr,,02 97 64 36 99,,"[[u'Social', u'Arts', u'Art Dealers and Galleries']]"
0,Galerie Serot,Quiberon,56170,1 quai de l'Ocean,Morbihan,fr,,02 97 50 31 27,,"[[u'Social', u'Arts', u'Art Dealers and Galleries']]"
0,Carnacadre,Carnac,56340,avenue de Port en Drô,Morbihan,fr,,02 97 52 86 99,http://www.galerie-port-en-dro.com/,"[[u'Social', u'Arts', u'Art Dealers and Galleries']]"
0,Galerie Patman,Locmaria Belle Ile,56360,rue Vauban,Morbihan,fr,,02 97 31 99 15,,"[[u'Social', u'Arts', u'Art Dealers and Galleries']]"
0,Art en l'Île,Le Palais,56360,1 rue Manutention,Morbihan,fr,,02 97 31 59 33,,"[[u'Social', u'Arts', u'Art Dealers and Galleries']]"
0,Galerie Jean Jacques RIO,Auray,56400,30 rue Georges Clemenceau,Morbihan,fr,,02 97 52 74 75,http://www.galerie-jjrio.com,"[[u'Social', u'Arts', u'Art Dealers and Galleries']]"
0,Galerie du Château,Auray,56400,45 rue du Château,Morbihan,fr,,02 97 50 72 88,,"[[u'Social', u'Arts', u'Art Dealers and Galleries']]"
0,L'Original-Galerie,Auray,56400,14 rue Château,Morbihan,fr,,02 97 29 46 74,,"[[u'Social', u'Arts', u'Art Dealers and Galleries']]"
0,Galerie Benjamine,La Trinité sur Mer,56470,Embarquadère cours Quais,Morbihan,fr,,02 97 55 89 43,,"[[u'Social', u'Arts', u'Art Dealers and Galleries']]"
0,Galerie Plisson,La Trinité sur Mer,56470,17 cours des Quais,Morbihan,fr,,02 97 30 15 15,http://www.plisson.com,"[[u'Social', u'Arts', u'Art Dealers and Galleries']]"
0,Galerie de Kerbrest,Guidel,56520,4 rue des Terres Fortes,Morbihan,fr,,02 97 05 92 34,http://galeriekerbrest.blogspot.fr,"[[u'Social', u'Arts', u'Art Dealers and Galleries']]"
0,Atelier et Galerie d'Art Elisabeth Poirier,Pont Scorff,56620,28 rue François Mauriac,Morbihan,fr,,06 46 40 90 05,http://www.elisabethpoirier.com,"[[u'Social', u'Arts']]"
0,Galerie Pictura,Bourges,18000,15 rue Littré,Cher,fr,,02 48 48 18 33,,"[[u'Social', u'Arts', u'Art Dealers and Galleries']]"
0,Galerie Jacques Coeur Magasin,Bourges,18000,3 rue Faidherbe,Cher,fr,,02 48 70 40 44,,"[[u'Social', u'Arts', u'Art Dealers and Galleries']]"
0,Association Pictura,Bourges,18000,15 rue Littré,Cher,fr,,02 48 48 18 33,http://galeriepictura.pagesperso-orange.fr/,"[[u'Social', u'Arts', u'Art Dealers and Galleries']]"
0,Galerie Garnier Delaporte,Sancerre,18300,Bourg Chavignol,Cher,fr,,02 48 54 29 21,,"[[u'Social', u'Arts', u'Art Dealers and Galleries']]"
0,Galerie d'Art de la Tour,Sancerre,18300,2 rue Vieilles Boucheries,Cher,fr,,02 48 54 02 07,,"[[u'Social', u'Arts', u'Art Dealers and Galleries']]"
0,Galerie Capazza-Grenier de Villâtre,Nançay,18330,1 rue des Faubourgs,Cher,fr,,02 48 51 80 22,http://www.galerie-capazza.com,"[[u'Social', u'Arts', u'Art Dealers and Galleries']]"
0,Galerie Capazza,Nançay,18330,Grenier de Villâtre 1 rue Faubourgs,Cher,fr,,02 48 51 80 22,http://www.galerie-capazza.com,"[[u'Social', u'Arts', u'Art Dealers and Galleries']]"
0,Galerie Potereau,Châteauroux,36000,87 rue Grande,Indre,fr,,02 54 34 44 37,,"[[u'Social', u'Arts', u'Art Dealers and Galleries']]"
0,Galerie d'Art Saint Martial,Châteauroux,36000,32 rue Grande,Indre,fr,,02 54 07 88 35,,"[[u'Social', u'Arts', u'Art Dealers and Galleries']]"
0,Galerie du Liseron-Cabinet de Décoration Intérieure-Galerie d'art  à Tours,Tours,37000,14 rue Georges Courteline,Indre-et-Loire,fr,,02 47 77 09 17,,"[[u'Social', u'Arts', u'Art Dealers and Galleries']]"
0,Galerie Béranger,Tours,37000,30 boulevard Béranger,Indre-et-Loire,fr,,06 70 20 90 10,http://www.galerie-beranger.fr,"[[u'Social', u'Arts', u'Art Dealers and Galleries']]"
0,Galerie 21,Tours,37000,58 rue de la Scellerie,Indre-et-Loire,fr,,02 47 05 76 19,http://www.galerie-21.fr/,"[[u'Social', u'Arts', u'Art Dealers and Galleries']]"
0,Arts Home Galerie,Tours,37000,32 bis rue Briçonnet,Indre-et-Loire,fr,,02 47 61 72 98,,"[[u'Social', u'Arts', u'Art Dealers and Galleries']]"
0,Galerie Noury Jacques,Tours,37000,15 place de la Resistance,Indre-et-Loire,fr,,02 47 64 25 76,,"[[u'Social', u'Arts', u'Art Dealers and Galleries']]"
0,Studio Célanie,Tours,37000,12 rue Georges Courteline,Indre-et-Loire,fr,,02 47 38 28 71,http://www.studiocelanie.info,"[[u'Social', u'Arts', u'Art Dealers and Galleries']]"
0,Galerie Claude Bernard,Villedômer,37110,Ld la Besnardiere,Indre-et-Loire,fr,,02 47 55 01 02,,"[[u'Social', u'Arts', u'Art Dealers and Galleries']]"
0,Fontaine Didier,Azay Le Rideau,37190,13 rue Balzac,Indre-et-Loire,fr,,02 47 45 47 77,,"[[u'Social', u'Arts', u'Art Dealers and Galleries']]"
0,Galerie Colombière,Fondettes,37230,le Soreau,Indre-et-Loire,fr,,02 47 41 13 05,,"[[u'Social', u'Arts', u'Art Dealers and Galleries']]"
0,Le Tunnel 37,Véretz,37270,11-13 rue Vieille,Indre-et-Loire,fr,,02 47 50 35 90,http://cours-dessin-peinture-tours-lt37.blogspot.fr/,"[[u'Social', u'Arts', u'Art Dealers and Galleries']]"
0,Galerie d'Art la Martinerie,Amboise,37400,7 Bis Rampe Chateau,Indre-et-Loire,fr,,02 47 57 37 51,http://expo.artactif.com/atma/,"[[u'Social', u'Arts', u'Art Dealers and Galleries']]"
0,Galerie Bordier,Amboise,37400,23 rue Nationale,Indre-et-Loire,fr,,02 47 23 00 47,,"[[u'Social', u'Arts', u'Museums']]"
0,Galerie du Lion,Orléans,45000,6 rue de la Croix de Malte,Loiret,fr,,02 38 73 64 12,http://www.galeriedulion.com,"[[u'Social', u'Arts', u'Art Dealers and Galleries']]"
0,Galerie Sigfrid,Orléans,45000,9 rue Pereira,Loiret,fr,,02 38 68 20 74,,"[[u'Social', u'Arts', u'Art Dealers and Galleries']]"
0,Galerie d'Angleterre,Orléans,45000,13 rue d'Angleterre,Loiret,fr,,02 38 62 16 89,,"[[u'Social', u'Arts', u'Art Dealers and Galleries']]"
0,Galerie Saint Marceau des Prés,Orléans,45000,19 place de la Bascule,Loiret,fr,,02 38 51 89 14,,"[[u'Social', u'Arts', u'Art Dealers and Galleries']]"
0,Galerie d'Art les Alizes,Orléans,45000,288 rue de Bourgogne,Loiret,fr,,02 38 68 01 70,,"[[u'Social', u'Arts', u'Art Dealers and Galleries']]"
0,Guichard Pascal,Orléans,45000,4 rue Théophile Chollet,Loiret,fr,,02 38 52 99 76,http://www.galerie-artguichard.com,"[[u'Social', u'Arts', u'Art Dealers and Galleries']]"
0,Galerie de la Licorne,Ascoux,45300,6 rue Pithiviers,Loiret,fr,,02 38 33 00 91,,"[[u'Social', u'Arts', u'Art Dealers and Galleries']]"
