,Name,Locality,Postalcode,Address,Region,Country,Neighborhood,Phone,Website,Category Labels
0,,,,,,,,,,
0,Antiquité Baldaquin,Auriol,13390,chemin de l'Horloge,Bouches-du-Rhône,fr,,06 09 86 33 44,,"[[u'Social', u'Arts', u'Art Dealers and Galleries']]"
0,Brocante de Pont de l'Etoile,Aubagne,13400,quart Bonherbe Pont l'Etoile route Nationale 396,Bouches-du-Rhône,fr,,04 42 04 08 36,,"[[u'Social', u'Arts', u'Art Dealers and Galleries']]"
0,Galerie Mogador,Aubagne,13400,10 avenue Elzeard Rougier,Bouches-du-Rhône,fr,,,,"[[u'Social', u'Arts', u'Art Dealers and Galleries']]"
0,Fournier Yolande,Lambesc,13410,route Nationale 7,Bouches-du-Rhône,fr,,04 42 92 74 24,,"[[u'Social', u'Arts', u'Art Dealers and Galleries']]"
0,Galerie Indigo,Martigues,13500,8 Bis rue Marcel Galdy,Bouches-du-Rhône,fr,,04 42 49 20 55,,"[[u'Social', u'Arts', u'Art Dealers and Galleries']]"
0,Galerie du Musée,Les Baux De Provence,13520,rue Eglise À Ancienne Mairie,Bouches-du-Rhône,fr,,04 90 54 49 42,,"[[u'Social', u'Arts', u'Art Dealers and Galleries']]"
0,Laugier Yves,Maussane les Alpilles,13520,2 rue Fleurs,Bouches-du-Rhône,fr,,04 88 18 33 78,,"[[u'Social', u'Arts', u'Art Dealers and Galleries']]"
0,Galerie Art Africain d'Afrique Noire,Trets,13530,362 route de Saint-Zacharie,Bouches-du-Rhône,fr,,06 77 71 53 13,http://www.art-africain.com/,"[[u'Social', u'Arts', u'Art Dealers and Galleries']]"
0,Antiquaires de Lignane,Aix en Provence,13540,6110 route d'Avignon,Bouches-du-Rhône,fr,,04 42 92 38 28,http://www.curiositel.com/aix_en_provence/antiquaires_lignane.htm,"[[u'Social', u'Arts', u'Art Dealers and Galleries']]"
0,Les Lauves,Aix en Provence,13540,chemin des Lauves,Bouches-du-Rhône,fr,,04 42 63 25 95,,"[[u'Landmarks'], [u'Social', u'Arts', u'Art Dealers and Galleries']]"
0,D.S. Antiquités,Aix en Provence,13540,5675 route nationale 7 Puyricard,Bouches-du-Rhône,fr,,04 42 28 30 91,http://www.dsantiquites.com,"[[u'Social', u'Arts', u'Art Dealers and Galleries']]"
0,La Boutique,Aix en Provence,13540,6110 route Avignon,Bouches-du-Rhône,fr,,04 42 92 57 57,,"[[u'Social', u'Arts', u'Art Dealers and Galleries']]"
0,Abacule Antiquites-Antic Deco Galerie,Aix en Provence,13540,4655 route d'Avignon,Bouches-du-Rhône,fr,,04 42 21 99 96,,"[[u'Social', u'Arts', u'Art Dealers and Galleries']]"
0,Mellet François,Meyreuil,13590,chemin des Bastidons,Bouches-du-Rhône,fr,,06 61 89 46 80,,"[[u'Social', u'Arts', u'Art Dealers and Galleries']]"
0,Sassatelli Armand,Meyreuil,13590,chemin des bastidons,Bouches-du-Rhône,fr,,04 42 51 23 18,,"[[u'Social', u'Arts', u'Art Dealers and Galleries']]"
0,Michel Robert,La Ciotat,13600,7 avenue Georges Wilson,Bouches-du-Rhône,fr,,06 81 71 77 12,,"[[u'Social', u'Arts', u'Art Dealers and Galleries']]"
0,Condomines Anne Marie,,13640,26 avenue de Sylvacane,Bouches-du-Rhône,fr,,09 71 52 36 50,,"[[u'Social', u'Arts', u'Art Dealers and Galleries']]"
0,Brocantiq Provence,Meyrargues,13650,4 avenue Frédéric Mistral,Bouches-du-Rhône,fr,,04 42 92 59 64,http://www.brocantiqprovence.fr,"[[u'Social', u'Arts', u'Art Dealers and Galleries']]"
0,Brocante la Grange de Meyrargues,Meyrargues,13650,route Nationale 96,Bouches-du-Rhône,fr,,04 42 63 49 00,,"[[u'Social', u'Arts', u'Art Dealers and Galleries']]"
0,Vachet Max,Graveson,13690,12 place Staine Marie,Bouches-du-Rhône,fr,,04 90 95 88 63,,"[[u'Social', u'Arts', u'Art Dealers and Galleries']]"
0,Brocante-Antiquités Gilles Barse,Saint Cannat,13760,4 place de la Bascule,Bouches-du-Rhône,fr,,04 42 50 65 15,,"[[u'Social', u'Arts', u'Art Dealers and Galleries']]"
0,Frey Michel,Venelles,13770,740 chemin Petite Bastide,Bouches-du-Rhône,fr,,04 42 54 71 17,,"[[u'Social', u'Arts', u'Art Dealers and Galleries']]"
0,Le Grenier Sainte Victoire,Rousset,13790,route Nationale 7,Bouches-du-Rhône,fr,,04 42 53 27 88,,"[[u'Social', u'Arts', u'Art Dealers and Galleries']]"
0,La Broc2caractères,Istres,13800,Hameau Saint Felix,Bouches-du-Rhône,fr,,06 34 90 30 28,http://www.debarras-istres.fr,"[[u'Social', u'Arts', u'Art Dealers and Galleries']]"
0,Colombo  à Istres,Istres,13800,6 avenue Tube,Bouches-du-Rhône,fr,,04 42 56 05 85,,"[[u'Social', u'Arts', u'Art Dealers and Galleries']]"
0,De Turris Laurent,La Penne Sur Huveaune,13821,54 boulevard Voltaire,Bouches-du-Rhône,fr,,06 82 05 73 42,,"[[u'Social', u'Arts', u'Art Dealers and Galleries']]"
0,Pomares Robert,Rognonas,13870,2 Impasse du Bon Ange,Bouches-du-Rhône,fr,,06 21 91 32 30,,"[[u'Social', u'Arts', u'Art Dealers and Galleries']]"
0,Durand Gerard,Mollégès,13940,route de Saint REMY D99,Bouches-du-Rhône,fr,,06 09 87 19 66,,"[[u'Social', u'Arts', u'Art Dealers and Galleries']]"
0,Galerie Berlioz,Sausset les Pins,13960,1 avenue Clement Monnier,Bouches-du-Rhône,fr,,04 42 45 09 80,,"[[u'Social', u'Arts', u'Art Dealers and Galleries']]"
0,Pascal Patrick,Fontvieille,13990,45 rue de la Tour,Bouches-du-Rhône,fr,,04 90 54 70 32,,"[[u'Social', u'Arts', u'Art Dealers and Galleries']]"
0,Le Lion Qui Nous Regarde,Fontvieille,13990,28 rue Lion,Bouches-du-Rhône,fr,,04 90 54 78 92,,"[[u'Social', u'Arts', u'Art Dealers and Galleries']]"
0,Galerie Michel Estades,Toulon,83000,22 rue Henri Seillon,Var,fr,,04 94 89 49 98,http://www.estades.com,"[[u'Social', u'Arts', u'Art Dealers and Galleries'], [u'Landmarks']]"
0,Galerie Mazarin,Toulon,83000,4 avenue Colbert,Var,fr,,04 94 93 55 44,http://www.galerie-mazarin.com,"[[u'Social', u'Arts', u'Art Dealers and Galleries']]"
0,Elonie Express,Toulon,83000,293 rue Henri Poincaré,Var,fr,,04 98 00 98 04,"http://www.cashexpress.fr/magasin-toulon-rode,236.html","[[u'Social', u'Arts', u'Art Dealers and Galleries']]"
0,Cafe-Theatre de la Porte d'Italie,Toulon,83000,place armand vallée,Var,fr,,06 65 62 59 69,http://pagesperso-orange.fr/barjaque,"[[u'Social', u'Arts', u'Art Dealers and Galleries'], [u'Landmarks']]"
0,Le Beret Vert,Toulon,83000,217 avenue de la République,Var,fr,,04 94 92 69 96,http://www.leberetvert.com,"[[u'Social', u'Arts', u'Art Dealers and Galleries']]"
0,Comptoir de Change Numismatique,Toulon,83000,28 avenue Jean Moulin,Var,fr,,04 94 93 51 36,http://www.achat-or-change.com,"[[u'Social', u'Arts', u'Art Dealers and Galleries']]"
0,Espace Castillon,Toulon,83000,22 rue Paul Lendrin,Var,fr,,04 94 93 47 33,http://espacecastillon.free.fr,"[[u'Social', u'Arts', u'Art Dealers and Galleries']]"
0,No Id,Toulon,83000,18 rue d'Antrechaus,Var,fr,,04 94 62 34 77,http://www.noidplanet.com,"[[u'Social', u'Arts', u'Art Dealers and Galleries']]"
0,Ma Boutique,Toulon,83000,72 avenue du Maréchal Foch,Var,fr,,04 94 92 66 25,,"[[u'Social', u'Arts', u'Art Dealers and Galleries']]"
0,Antic Julie et Renato,Toulon,83000,883 boulevard du Faron,Var,fr,,04 94 92 39 93,,"[[u'Social', u'Arts', u'Art Dealers and Galleries']]"
0,Lecomte-Durouil Marc,Toulon,83000,49 rue Lamalgue,Var,fr,,04 94 41 19 05,,"[[u'Social', u'Arts', u'Art Dealers and Galleries']]"
0,Au Plaisir du Broc,Toulon,83000,38 rue Paul Lendrin,Var,fr,,06 25 33 50 62,,"[[u'Social', u'Arts', u'Art Dealers and Galleries']]"
0,Flordavelia,Toulon,83000,21 rue Peiresc,Var,fr,,04 94 62 74 11,http://www.flordavelia.com,"[[u'Social', u'Arts', u'Art Dealers and Galleries']]"
0,La Minerve,Toulon,83000,11 rue Garibaldi,Var,fr,,04 94 92 93 18,,"[[u'Social', u'Arts', u'Art Dealers and Galleries']]"
0,Galerie Obam,Toulon,83000,46 rue Lamalgue,Var,fr,,04 94 71 49 88,,"[[u'Social', u'Arts', u'Art Dealers and Galleries']]"
0,Haliotis,Toulon,83000,18 rue Henri Seillon,Var,fr,,04 94 91 93 10,,"[[u'Social', u'Arts', u'Art Dealers and Galleries']]"
0,Artea Blue,Toulon,83000,30 rue Lamalgue,Var,fr,,04 94 71 22 63,,"[[u'Social', u'Arts', u'Art Dealers and Galleries']]"
0,Dauphin Tableaux,Toulon,83000,5 rue Picot,Var,fr,,06 62 31 71 22,,"[[u'Social', u'Arts', u'Art Dealers and Galleries']]"
0,Rossi Antiquités,Toulon,83000,2 rue Castel,Var,fr,,04 94 31 32 64,,"[[u'Social', u'Arts', u'Art Dealers and Galleries']]"
0,Jadis Brocante,Toulon,83000,9 avenue Val Fleuri,Var,fr,,04 94 92 81 25,,"[[u'Social', u'Arts', u'Art Dealers and Galleries']]"
0,Espace Castillon,Toulon,83000,5 rue Henri Seillon,Var,fr,,04 94 93 47 33,,"[[u'Social', u'Arts', u'Art Dealers and Galleries']]"
0,Atelier amedeo,Toulon,83000,44 rue Castillon,Var,fr,,06 82 90 59 19,,"[[u'Social', u'Arts', u'Art Dealers and Galleries']]"
0,Galerie Boeuf,Toulon,83000,49 rue Jean Jaurès,Var,fr,,04 94 93 27 80,,"[[u'Social', u'Arts', u'Art Dealers and Galleries']]"
0,Arcane,Toulon,83000,112 rue Emile Vincent,Var,fr,,04 94 15 28 35,,"[[u'Social', u'Arts', u'Art Dealers and Galleries']]"
0,Duwoye Michel,Toulon,83000,217 avenue de la République,Var,fr,,09 75 90 78 53,,"[[u'Social', u'Arts', u'Art Dealers and Galleries']]"
0,Tissier Fabien,Toulon,83000,38 avenue Philippe Lebon,Var,fr,,06 12 56 21 81,,"[[u'Social', u'Arts', u'Art Dealers and Galleries']]"
0,La Fiancée du Pirate,Toulon,83000,55 rue Lamalgue,Var,fr,,04 94 03 47 54,,"[[u'Social', u'Arts', u'Art Dealers and Galleries']]"
0,Bourdin Pascal à Toulon,Toulon,83000,157 rue Emile Vincent,Var,fr,,09 50 58 01 91,,"[[u'Social', u'Arts', u'Art Dealers and Galleries']]"
0,Marseguerra Aldo à Toulon,Toulon,83000,41 rue Bon Pasteur,Var,fr,,04 94 29 50 93,,"[[u'Social', u'Arts', u'Art Dealers and Galleries']]"
0,Atelier Crouzet,Sanary sur Mer,83110,16 rue Gaillard,Var,fr,,06 87 55 66 61,http://www.ateliercrouzet.com,"[[u'Social', u'Arts', u'Art Dealers and Galleries']]"
0,Coenca Gérard,Sanary sur Mer,83110,27 rue Siat Marcellin,Var,fr,,04 94 74 45 33,,"[[u'Social', u'Arts', u'Art Dealers and Galleries']]"
0,Intemporel,Sanary sur Mer,83110,8 rue Gaillard,Var,fr,,06 88 08 64 61,,"[[u'Social', u'Arts', u'Art Dealers and Galleries']]"
0,Galerie d'art Toiles et Feuilles Exposition permanente Adaoust à Sanary-sur-Mer,Sanary sur Mer,83110,16 rue Gaillard,Var,fr,,04 94 88 24 42,,"[[u'Social', u'Arts', u'Art Dealers and Galleries']]"
0,Galerie la Santoline,Sanary sur Mer,83110,13 rue Barthélémy de Don,Var,fr,,04 94 88 34 66,,"[[u'Social', u'Arts', u'Art Dealers and Galleries']]"
0,Galerie Regard,Sainte Maxime,83120,17 avenue Georges Clemenceau,Var,fr,,04 94 56 57 63,http://www.galerie-regard.com,"[[u'Social', u'Arts', u'Art Dealers and Galleries']]"
0,Tournebize Guy,Sainte Maxime,83120,3 chemin des Cigales,Var,fr,,04 94 96 31 01,,"[[u'Social', u'Arts', u'Art Dealers and Galleries']]"
0,Briffe Team,Sainte Maxime,83120,24 avenue de Lattre de Tassigny,Var,fr,,04 94 43 25 39,,"[[u'Social', u'Arts', u'Art Dealers and Galleries']]"
0,Frenchie's Collection,Rocbaron,83136,695 chemin des Escoulettes,Var,fr,,06 76 28 76 17,,"[[u'Social', u'Arts', u'Art Dealers and Galleries']]"
0,Galerie la Palette,La Valette du Var,83160,avenue Anatole France allée Julie Agniel,Var,fr,,06 60 55 93 21,http://www.galerielapalette.com,"[[u'Social', u'Arts', u'Art Dealers and Galleries']]"
0,Persico Didier,La Valette du Var,83160,48 avenue des Moulières,Var,fr,,04 94 14 05 05,,"[[u'Social', u'Arts', u'Art Dealers and Galleries']]"
0,L'Homme Debout,La Valette du Var,83160,11 rue Emile Zola,Var,fr,,06 64 42 90 90,,"[[u'Social', u'Arts', u'Art Dealers and Galleries']]"
0,Echos d'Art,Ollioules,83190,12 rue Gambetta,Var,fr,,04 94 63 06 92,http://echosdart.jimdo.com,"[[u'Social', u'Arts', u'Art Dealers and Galleries']]"
0,Atelier Crouzet,Ollioules,83190,375 avenue de la Résistance,Var,fr,,06 15 09 02 58,http://www.ateliercrouzet.com,"[[u'Social', u'Arts', u'Art Dealers and Galleries']]"
0,Troccom,Ollioules,83190,51 chemin Lou Foevi,Var,fr,,04 98 00 00 33,http://www.troc.com/fr/,"[[u'Social', u'Arts', u'Art Dealers and Galleries']]"
0,Brocante,Ollioules,83190,593 route Nationale 8,Var,fr,,04 94 63 37 88,,"[[u'Social', u'Arts', u'Art Dealers and Galleries']]"
0,Herbaut Catherine,Toulon,83200,166 rue de l'Amiral Cellier,Var,fr,,06 81 01 77 28,,"[[u'Social', u'Arts', u'Art Dealers and Galleries']]"
0,Vaccaretti Alain,Toulon,83200,68 chemin Clapiere,Var,fr,,04 94 24 54 61,,"[[u'Social', u'Arts', u'Art Dealers and Galleries']]"
0,Atelier Crouzet,Toulon,83200,410 chemin de Moneiret,Var,fr,,06 15 09 02 58,,"[[u'Social', u'Arts', u'Art Dealers and Galleries']]"
0,Au Fil du Temps,Toulon,83200,31 avenue A Guichon de Grandpont,Var,fr,,06 03 89 49 15,,"[[u'Social', u'Arts', u'Art Dealers and Galleries']]"
0,Casadella Ensie,Solliès Pont,83210,quartier Laderier,Var,fr,,04 94 33 34 32,,"[[u'Social', u'Arts', u'Art Dealers and Galleries']]"
0,La Brocante,La Farlède,83210,13 Impasse Ventre,Var,fr,,06 13 59 76 85,,"[[u'Social', u'Arts', u'Art Dealers and Galleries']]"
0,Antic Defay,La Farlède,83210,94 chemin du Merle,Var,fr,,04 94 33 00 04,,"[[u'Social', u'Arts', u'Art Dealers and Galleries']]"
0,atelier taches d'encre à la Farlède,La Farlède,83210,80 rue de la République,Var,fr,,06 99 13 91 63,,"[[u'Social', u'Arts', u'Art Dealers and Galleries']]"
0,Balfet Christian,Le Pradet,83220,Bâtiment Kl avenue Pin de Galle,Var,fr,,04 94 75 68 97,,"[[u'Social', u'Arts', u'Art Dealers and Galleries']]"
0,Galerie d'Art Bormes,Bormes les Mimosas,83230,2 place Gambetta,Var,fr,,04 94 71 15 24,,"[[u'Social', u'Arts', u'Art Dealers and Galleries']]"
0,Riboulot Olivier,Bormes Les Mimosas,83230,2266 route de Cabasson,Var,fr,,04 94 15 09 11,,"[[u'Social', u'Arts', u'Art Dealers and Galleries']]"
0,Au Plaisir du Cadeau,Bormes les Mimosas,83230,420 quartier Faviere,Var,fr,,06 29 57 65 21,,"[[u'Social', u'Arts', u'Art Dealers and Galleries']]"
0,La Galerie d'As,Cavalaire sur Mer,83240,25 rue Aubanel,Var,fr,,06 23 10 77 43,,"[[u'Social', u'Arts', u'Art Dealers and Galleries']]"
0,Liam Antic,La Crau,83260,1617 chemin de la Navarre,Var,fr,,06 70 33 77 80,,"[[u'Social', u'Arts', u'Art Dealers and Galleries']]"
0,Brocante la Remise à la Crau,La Crau,83260,25 avenue Gare,Var,fr,,04 94 66 24 13,,"[[u'Social', u'Arts', u'Art Dealers and Galleries']]"
0,Antiquités Saint Jean,Draguignan,83300,3 avenue Pierre Brossolette,Var,fr,,06 03 35 94 94,,"[[u'Social', u'Arts', u'Art Dealers and Galleries']]"
0,Smds Communications à Draguignan,Draguignan,83300,1174 chemin Saint Joseph,Var,fr,,06 59 84 00 86,,"[[u'Social', u'Arts', u'Art Dealers and Galleries']]"
0,Le Grenier d'Arthenice,Draguignan,83300,1252 chemin la Motte,Var,fr,,06 25 15 74 01,,"[[u'Social', u'Arts', u'Art Dealers and Galleries']]"
0,Galerie Artagra,Grimaud,83310,14 rue des Templiers,Var,fr,,04 94 56 80 11,http://www.galerie-artagra-grimaud.com,"[[u'Social', u'Arts', u'Art Dealers and Galleries']]"
0,Adam Thierry,Cogolin,83310,39 rue Carnot D558,Var,fr,,04 94 54 15 32,,"[[u'Social', u'Arts', u'Art Dealers and Galleries']]"
0,Galerie Nathalie Duchayne,Grimaud,83310,rue de la Tour,Var,fr,,06 12 98 77 44,,"[[u'Social', u'Arts', u'Art Dealers and Galleries']]"
0,Galerie Mason-Noirez,Cogolin,83310,4 rue Edgar Quinet,Var,fr,,06 72 20 96 26,http://www.galeriemasonnoirez.com,"[[u'Social', u'Arts', u'Art Dealers and Galleries']]"
0,Commandoux,Grimaud,83310,chemin de Rascas,Var,fr,,04 94 55 67 40,http://www.peter-thumm.com,"[[u'Social', u'Arts', u'Art Dealers and Galleries']]"
0,Galerie d'art SENS INTERIEUR,Cogolin,83310,Port Cogolin,Var,fr,,06 45 14 47 92,http://www.sensinterieur.com,"[[u'Social', u'Arts', u'Art Dealers and Galleries']]"
0,Sens Interieur,Cogolin,83310,7 Village des Artisans,Var,fr,,09 71 53 43 45,http://www.sensinterieur.com,"[[u'Social', u'Arts', u'Art Dealers and Galleries']]"
0,Galerie Paschos,Grimaud,83310,3 boulevard Aliziers,Var,fr,,04 94 43 28 82,,"[[u'Social', u'Arts', u'Art Dealers and Galleries']]"
0,Cecile's Art,Cogolin,83310,Lephare port Cogolin Commerces,Var,fr,,04 94 49 64 34,,"[[u'Social', u'Arts', u'Art Dealers and Galleries']]"
0,Atelier Terre de Sienne,Grimaud,83310,17 rue des Templiers,Var,fr,,04 94 43 34 13,,"[[u'Social', u'Arts', u'Art Dealers and Galleries']]"
0,Bardollet-Richelet Sophie,La Môle,83310,quartier les Cabris,Var,fr,,06 22 40 83 04,,"[[u'Social', u'Arts', u'Art Dealers and Galleries']]"
0,Leyraud Jérôme,Grimaud,83310,4 boulevard des Aliziers,Var,fr,,04 94 96 05 37,,"[[u'Social', u'Arts', u'Art Dealers and Galleries']]"
0,Chauvet Christian,Carqueiranne,83320,1205 route du Vallon,Var,fr,,04 94 58 86 58,,"[[u'Social', u'Arts', u'Art Dealers and Galleries']]"
0,Bedier Claude,Carqueiranne,83320,17 avenue Jean Jaurès,Var,fr,,04 94 58 71 49,,"[[u'Social', u'Arts', u'Art Dealers and Galleries']]"
0,La Dame du Castellet,Le Castellet,83330,10 rue de la Congrégation,Var,fr,,04 94 32 68 30,http://www.ladameducastellet.com,"[[u'Social', u'Arts', u'Art Dealers and Galleries']]"
0,Galerie Palangka,Le Castellet,83330,2 rue Droite,Var,fr,,04 94 32 72 04,,"[[u'Social', u'Arts', u'Art Dealers and Galleries']]"
0,Galerie l'Atelier,Le Castellet,83330,21 rue de l'Aube,Var,fr,,04 94 32 66 16,,"[[u'Social', u'Arts', u'Art Dealers and Galleries']]"
0,Castel'Art,Le Castellet,83330,8 rue de la Congrégation,Var,fr,,04 94 32 66 58,,"[[u'Social', u'Arts', u'Art Dealers and Galleries']]"
0,Galerie Julien,Le Castellet,83330,7 rue du Jeu de Paume,Var,fr,,04 94 32 69 48,,"[[u'Social', u'Arts', u'Art Dealers and Galleries']]"
0,Rondelet,Le Castellet,83330,21 rue Aube,Var,fr,,09 71 29 75 12,,"[[u'Social', u'Arts', u'Art Dealers and Galleries']]"
0,Espace Sainte-Anne,Évenos,83330,quartier Chautard Rn 8,Var,fr,,04 94 90 34 07,,"[[u'Social', u'Arts', u'Art Dealers and Galleries']]"
0,Galerie Florence-Basset,Flassans Sur Issole,83340,Moulin de la Grande Bastide,Var,fr,,04 94 59 67 24,,"[[u'Social', u'Arts', u'Art Dealers and Galleries']]"
0,Le Goff Nicolle,Le Cannet des Maures,83340,quartier les Andracs,Var,fr,,04 94 85 28 27,,"[[u'Social', u'Arts', u'Art Dealers and Galleries']]"
0,Kockler Paul,Le Luc,83340,route des Mayons,Var,fr,,09 52 87 66 74,,"[[u'Social', u'Arts', u'Art Dealers and Galleries']]"
0,Galerie des Cigales,Ramatuelle,83350,17 rue Georges Clemenceau,Var,fr,,09 80 95 94 49,,"[[u'Social', u'Arts', u'Art Dealers and Galleries']]"
0,Antique et Authentique,Fréjus,83370,457 boulevard Honore de Balzac,Var,fr,,09 64 04 29 95,,"[[u'Social', u'Arts', u'Art Dealers and Galleries']]"
0,L'Estagnié,Cuers,83390,chemin du Passage Redon,Var,fr,,04 94 33 62 20,,"[[u'Social', u'Arts', u'Art Dealers and Galleries']]"
0,Sappey Huguette,Puget Ville,83390,113 rue de la Libération,Var,fr,,04 94 48 31 92,,"[[u'Social', u'Arts', u'Art Dealers and Galleries']]"
0,Sappey Jacques,Puget Ville,83390,7 Hameau Foux,Var,fr,,04 94 48 36 23,,"[[u'Social', u'Arts', u'Art Dealers and Galleries']]"
0,Antiquités Laurella Nicolas,Hyères,83400,3 avenue Ernest Millet,Var,fr,,04 94 00 36 15,http://www.var-antiquites.com,"[[u'Social', u'Arts', u'Art Dealers and Galleries']]"
0,Les Acanthes,Hyères,83400,39 avenue Edith Cavell,Var,fr,,06 80 02 43 38,http://www.mondialrelay.fr/,"[[u'Social', u'Arts', u'Art Dealers and Galleries']]"
0,Galerie des Remparts,Hyères,83400,2 rue du Rempart,Var,fr,,04 94 35 52 92,http://www.encadrements-hyeres.com,"[[u'Social', u'Arts', u'Art Dealers and Galleries']]"
0,Antiquité Brocante Sainte Claire,Hyères,83400,6 rue Staine Claire,Var,fr,,04 94 65 69 41,http://www.antiquite.com,"[[u'Social', u'Arts', u'Art Dealers and Galleries']]"
0,La Pirouette,Hyères,83400,18 rue Verdun,Var,fr,,04 94 35 86 60,http://www.facebook.fr/362857847116316,"[[u'Social', u'Arts', u'Art Dealers and Galleries']]"
0,Le Corre Gilles,Hyères,83400,6 rue Sainte Claire,Var,fr,,06 99 40 69 41,,"[[u'Social', u'Arts', u'Art Dealers and Galleries']]"
0,Beltran José-Maria,Hyères,83400,39 avenue Alphonse Denis,Var,fr,,04 94 38 60 29,http://www.beltran-jose.com,"[[u'Social', u'Arts', u'Art Dealers and Galleries']]"
0,Garcin Dominique,Hyères,83400,232 route de Nice,Var,fr,,04 94 27 05 44,,"[[u'Social', u'Arts', u'Art Dealers and Galleries']]"
0,Galerie des Ambassadeurs,Hyères,83400,4 Montee Sainte Croix,Var,fr,,04 94 65 82 60,,"[[u'Social', u'Arts', u'Art Dealers and Galleries']]"
0,Peyre Yannick à Hyères,Hyères,83400,Residence Jean Moulin 600 avenue Jean Moulin,Var,fr,,06 71 21 76 86,,"[[u'Social', u'Arts', u'Art Dealers and Galleries']]"
0,Antiquites,Hyères,83400,13 avenue Docteur Jean Jacques Perron,Var,fr,,06 89 33 96 53,,"[[u'Social', u'Arts', u'Art Dealers and Galleries']]"
0,Michel Nicole,Seillans,83440,2 rue du Caire,Var,fr,,06 17 83 59 88,,"[[u'Social', u'Arts', u'Art Dealers and Galleries']]"
0,Kirstein Christian,Saint Paul en Forêt,83440,chemin Soulies,Var,fr,,06 10 13 72 87,,"[[u'Social', u'Arts', u'Art Dealers and Galleries']]"
0,Jacob,Callian,83440,5 Grande rue,Var,fr,,04 94 85 78 04,,"[[u'Social', u'Arts', u'Art Dealers and Galleries']]"
0,Chantal Organisation,Tourrettes,83440,quart Pavillon,Var,fr,,06 86 67 74 42,,"[[u'Social', u'Arts', u'Art Dealers and Galleries']]"
0,Gonnet Françoise,Montauroux,83440,quartier du Plan,Var,fr,,04 94 76 53 69,,"[[u'Social', u'Arts', u'Art Dealers and Galleries']]"
0,Morain Gilbert,Callian,83440,quartier saint pierre,Var,fr,,04 94 76 48 91,,"[[u'Social', u'Arts', u'Art Dealers and Galleries']]"
0,Mermod Patrick,Les Arcs,83460,route Draguignan d 555,Var,fr,,04 94 73 37 58,,"[[u'Social', u'Arts', u'Art Dealers and Galleries']]"
0,Ads Ferronnerie,Les Arcs,83460,Moulin Staine Cécile,Var,fr,,06 82 49 86 40,,"[[u'Social', u'Arts', u'Art Dealers and Galleries']]"
0,Bevali Eddie,Ollières,83470,Saint Hilaire,Var,fr,,06 07 15 38 02,,"[[u'Social', u'Arts', u'Art Dealers and Galleries']]"
0,Broc gigi,Saint Maximin la Sainte Baume,83470,Impasse Bégude,Var,fr,,06 73 70 07 19,,"[[u'Social', u'Arts', u'Art Dealers and Galleries']]"
0,Villa Tamaris Pacha,La Seyne Sur Mer,83500,rue de l'Hôtel de Ville,Var,fr,,04 94 06 84 00,,"[[u'Social', u'Arts', u'Art Dealers and Galleries']]"
0,Ricordeau Jacqueline,La Seyne sur Mer,83500,71 boulevard Jean Jaurès,Var,fr,,04 94 06 20 73,,"[[u'Social', u'Arts', u'Art Dealers and Galleries']]"
0,Villa Tamaris Pacha,La Seyne sur Mer,83500,1027 avenue Auguste Plane,Var,fr,,04 94 06 84 00,,"[[u'Social', u'Arts', u'Art Dealers and Galleries']]"
0,Brocante Etoffes et voyages,Lorgues,83510,4 place du révelin,Var,fr,,06 89 84 55 34,,"[[u'Social', u'Arts', u'Art Dealers and Galleries']]"
0,Brocante Monnaies Cartes Postales,Lorgues,83510,22 boulevard Georges Clémenceau,Var,fr,,04 94 73 99 97,,"[[u'Social', u'Arts', u'Art Dealers and Galleries']]"
0,Antiquites Deflaoui,Roquebrune Sur Argens,83520,160 avenue Jean Bart,Var,fr,,06 85 26 19 35,,"[[u'Social', u'Arts', u'Art Dealers and Galleries']]"
0,Farfouillette,Vidauban,83550,154 avenue du Président Wilson,Var,fr,,06 08 22 63 00,,"[[u'Social', u'Arts', u'Art Dealers and Galleries']]"
0,Synergie Culturelle,Vinon sur Verdon,83560,Chaboche Thierry le cours,Var,fr,,06 60 94 19 85,,"[[u'Social', u'Arts', u'Art Dealers and Galleries']]"
0,La Galerie Levy,Cotignac,83570,3 GRAND' rue,Var,fr,,04 94 04 57 16,http://www.galerielevy.net,"[[u'Social', u'Arts', u'Art Dealers and Galleries']]"
0,Fauque Frédéric,Correns,83570,4 rue Notre Dame,Var,fr,,04 94 86 39 58,http://www.artetbois.fr,"[[u'Social', u'Arts', u'Art Dealers and Galleries']]"
0,Jas de la Rimade,Carcès,83570,quartier Jas de la Rimade,Var,fr,,04 94 59 55 11,http://www.rimade.com,"[[u'Social', u'Arts', u'Art Dealers and Galleries']]"
0,Seille Antiquites,Carcès,83570,4 place Emile Zola,Var,fr,,04 94 04 50 27,,"[[u'Social', u'Arts', u'Art Dealers and Galleries']]"
0,Florens Serge,Montfort sur Argens,83570,Ancienne route Corren Quart Canebieres,Var,fr,,04 94 77 70 03,,"[[u'Social', u'Arts', u'Art Dealers and Galleries']]"
0,Galerie Deï Barri,Gassin,83580,rue Bouchonniers,Var,fr,,04 94 56 13 52,http://www.deibarri.com,"[[u'Social', u'Arts', u'Art Dealers and Galleries']]"
0,Galerie Najuma,Gassin,83580,résid Villa Thuilière route Brost C57,Var,fr,,04 94 96 81 10,http://www.galerienajuma.com/,"[[u'Social', u'Arts', u'Art Dealers and Galleries']]"
0,Antic House,Gassin,83580,Domaine Bourrian route Nationale 98a quartier Bourrian,Var,fr,,04 94 43 43 14,,"[[u'Social', u'Arts', u'Art Dealers and Galleries']]"
0,Selli Daniel,Gassin,83580,5 rue Longue,Var,fr,,04 94 56 04 80,,"[[u'Social', u'Arts', u'Art Dealers and Galleries']]"
0,GALERIE deï BARRI,Gassin,83580,place Dei Barri,Var,fr,,04 94 56 13 52,,"[[u'Social', u'Arts', u'Art Dealers and Galleries']]"
0,Trohay Jean-Claude,Fréjus,83600,Résidence Oasis Bâtiment A 53 impasse de la Pinède,Var,fr,,04 94 44 26 85,,"[[u'Social', u'Arts', u'Art Dealers and Galleries']]"
0,Ferreri Mario,Fréjus,83600,22 rue du Bourguet,Var,fr,,04 94 44 22 94,,"[[u'Social', u'Arts', u'Art Dealers and Galleries']]"
0,Casse Yves,Fréjus,83600,227 rue Jean Jaurès,Var,fr,,04 94 17 56 03,,"[[u'Social', u'Arts', u'Art Dealers and Galleries']]"
0,Art Decode,Fréjus,83600,66 rue Saint François de Paule,Var,fr,,04 98 12 41 33,,"[[u'Social', u'Arts', u'Art Dealers and Galleries']]"
0,Gam'Art,Fréjus,83600,10 passage quartier Latin,Var,fr,,04 94 52 35 88,,"[[u'Social', u'Arts', u'Art Dealers and Galleries']]"
0,Grenier Martine,Aups,83630,8 rue du Maréchal Foch,Var,fr,,04 94 76 71 53,,"[[u'Social', u'Arts', u'Art Dealers and Galleries']]"
0,Galerie Sabine Puget,Fox Amphoux,83670,quartier Chateau Barras,Var,fr,,04 94 77 05 39,http://www.galeriesabinepuget.com/contact.html,"[[u'Social', u'Arts', u'Art Dealers and Galleries']]"
0,Galerie Sabine Puget,Fox Amphoux,83670,,Var,fr,,04 94 77 05 39,,"[[u'Social', u'Arts', u'Art Dealers and Galleries']]"
0,Aalders Evelyn,La Garde Freinet,83680,15 route Nationale 558,Var,fr,,04 94 55 23 47,,"[[u'Social', u'Arts', u'Art Dealers and Galleries']]"
0,Galerie Blanchard,Tourtour,83690,Château Rasphelis,Var,fr,,04 94 70 56 25,http://www.gillesblanchard-artiste.com,"[[u'Social', u'Arts', u'Art Dealers and Galleries']]"
0,Galerie du Jas,Tourtour,83690,2 Traverse Jas,Var,fr,,04 94 50 66 02,,"[[u'Social', u'Arts', u'Art Dealers and Galleries']]"
0,Vision,Tourtour,83690,7 traverse Chèvres,Var,fr,,04 98 10 66 98,http://www.galerie-vision.com,"[[u'Social', u'Arts', u'Art Dealers and Galleries']]"
0,Brocante du Midi,Salernes,83690,quartier Saint Romain,Var,fr,,04 94 70 74 46,,"[[u'Social', u'Arts', u'Art Dealers and Galleries']]"
0,Galerie Blanchard,Tourtour,83690,2 place de la Trinité,Var,fr,,04 94 70 56 25,,"[[u'Social', u'Arts', u'Art Dealers and Galleries']]"
0,Art d'Antan,Saint Raphaël,83700,47 avenue de la Source,Var,fr,,04 94 54 52 34,http://www.artdantan.fr,"[[u'Social', u'Arts', u'Art Dealers and Galleries']]"
0,Carlini Antiquites,Saint Raphaël,83700,175 quai Albert 1 Er,Var,fr,,04 94 95 14 23,,"[[u'Social', u'Arts', u'Art Dealers and Galleries']]"
0,Antiquités le Dénicheur,Saint Raphaël,83700,260 avenue du Grand Défends,Var,fr,,04 94 40 57 63,,"[[u'Social', u'Arts', u'Art Dealers and Galleries']]"
0,Cassandre,Saint Raphaël,83700,115 avenue Victor Hugo,Var,fr,,04 94 83 11 71,,"[[u'Social', u'Arts', u'Art Dealers and Galleries']]"
0,Mougenot David à Saint-Raphaël,Saint Raphaël,83700,665 boulevard Alphonse Juin,Var,fr,,06 98 67 13 76,,"[[u'Social', u'Arts', u'Art Dealers and Galleries']]"
0,La Bimbeloterie,La Cadière d'Azur,83740,3 avenue Marx Dormoy,Var,fr,,04 94 90 19 28,http://www.mondialrelay.fr/,"[[u'Social', u'Arts', u'Art Dealers and Galleries']]"
0,Beddington Fine Art,Bargemon,83830,13 rue de la Prison,Var,fr,,04 94 76 64 06,,"[[u'Social', u'Arts', u'Art Dealers and Galleries']]"
0,Antiquite Moya,Bargemon,83830,18 rue Gabriel Péri,Var,fr,,04 94 76 62 46,,"[[u'Social', u'Arts', u'Art Dealers and Galleries']]"
0,Cilpa Régine,Signes,83870,14 rue Louis Lumière,Var,fr,,04 94 90 82 34,,"[[u'Social', u'Arts', u'Art Dealers and Galleries']]"
0,Aqua Blues,Le Lavandou,83980,1 place Ernest Reyer,Var,fr,,04 94 71 43 23,,"[[u'Social', u'Arts', u'Art Dealers and Galleries']]"
0,Le Chineur,Le Lavandou,83980,39 avenue Général de Gaulle,Var,fr,,06 84 37 74 15,,"[[u'Social', u'Arts', u'Art Dealers and Galleries']]"
0,Art Shaker Gallery,Saint Tropez,83990,18 rue de la Citadelle,Var,fr,,04 94 56 28 58,,"[[u'Social', u'Arts', u'Museums']]"
0,Galerie des Lices,Saint Tropez,83990,20 boulevard Louis Blanc,Var,fr,,04 94 97 87 19,http://www.galeriedeslices.com,"[[u'Social', u'Arts', u'Art Dealers and Galleries']]"
0,Wolkowicz Walter,Saint Tropez,83990,2 place de l'Ormeau,Var,fr,,04 94 79 91 45,http://www.lavieillemer.com,"[[u'Social', u'Arts', u'Art Dealers and Galleries']]"
0,Sié Henri,Saint Tropez,83990,4 rue du Clocher,Var,fr,,04 94 97 09 64,http://galeriehenrisie.pagesperso-orange.fr/galeriehenrisie/contact.html,"[[u'Social', u'Arts', u'Art Dealers and Galleries']]"
0,Stg Art,Saint Tropez,83990,3 place de l'Ormeau,Var,fr,,06 13 53 47 82,,"[[u'Social', u'Arts', u'Art Dealers and Galleries']]"
0,Galerie Mason Noirez,Saint Tropez,83990,8 rue du commandant Guichard,Var,fr,,04 94 79 65 98,http://www.galeriemasonnoirez.com,"[[u'Social', u'Arts', u'Art Dealers and Galleries']]"
0,Reuter Michel,Saint Tropez,83990,Antiquite Decorationard 6 rue Commdt Guichard,Var,fr,,06 03 69 18 57,http://www.antiquite-sainttropez.com,"[[u'Social', u'Arts', u'Art Dealers and Galleries']]"
0,Selli Daniel,Saint Tropez,83990,14 rue du Général Allard,Var,fr,,04 94 97 73 27,,"[[u'Social', u'Arts', u'Art Dealers and Galleries']]"
0,La Flo,Saint Tropez,83990,5 rue des Feniers,Var,fr,,06 10 31 12 30,http://www.laflo.com,"[[u'Social', u'Arts', u'Art Dealers and Galleries']]"
0,Sie Sylvie,Saint Tropez,83990,Galerie du Clocher 8 rue Clocher,Var,fr,,04 94 97 58 59,http://galeriehenrisie.pagesperso-orange.fr/galeriehenrisie/contact.html,"[[u'Social', u'Arts', u'Art Dealers and Galleries']]"
0,Galerie Bel-air Fine art,Saint Tropez,83990,19 rue Joseph Quaranta,Var,fr,,04 94 43 71 43,http://www.belairfineart.com/fr,"[[u'Social', u'Arts', u'Art Dealers and Galleries']]"
0,Ivan Galerie,Saint Tropez,83990,1 place Raphaël de Garrezio,Var,fr,,06 80 00 14 51,,"[[u'Social', u'Arts', u'Art Dealers and Galleries']]"
0,Galerie Suffren,Saint Tropez,83990,22 Tra du Langoustier,Var,fr,,04 94 97 84 63,,"[[u'Social', u'Arts', u'Art Dealers and Galleries']]"
0,16 Tropez,Saint Tropez,83990,21 rue Joseph Quaranta,Var,fr,,04 94 53 10 79,,"[[u'Social', u'Arts', u'Art Dealers and Galleries']]"
0,Galerie Daniel Besseiche,Saint Tropez,83990,4 rue Cepoun San Martin,Var,fr,,04 94 43 74 68,,"[[u'Social', u'Arts', u'Art Dealers and Galleries']]"
0,Marliere Helene,Saint Tropez,83990,10 rue du Commandant Guichard,Var,fr,,04 94 54 88 05,,"[[u'Social', u'Arts', u'Art Dealers and Galleries']]"
0,Galerie Nathalie Duchayne,Saint Tropez,83990,2 rue Résistance,Var,fr,,04 94 97 54 50,,"[[u'Social', u'Arts', u'Art Dealers and Galleries']]"
0,Antiquites Thienot,Saint Tropez,83990,12 rue Georges Clemenceau,Var,fr,,04 94 97 05 70,,"[[u'Social', u'Arts', u'Art Dealers and Galleries']]"
0,Galerie Henri Sié,Saint Tropez,83990,4 rue du Clocher,Var,fr,,04 94 97 58 59,,"[[u'Social', u'Arts', u'Art Dealers and Galleries']]"
0,Art Gallery,Avignon,84000,2 rue Joseph Vernet,Vaucluse,fr,,04 90 82 32 30,,"[[u'Social', u'Arts', u'Art Dealers and Galleries']]"
0,Antiquites Serignan,Avignon,84000,9 rue de la Petite Fusterie,Vaucluse,fr,,04 90 85 36 04,http://www.antiquite-serignan.com,"[[u'Social', u'Arts', u'Art Dealers and Galleries']]"
0,Ardaillon Antiquités Brocante,Avignon,84000,18 rue Théophile Gauthier,Vaucluse,fr,,04 32 76 31 35,http://ardaillonantiquites.wix.com/ardaillon-antiquites,"[[u'Social', u'Arts', u'Art Dealers and Galleries']]"
0,Galerie Ducastel,Avignon,84000,9 place Crillon,Vaucluse,fr,,04 90 82 04 54,http://www.galerieducastel.com/,"[[u'Social', u'Arts', u'Art Dealers and Galleries']]"
0,Serignan Jean-Jacques,Avignon,84000,13 rue de la Petite Fusterie,Vaucluse,fr,,04 90 85 03 89,http://www.galerieserignan.fr/,"[[u'Social', u'Arts', u'Art Dealers and Galleries']]"
0,France Cool,Avignon,84000,51 bis rue du Limas,Vaucluse,fr,,06 31 13 35 44,http://www.france-cool.fr,"[[u'Social', u'Arts', u'Art Dealers and Galleries']]"
0,Antiquités Brocante des Carmes,Avignon,84000,14 rue de la Carreterie,Vaucluse,fr,,04 90 82 00 46,,"[[u'Social', u'Arts', u'Art Dealers and Galleries']]"
0,Galerie Delits des Sens,Avignon,84000,3 rue de la Campane,Vaucluse,fr,,04 86 81 98 19,,"[[u'Social', u'Arts', u'Art Dealers and Galleries'], [u'Landmarks']]"
0,Charton Roland,Avignon,84000,23 rue Saint Agricol,Vaucluse,fr,,04 90 14 07 03,,"[[u'Social', u'Arts', u'Art Dealers and Galleries']]"
0,Mmb Galerie,Avignon,84000,1 rue de la Monnaie,Vaucluse,fr,,04 90 85 17 21,,"[[u'Social', u'Arts', u'Art Dealers and Galleries']]"
0,Domergue Nathalie,Avignon,84000,2 boulevard Paul Chabas,Vaucluse,fr,,04 90 80 07 32,,"[[u'Social', u'Arts', u'Art Dealers and Galleries']]"
0,Galerie Xavier Delannoy,Avignon,84000,76 rue de la Bonneterie,Vaucluse,fr,,09 51 83 63 54,,"[[u'Social', u'Arts', u'Art Dealers and Galleries']]"
0,Ardeco,Avignon,84000,4 rue des Escaliers Sainte Anne,Vaucluse,fr,,04 90 85 75 25,http://perso.wanadoo.fr/ecole.ardeco/,"[[u'Social', u'Arts', u'Art Dealers and Galleries']]"
0,Atezart,Avignon,84000,6 bis rue Folco de Baroncelli,Vaucluse,fr,,04 90 82 37 98,,"[[u'Social', u'Arts', u'Art Dealers and Galleries']]"
0,Gricourt Mickaël,Avignon,84000,2 boulevard Paul Chabas,Vaucluse,fr,,04 86 81 32 34,,"[[u'Social', u'Arts', u'Art Dealers and Galleries']]"
0,Guerre Gérard,Avignon,84000,1 place de Plan de Lunel,Vaucluse,fr,,04 90 86 42 67,,"[[u'Social', u'Arts', u'Art Dealers and Galleries']]"
0,Mmb Galerie,Avignon,84000,20 rue de la Balance,Vaucluse,fr,,04 90 85 17 21,,"[[u'Social', u'Arts', u'Art Dealers and Galleries']]"
0,Galerie Ducastel,Avignon,84000,9 rue de Folco Baroncelli,Vaucluse,fr,,04 90 82 04 54,http://www.galerieducastel.com,"[[u'Social', u'Arts', u'Art Dealers and Galleries']]"
0,Galerie Marina,Avignon,84000,14 rue de la Campane,Vaucluse,fr,,04 90 86 13 48,,"[[u'Social', u'Arts', u'Art Dealers and Galleries']]"
0,Galerie d'Art les Calades,Avignon,84000,41 rue Joseph Vernet,Vaucluse,fr,,04 90 86 82 21,,"[[u'Social', u'Arts', u'Art Dealers and Galleries']]"
0,Galerie Genevieve Favre,Avignon,84000,8 rue de la Carreterie,Vaucluse,fr,,04 90 85 09 65,,"[[u'Social', u'Arts', u'Art Dealers and Galleries']]"
0,Vaillant Micheline,Avignon,84000,1 rue de la Monnaie,Vaucluse,fr,,04 90 14 62 24,,"[[u'Social', u'Arts', u'Art Dealers and Galleries']]"
0,Galerie Serignan,Avignon,84000,13 rue de la Petite Fusterie,Vaucluse,fr,,09 54 33 60 08,,"[[u'Social', u'Arts', u'Art Dealers and Galleries']]"
0,G B V,Avignon,84000,8 rue Folco de Baroncelli,Vaucluse,fr,,04 90 86 99 48,,"[[u'Social', u'Arts', u'Art Dealers and Galleries']]"
0,Atezart S.A.R.L.,Avignon,84000,6 Bis rue Folco de Baroncelli,Vaucluse,fr,,04 90 82 37 98,,"[[u'Social', u'Arts', u'Art Dealers and Galleries']]"
0,Galerie du Pharos,Avignon,84000,31 rue Joseph Vernet,Vaucluse,fr,,04 90 16 92 01,,"[[u'Social', u'Arts', u'Art Dealers and Galleries']]"
0,Espace Colibri,Avignon,84000,84 rue de la Bonneterie,Vaucluse,fr,,06 69 05 94 26,,"[[u'Social', u'Arts', u'Art Dealers and Galleries']]"
0,Atelier Galerie Michel Vaillant,Avignon,84000,1 rue de la Monnaie,Vaucluse,fr,,04 90 14 95 48,,"[[u'Social', u'Arts', u'Art Dealers and Galleries']]"
0,Galerie J.E. Bernard,Avignon,84000,13 rue de la Grande Fusterie,Vaucluse,fr,,04 90 80 03 71,,"[[u'Social', u'Arts', u'Art Dealers and Galleries']]"
0,Galerie Pascal Laine,Avignon,84000,17 rue de la Petite Fusterie,Vaucluse,fr,,04 90 86 07 08,,"[[u'Social', u'Arts', u'Art Dealers and Galleries']]"
0,Galerie du Palais des Papes,Avignon,84000,18 rue de la Balance,Vaucluse,fr,,04 90 14 62 24,,"[[u'Social', u'Arts', u'Art Dealers and Galleries']]"
0,Troccom,Avignon,84000,260 chemin Ramatuel,Vaucluse,fr,,04 90 85 21 67,http://www.troc.com,"[[u'Social', u'Arts', u'Art Dealers and Galleries']]"
0,Di Blanco,Avignon,84000,15 place du Puits des Boeufs,Vaucluse,fr,,04 90 86 83 46,,"[[u'Social', u'Arts', u'Art Dealers and Galleries']]"
0,Cristofane Valerie,Orange,84100,36 Impasse des Camélias,Vaucluse,fr,,06 87 47 13 85,,"[[u'Social', u'Arts', u'Art Dealers and Galleries']]"
0,Galerie d'Art des Remparts,Vaison la Romaine,84110,4 place du Poids,Vaucluse,fr,,04 90 28 87 97,,"[[u'Social', u'Arts', u'Art Dealers and Galleries']]"
0,Galerie Zanella,Vaison la Romaine,84110,1 place du Poids,Vaucluse,fr,,04 90 36 39 74,http://www.zanella.fr,"[[u'Social', u'Arts', u'Art Dealers and Galleries']]"
0,Bonnet Thierry,Vaison la Romaine,84110,400 A avenue Marcel Pagnol,Vaucluse,fr,,04 90 36 39 36,,"[[u'Social', u'Arts', u'Art Dealers and Galleries']]"
0,Galant Patrick,Vaison la Romaine,84110,44 avenue Jules Ferry,Vaucluse,fr,,04 90 36 09 40,,"[[u'Social', u'Arts', u'Art Dealers and Galleries']]"
0,Artefact Galerie d'Art Contemporain,Vaison la Romaine,84110,angle rue Alphonse Daudet 6 Bis rue Aristide Briand,Vaucluse,fr,,04 90 62 54 86,http://www.artefact-gallery.com,"[[u'Social', u'Arts', u'Art Dealers and Galleries']]"
0,Zanella Léon,Vaison la Romaine,84110,1 place Poids,Vaucluse,fr,,04 90 36 39 74,,"[[u'Social', u'Arts', u'Art Dealers and Galleries']]"
0,Brocante Decoration Antiquites,Sablet,84110,1 Eglise,Vaucluse,fr,,06 12 29 70 00,,"[[u'Social', u'Arts', u'Art Dealers and Galleries']]"
0,Stolwijk Gertrude à Vaison-la-Romaine,Vaison la Romaine,84110,15 cours Henri Fabre,Vaucluse,fr,,06 77 96 45 17,,"[[u'Social', u'Arts', u'Art Dealers and Galleries']]"
0,Espace Montfort à Vaison-la-Romaine,Vaison la Romaine,84110,2 rue Paul Buffaven,Vaucluse,fr,,04 90 36 17 38,,"[[u'Social', u'Arts', u'Art Dealers and Galleries']]"
0,Ottaviani,Vaison la Romaine,84110,11 quai Pasteur,Vaucluse,fr,,09 63 41 00 48,,"[[u'Social', u'Arts', u'Art Dealers and Galleries']]"
0,Dubois Adrien,Pertuis,84120,661 chemin de la Peyrière,Vaucluse,fr,,04 90 79 23 67,http://www.antiquite-pertuis.fr,"[[u'Social', u'Arts', u'Art Dealers and Galleries']]"
0,Antiquités Der Vartanian,Pertuis,84120,70 Traverse Fernand Pelloutier,Vaucluse,fr,,06 85 18 57 10,http://www.antiquites-brocante-dervartanian.fr,"[[u'Social', u'Arts', u'Art Dealers and Galleries']]"
0,Caula Jacqueline,Pertuis,84120,165 rue de la Liberté,Vaucluse,fr,,04 90 79 32 26,,"[[u'Social', u'Arts', u'Art Dealers and Galleries']]"
0,Logello Allemand,Montfavet,84140,23 chemin de la Rollande,Vaucluse,fr,,04 90 87 15 15,,"[[u'Social', u'Arts', u'Art Dealers and Galleries']]"
0,Le Marche aux Puces,Jonquières,84150,529 route Orange,Vaucluse,fr,,04 90 70 32 37,http://www.nerim.fr,"[[u'Social', u'Arts', u'Art Dealers and Galleries']]"
0,Brousse Didier,Lourmarin,84160,4 avenue Philippe de Girard,Vaucluse,fr,,04 90 68 31 95,http://www.didierbrousse.fr,"[[u'Social', u'Arts', u'Art Dealers and Galleries']]"
0,Le Hangart,Lourmarin,84160,7 rue du Grand Pré,Vaucluse,fr,,04 90 09 62 46,http://www.lehangart.com,"[[u'Social', u'Arts', u'Art Dealers and Galleries']]"
0,Boyer Jocelyne,Cucuron,84160,55 rue Eglise,Vaucluse,fr,,04 90 08 36 35,,"[[u'Social', u'Arts', u'Art Dealers and Galleries']]"
0,La Galerie du Lavoir,Lourmarin,84160,1 rue Henri Sarret,Vaucluse,fr,,06 31 74 70 12,,"[[u'Social', u'Arts', u'Art Dealers and Galleries']]"
0,Lerat Claude,Cucuron,84160,quai les Vaureilles,Vaucluse,fr,,06 13 59 15 28,,"[[u'Social', u'Arts', u'Art Dealers and Galleries']]"
0,Galerie du Temple,Lourmarin,84160,rue du Temple,Vaucluse,fr,,04 90 08 93 84,,"[[u'Social', u'Arts', u'Art Dealers and Galleries']]"
0,Les Artistes de la Chimere à Lourmarin,Lourmarin,84160,10 rue Henri de Savornin,Vaucluse,fr,,04 90 77 11 86,,"[[u'Social', u'Arts', u'Art Dealers and Galleries']]"
0,Rahimie Mohammad,Cadenet,84160,10 rue Jean Jacques Rousseau,Vaucluse,fr,,04 90 68 16 68,,"[[u'Social', u'Arts', u'Art Dealers and Galleries']]"
0,Augier Albert,Carpentras,84200,261 boulevard Alfred Naquet,Vaucluse,fr,,04 90 63 23 09,http://www.augier-arts.com,"[[u'Social', u'Arts', u'Art Dealers and Galleries']]"
0,Angel Art Concept,Carpentras,84200,61 rue Raspail,Vaucluse,fr,,06 10 13 41 94,http://www.facebook.com,"[[u'Social', u'Arts', u'Art Dealers and Galleries']]"
0,JE.Turquin la Galerie,Carpentras,84200,rue Pietonne Coeur de Ville 9 rue Evéché,Vaucluse,fr,,04 90 63 02 07,http://www.turquin.net,"[[u'Social', u'Arts', u'Art Dealers and Galleries']]"
0,Art et Culture,Carpentras,84200,33 rue Porte de Mazan,Vaucluse,fr,,04 90 67 13 78,,"[[u'Social', u'Arts', u'Art Dealers and Galleries']]"
0,Patines et Dentelles,Carpentras,84200,384 chemin Traversier du Lac,Vaucluse,fr,,04 90 60 13 97,,"[[u'Social', u'Arts', u'Art Dealers and Galleries']]"
0,REDIER à Carpentras,Carpentras,84200,4 rue Porte de Monteux,Vaucluse,fr,,09 79 67 56 24,,"[[u'Social', u'Arts', u'Art Dealers and Galleries']]"
0,Bouscasse,Carpentras,84200,384 chemin Traversier du Lac,Vaucluse,fr,,09 75 79 45 22,,"[[u'Social', u'Arts', u'Art Dealers and Galleries']]"
0,L'Aire du Cormoran,Pernes les Fontaines,84210,5 rue de la Halle,Vaucluse,fr,,06 14 13 84 27,http://www.galerie-r-du-cormoran.com,"[[u'Social', u'Arts', u'Art Dealers and Galleries']]"
0,La boutique de Brigitte à Saint-Didier-au-Mont-d'Or,Saint Didier au Mont d'Or,84210,1 rue de la Garance,Vaucluse,fr,,09 65 11 03 77,,"[[u'Social', u'Arts', u'Art Dealers and Galleries']]"
0,S.D.F,Venasque,84210,4 route Carpentras,Vaucluse,fr,,04 90 34 22 98,,"[[u'Social', u'Arts', u'Art Dealers and Galleries']]"
0,La Compagnie des Ocres,Roussillon,84220,Ldt la Burliere Sentier des Ocres,,fr,,04 90 04 56 90,http://www.lacompagniedesocres.fr,"[[u'Social', u'Arts', u'Art Dealers and Galleries']]"
0,Galerie Porte Heureuse,Roussillon,84220,place de l'Abbé Avon,,fr,,04 90 05 67 90,http://www.galerie-porteheureuse.com/,"[[u'Social', u'Arts', u'Art Dealers and Galleries']]"
0,Des Journées Entières dans les Arbres,Gordes,84220,place du Château,Vaucluse,fr,,04 90 72 10 20,,"[[u'Social', u'Arts', u'Art Dealers and Galleries']]"
0,Atelier-Galerie Marjolène Lasne,Roussillon,84220,le Village 9 place Abbé Avon,,fr,,06 08 77 08 24,http://www.marjolene-lasne.fr,"[[u'Social', u'Arts', u'Art Dealers and Galleries']]"
0,Galerie 22,Cabrières d'Avignon,84220,route de Gordes,Vaucluse,fr,,04 90 71 85 06,http://www.galerie22contemporain.com/,"[[u'Social', u'Arts', u'Art Dealers and Galleries']]"
0,Alonso de Quintanilla,Gordes,84220,quartier les Rapieres,Vaucluse,fr,,04 90 72 13 63,,"[[u'Social', u'Arts', u'Art Dealers and Galleries']]"
0,Levy Valerie,Roussillon,84220,9 place Abbé Avon,,fr,,04 90 04 69 15,,"[[u'Social', u'Arts', u'Art Dealers and Galleries']]"
0,Gatti Jane,Goult,84220,rue de la République,Vaucluse,fr,,04 90 72 21 81,,"[[u'Social', u'Arts', u'Art Dealers and Galleries']]"
0,Galerie Porte Heureuse,Roussillon,84220,rue Jeu de Paume,,fr,,04 90 05 67 90,,"[[u'Social', u'Arts', u'Art Dealers and Galleries']]"
0,Chapo Formes Nouvelles,Gordes,84220,quartier Carcarille,Vaucluse,fr,,04 32 50 13 89,http://chapo-creation.com,"[[u'Social', u'Arts', u'Art Dealers and Galleries']]"
0,Peter et Martine,Beaumettes,84220,route Coustellet,Vaucluse,fr,,04 90 72 27 69,,"[[u'Social', u'Arts', u'Art Dealers and Galleries']]"
0,Freess Edmond,Roussillon,84220,rue du Jeu de Paume,,fr,,04 90 05 64 68,,"[[u'Social', u'Arts', u'Art Dealers and Galleries']]"
0,Riqueau Christophe,Roussillon,84220,place de la Mairie,,fr,,04 90 75 33 32,,"[[u'Social', u'Arts', u'Art Dealers and Galleries']]"
0,Leroy,Gordes,84220,124 route Neuve,Vaucluse,fr,,09 79 16 24 90,,"[[u'Social', u'Arts', u'Art Dealers and Galleries']]"
0,Moderat d'Otemar,La Tour d'Aigues,84240,l' antelme,Vaucluse,fr,,04 90 07 47 65,,"[[u'Social', u'Arts', u'Art Dealers and Galleries']]"
0,Altiero Thierry,Le Thor,84250,276 route Isle sur Sorgue,Vaucluse,fr,,04 90 33 78 31,,"[[u'Social', u'Arts', u'Art Dealers and Galleries']]"
0,Bronner Christian à le Thor,Le Thor,84250,177 cours Gambetta,Vaucluse,fr,,04 90 83 47 44,,"[[u'Social', u'Arts', u'Art Dealers and Galleries']]"
0,Luc Bonnefond,Sarrians,84260,la Tasque route Bedarrides,Vaucluse,fr,,06 80 18 05 74,http://www.lucbonnefond.com,"[[u'Social', u'Arts', u'Art Dealers and Galleries']]"
0,Gaillard Robert,Vedène,84270,12 place du Chateau,Vaucluse,fr,,04 32 40 98 66,http://www.expert-antiquites-gaillard.fr,"[[u'Social', u'Arts', u'Art Dealers and Galleries']]"
0,Troccom,Vedène,84270,route de Carpentras,Vaucluse,fr,,04 90 48 07 77,http://www.troc.com/fr/magasin-135-avignon-vedene.htm,"[[u'Social', u'Arts', u'Art Dealers and Galleries']]"
0,Riera Laurette,Cavaillon,84300,1383 avenue de Saint-Baldou,Vaucluse,fr,,04 90 71 61 29,,"[[u'Social', u'Arts', u'Art Dealers and Galleries']]"
0,Bourgues Frères à Cavaillon,Cavaillon,84300,905 avenue de la Libération,Vaucluse,fr,,06 86 35 21 15,,"[[u'Social', u'Arts', u'Art Dealers and Galleries']]"
0,Galerie Martagon,Malaucène,84340,47 Grand rue,Vaucluse,fr,,04 90 65 14 29,http://www.galeriemartagon.com,"[[u'Social', u'Arts', u'Art Dealers and Galleries']]"
0,Barjol Michel,Malaucène,84340,Grand rue,Vaucluse,fr,,04 90 65 28 05,http://www.galeriemartagon.com/galerie_martagon,"[[u'Social', u'Arts', u'Art Dealers and Galleries']]"
0,Hervy Jacqueline,Courthézon,84350,14 Faubourg Saint Pierre,Vaucluse,fr,,06 12 56 35 85,,"[[u'Social', u'Arts', u'Art Dealers and Galleries']]"
0,Brocante de l'Oratoire,Mazan,84380,57 chemin de l'Oratoire,Vaucluse,fr,,06 79 21 26 11,,"[[u'Social', u'Arts', u'Art Dealers and Galleries']]"
0,Vakanas Lucien,Sault,84390,Hameau Mougne,Vaucluse,fr,,04 90 64 11 66,,"[[u'Social', u'Arts', u'Art Dealers and Galleries']]"
0,Fondation Blachère,Apt,84400,384 avenue des Argiles Zone Industrielle les Bourguignons,Vaucluse,fr,,04 32 52 06 15,http://www.fondationblachere.org,"[[u'Social', u'Arts', u'Art Dealers and Galleries']]"
0,La Maison d'Inès,Apt,84400,100 rue Saint Pierre,Vaucluse,fr,,04 90 04 08 36,http://www.berg-loubet.com,"[[u'Social', u'Arts', u'Art Dealers and Galleries']]"
0,Galerie d'Art Grossi Pierre-Hélen,Apt,84400,5 place de la Cathédrale,Vaucluse,fr,,04 90 74 20 67,http://www.galeriegrossi.com,"[[u'Social', u'Arts', u'Art Dealers and Galleries']]"
0,Fenetre sur l' Asie,Apt,84400,100 rue Saint Pierre,Vaucluse,fr,,04 90 75 01 69,http://www.fenetre-sur-lasie.com/,"[[u'Social', u'Arts', u'Art Dealers and Galleries']]"
0,Les Florentines,Apt,84400,21 rue Saint Pierre,Vaucluse,fr,,04 90 74 53 86,,"[[u'Social', u'Arts', u'Art Dealers and Galleries']]"
0,Tendance Provence,Piolenc,84420,20 route de Lyon,Vaucluse,fr,,04 90 29 79 28,,"[[u'Social', u'Arts', u'Art Dealers and Galleries']]"
0,Roustang Patrick,Piolenc,84420,6 route Lyon,Vaucluse,fr,,04 90 29 65 40,,"[[u'Social', u'Arts', u'Art Dealers and Galleries']]"
0,Sous les Toiles de Provence,Bonnieux,84480,20 rue Victor Hugo,Vaucluse,fr,,06 86 03 27 77,http://www.souslestoilesdeprovence.com/,"[[u'Social', u'Arts', u'Art Dealers and Galleries'], [u'Landmarks']]"
0,Galerie d'Art Janin-Ruggeri,Bonnieux,84480,place de la Liberté,Vaucluse,fr,,04 90 75 94 30,http://www.art-provence.com/,"[[u'Social', u'Arts', u'Art Dealers and Galleries']]"
0,Au Détour d'une Promenade,Bonnieux,84480,route de la Gare,Vaucluse,fr,,04 90 75 61 38,,"[[u'Social', u'Arts', u'Art Dealers and Galleries']]"
0,Galerie Ortus,Bonnieux,84480,11 rue de la République,Vaucluse,fr,,04 90 75 60 76,,"[[u'Social', u'Arts', u'Art Dealers and Galleries']]"
0,Gils Vincent,Bonnieux,84480,25 rue Voltaire,Vaucluse,fr,,06 73 46 14 00,,"[[u'Social', u'Arts', u'Art Dealers and Galleries']]"
0,Marché aux Puces de Mornas,Mornas,84550,quartier Maoucrouset route Nationale 7,Vaucluse,fr,,04 90 37 06 42,http://www.marcheauxpucesdemornas.com,"[[u'Social', u'Arts', u'Art Dealers and Galleries']]"
0,Le Pavillon Magique,Mornas,84550,les Crousilles route Nationale 7,Vaucluse,fr,,06 08 40 14 93,,"[[u'Social', u'Arts', u'Art Dealers and Galleries']]"
0,Galerie Pascal Lainé,Ménerbes,84560,15 rue Sainte-Barbe,Vaucluse,fr,,04 90 72 48 30,http://monsite.orange.fr/gpl.menerbes/,"[[u'Social', u'Arts', u'Art Dealers and Galleries']]"
0,Geneviève Nicolaï à Ménerbes,Ménerbes,84560,place Albert Roure,Vaucluse,fr,,04 90 72 43 22,,"[[u'Social', u'Arts', u'Art Dealers and Galleries']]"
0,Nicolet Richard,Oppède,84580,290 quartier Tourail,Vaucluse,fr,,04 90 04 06 65,,"[[u'Social', u'Arts', u'Art Dealers and Galleries']]"
0,Bonnet Jean-Pierre,Valréas,84600,30 cours du Berteuil,Vaucluse,fr,,04 90 37 32 85,,"[[u'Social', u'Arts', u'Art Dealers and Galleries']]"
0,Manifacier Murielle,Valréas,84600,4 allée des Tilleuls,Vaucluse,fr,,04 90 35 23 08,,"[[u'Social', u'Arts', u'Art Dealers and Galleries']]"
0,Poignant Jean-Marc,Valréas,84600,9 chemin de la Ribeyronne,Vaucluse,fr,,06 80 02 75 72,,"[[u'Social', u'Arts', u'Art Dealers and Galleries']]"
0,Brocante Chez Olive,Sorgues,84700,1148 boulevard Salvador Allende Zi Fournalet,Vaucluse,fr,,04 90 23 19 83,http://www.brocante-chez-olive-sorgues.fr,"[[u'Social', u'Arts', u'Art Dealers and Galleries']]"
0,Galerie Zubrycki,L'Isle sur la Sorgue,84800,3 rue Rose Goudard,Vaucluse,fr,,04 90 24 91 81,http://galeriezubrycki.com,"[[u'Social', u'Arts', u'Art Dealers and Galleries']]"
0,Antiquités Carli,L'Isle sur la Sorgue,84800,15 Esplanade Robert Vasse,Vaucluse,fr,,04 90 20 71 67,http://www.antiquitescarli.com,"[[u'Social', u'Arts', u'Art Dealers and Galleries']]"
0,Antiquités Bunel,L'Isle sur la Sorgue,84800,3 avenue des Quatre Otages,Vaucluse,fr,,04 90 38 51 76,http://www.bunel-antiques.com,"[[u'Social', u'Arts', u'Art Dealers and Galleries']]"
0,Galerie Zubrycki,Fontaine de Vaucluse,84800,chemin de la Fontaine,Vaucluse,fr,,04 90 20 22 94,http://monsite.wanadoo.fr/galerie.zubrycki,"[[u'Social', u'Arts', u'Art Dealers and Galleries']]"
0,Granoux Gérard,L'Isle sur la Sorgue,84800,163 avenue de la Libération,Vaucluse,fr,,04 90 38 60 74,http://www.coteparc.com,"[[u'Social', u'Arts', u'Art Dealers and Galleries']]"
0,Boutique de Francine,L'Isle sur la Sorgue,84800,20 avenue Julien Guigue,Vaucluse,fr,,06 20 60 26 04,http://laboutiquedefrancine.com,"[[u'Social', u'Arts', u'Art Dealers and Galleries']]"
0,L'Isle d'Art,L'Isle sur la Sorgue,84800,10 rue Carnot,Vaucluse,fr,,04 90 95 75 43,http://www.jow-sculpture.com,"[[u'Social', u'Arts', u'Art Dealers and Galleries']]"
0,Le Vieux Manoir,L'Isle sur la Sorgue,84800,3 avenue de la Libération,Vaucluse,fr,,04 90 38 14 85,http://www.villagedesantiquaires.com,"[[u'Social', u'Arts', u'Art Dealers and Galleries']]"
0,Broutin Stephane,L'Isle sur la Sorgue,84800,7 avenue des Quatre Otages,Vaucluse,fr,,04 90 38 27 79,,"[[u'Social', u'Arts', u'Art Dealers and Galleries']]"
0,Hôtel Dongier Antiquités,L'Isle sur la Sorgue,84800,15 Esplanade Robert Vasse,Vaucluse,fr,,04 90 38 63 63,http://www.hoteldongierantiquites.fr,"[[u'Social', u'Arts', u'Art Dealers and Galleries']]"
0,Gravezat Roux,L'Isle sur la Sorgue,84800,7 avenue des Quatre Otages,Vaucluse,fr,,04 90 38 32 24,,"[[u'Social', u'Arts', u'Art Dealers and Galleries']]"
0,Objets de Hasard,L'Isle sur la Sorgue,84800,13 avenue des Quatre Otages,Vaucluse,fr,,04 90 38 54 58,,"[[u'Social', u'Arts', u'Art Dealers and Galleries']]"
0,Laudoueneix Pierre,L'Isle sur la Sorgue,84800,9 Esplanade Robert Vasse,Vaucluse,fr,,04 90 20 86 17,,"[[u'Social', u'Arts', u'Art Dealers and Galleries']]"
0,Moa,L'Isle sur la Sorgue,84800,13 avenue des Quatre Otages,Vaucluse,fr,,04 90 20 81 04,,"[[u'Social', u'Arts', u'Art Dealers and Galleries']]"
0,Azzopardi Jean,L'Isle sur la Sorgue,84800,512 bis chemin de Crebessac,Vaucluse,fr,,09 71 25 33 29,,"[[u'Social', u'Arts', u'Art Dealers and Galleries']]"
0,Juan Robert,L'Isle sur la Sorgue,84800,15 Esplanade Robert Vasse,Vaucluse,fr,,04 90 21 58 77,,"[[u'Social', u'Arts', u'Art Dealers and Galleries']]"
0,Galerie Eric & Valérie Galéa,,84800,cours René Char,Vaucluse,fr,,06 07 26 90 47,http://www.galeriegalea.com,"[[u'Social', u'Arts', u'Art Dealers and Galleries']]"
0,Appel d'Air,L'Isle sur la Sorgue,84800,30 avenue Jean Charmasson,Vaucluse,fr,,04 90 38 49 45,,"[[u'Social', u'Arts', u'Art Dealers and Galleries']]"
0,Antiquites Luc Bonnefond,L'Isle sur la Sorgue,84800,2 bis avenue de l'Égalité,Vaucluse,fr,,06 80 18 05 74,http://www.lucbonnefond.com,"[[u'Social', u'Arts', u'Art Dealers and Galleries']]"
0,L'Authentique,L'Isle sur la Sorgue,84800,13 avenue des Quatres Otages,Vaucluse,fr,,06 72 82 12 84,,"[[u'Social', u'Arts', u'Art Dealers and Galleries']]"
0,Antiquités Nicole Philibert,L'Isle sur la Sorgue,84800,91 avenue Julien Guigue,Vaucluse,fr,,06 15 14 06 98,,"[[u'Social', u'Arts', u'Art Dealers and Galleries']]"
0,Au Temps Jadis,L'Isle sur la Sorgue,84800,7 avenue des Quatre Otages,Vaucluse,fr,,04 90 21 18 74,,"[[u'Social', u'Arts', u'Art Dealers and Galleries']]"
0,Pierre et Paul,L'Isle sur la Sorgue,84800,2 B avenue de l'Egalite,Vaucluse,fr,,04 90 38 04 57,http://www.levillagedesantiquairesdelagare.com,"[[u'Social', u'Arts', u'Art Dealers and Galleries']]"
0,Aux Trouvailles,L'isle sur la Sorgue,84800,415 chemin Nevon,Vaucluse,fr,,04 90 21 14 31,,"[[u'Social', u'Arts', u'Art Dealers and Galleries']]"
0,Auffret Catherine,L'Isle sur la Sorgue,84800,339 cours Emile Zola,Vaucluse,fr,,04 90 38 38 69,,"[[u'Social', u'Arts', u'Art Dealers and Galleries']]"
0,La Tete Verte,L'Isle sur la Sorgue,84800,11 avenue des Quatre Otages,Vaucluse,fr,,06 07 99 92 42,,"[[u'Social', u'Arts', u'Art Dealers and Galleries']]"
0,La Régence,L'Isle sur la Sorgue,84800,4 avenue des Quatre Otages,Vaucluse,fr,,06 08 97 68 70,,"[[u'Social', u'Arts', u'Art Dealers and Galleries']]"
0,Lehmann Christophe,L'Isle sur la Sorgue,84800,l'Ile aux Brocantes 7 avenue Quatre Otages,Vaucluse,fr,,06 16 02 16 41,,"[[u'Social', u'Arts', u'Art Dealers and Galleries']]"
0,Mouv Ment,L'Isle sur la Sorgue,84800,15 Esplanade Robert Vasse,Vaucluse,fr,,04 90 95 34 13,,"[[u'Social', u'Arts', u'Art Dealers and Galleries']]"
0,Provence Antiquités,L'Isle sur la Sorgue,84800,33 cours Emile Zola,Vaucluse,fr,,04 90 24 96 82,,"[[u'Social', u'Arts', u'Art Dealers and Galleries']]"
0,Laurent Jacques,L'Isle sur la Sorgue,84800,Batiment C l'Oree de l'Isle,Vaucluse,fr,,04 90 20 64 35,,"[[u'Social', u'Arts', u'Art Dealers and Galleries']]"
0,Mesureur Karine,L'Isle sur la Sorgue,84800,7 B avenue des Quatre Otages,Vaucluse,fr,,04 90 38 45 47,,"[[u'Social', u'Arts', u'Art Dealers and Galleries']]"
0,Au Rendez-Vous des Marchands,L'Isle sur la Sorgue,84800,89 avenue de la Libération,Vaucluse,fr,,04 90 38 29 15,,"[[u'Social', u'Arts', u'Art Dealers and Galleries']]"
0,Bens Michel,L'Isle sur la Sorgue,84800,7 avenue des Quatre Otages,Vaucluse,fr,,04 90 94 41 26,,"[[u'Social', u'Arts', u'Art Dealers and Galleries']]"
0,Brocante Merlier,L'Isle sur la Sorgue,84800,203 avenue de l'Égalité,Vaucluse,fr,,06 14 71 35 60,,"[[u'Social', u'Arts', u'Art Dealers and Galleries']]"
0,Claude Lahmi 358,L'Isle sur la Sorgue,84800,10 avenue Julien Guigue,Vaucluse,fr,,04 90 20 70 83,,"[[u'Social', u'Arts', u'Art Dealers and Galleries']]"
0,L'Arlecchino,L'Isle sur la Sorgue,84800,2 avenue de l'Egalité,Vaucluse,fr,,04 90 38 67 77,,"[[u'Social', u'Arts', u'Art Dealers and Galleries']]"
0,Verres et Lumières à l'Isle-sur-la-Sorgue,L'Isle sur la Sorgue,84800,10 avenue Julien Guigue,Vaucluse,fr,,06 70 17 98 29,,"[[u'Social', u'Arts', u'Art Dealers and Galleries']]"
0,Pro Art Galerie,L'Isle sur la Sorgue,84800,4 avenue Julien Guigue,Vaucluse,fr,,04 90 38 41 85,,"[[u'Social', u'Arts', u'Art Dealers and Galleries']]"
0,Bernasconi Roger à l'Isle-sur-la-Sorgue,L'Isle sur la Sorgue,84800,40 avenue Quatre Otages,Vaucluse,fr,,06 68 01 61 11,,"[[u'Social', u'Arts', u'Art Dealers and Galleries']]"
0,Le Petit Pont des Arts à l'Isle-sur-la-Sorgue,L Isle Sur La Sorgue,84800,7 avenue des Quatre Otages,Vaucluse,fr,,04 90 21 11 37,,"[[u'Social', u'Arts', u'Art Dealers and Galleries']]"
0,Jannin Jean-Marc,L'Isle sur la Sorgue,84800,35 cours René Char,Vaucluse,fr,,04 90 38 34 22,,"[[u'Social', u'Arts', u'Art Dealers and Galleries']]"
0,Peter et Martine,L'Isle sur la Sorgue,84800,7 avenue des Quatre Otages,Vaucluse,fr,,04 90 38 51 78,,"[[u'Social', u'Arts', u'Art Dealers and Galleries']]"
0,Actua,L'Isle sur la Sorgue,84800,176 avenue de la Libération,Vaucluse,fr,,04 90 38 60 74,,"[[u'Social', u'Arts', u'Art Dealers and Galleries']]"
0,Galerie Annie Lagier,L'Isle Sur La Sorgue,84800,6 rue Docteur Tallet,Vaucluse,fr,,04 90 20 76 52,,"[[u'Social', u'Arts', u'Art Dealers and Galleries']]"
0,Living Room,Camaret sur Aigues,84850,10 cours du Couchant,Vaucluse,fr,,06 16 95 37 08,,"[[u'Social', u'Arts', u'Art Dealers and Galleries']]"
0,Guillerminet Pierre,Bourg en Bresse,01000,12 rue de la Prévoyance,Ain,fr,,04 74 21 22 59,,"[[u'Social', u'Arts', u'Art Dealers and Galleries']]"
0,Servignat Eric,Bourg en Bresse,01000,13 place Edgar Quinet,Ain,fr,,06 32 08 74 92,http://www.meubles-servignat.com,"[[u'Social', u'Arts', u'Art Dealers and Galleries']]"
0,Félix Rosine,Bourg en Bresse,01000,42 rue Pierre Terrasson,Ain,fr,,04 74 32 03 96,,"[[u'Social', u'Arts', u'Art Dealers and Galleries']]"
0,Veylon Arnaud,Bourg en Bresse,01000,9 avenue Alphonse Baudin,Ain,fr,,06 16 69 13 80,,"[[u'Social', u'Arts', u'Art Dealers and Galleries']]"
0,Labbrucci Claude,Oyonnax,01100,28 route de Dortan,Ain,fr,,06 30 20 01 50,,"[[u'Social', u'Arts', u'Art Dealers and Galleries']]"
0,Au Petit Chineur,Arbent,01100,7 rue Jean Moulin,Ain,fr,,04 74 77 52 11,,"[[u'Social', u'Arts', u'Art Dealers and Galleries']]"
0,Mandron Nicole,Lagnieu,01150,17 rue Charles de Gaulle,Ain,fr,,04 74 35 99 76,,"[[u'Social', u'Arts', u'Art Dealers and Galleries']]"
0,Extrait Dominique,Sainte Julie,01150,place Saint Sylvestre Trolliet,Ain,fr,,04 74 61 15 63,,"[[u'Social', u'Arts', u'Art Dealers and Galleries']]"
0,Bernigaud Antiquites Decoration,Saint Martin du Mont,01160,55 chemin de la Gayette,Ain,fr,,04 74 35 52 14,,"[[u'Social', u'Arts', u'Art Dealers and Galleries']]"
0,GALERIE SAINT GERMAIN à Segny,Ségny,01170,53 route des Rosselets,Ain,fr,,04 50 41 32 86,,"[[u'Social', u'Arts', u'Art Dealers and Galleries']]"
0,Rohrbach-Chaillot Aline,Ferney Voltaire,01210,32 Grand' rue,Ain,fr,,04 50 42 85 34,http://aline-rohrbach.com,"[[u'Social', u'Arts', u'Art Dealers and Galleries']]"
0,Galerie Voltaire,Ferney Voltaire,01210,34 rue de Meyrin,Ain,fr,,04 50 28 26 59,,"[[u'Social', u'Arts', u'Art Dealers and Galleries']]"
0,Galerie du Cygne,Ferney Voltaire,01210,Centre Aumard,Ain,fr,,04 50 42 61 27,,"[[u'Social', u'Arts', u'Art Dealers and Galleries']]"
0,Pommier Gérard,Ferney Voltaire,01210,7 avenue Sports,Ain,fr,,04 50 40 15 00,,"[[u'Social', u'Arts', u'Art Dealers and Galleries']]"
0,Galerie Gilles Febvre à Ferney-Voltaire,Ferney Voltaire,01210,30 Grand rue,Ain,fr,,04 50 99 94 52,,"[[u'Social', u'Arts', u'Art Dealers and Galleries']]"
0,Jouannin Ponceblanc Patricia,Saint Rambert en Bugey,01230,36 rue Montferme Serrières,Ain,fr,,04 74 36 33 89,,"[[u'Social', u'Arts', u'Art Dealers and Galleries']]"
0,Rochet Christophe,Montagnat,01250,71 Impasse Chandeliere,Ain,fr,,04 74 42 68 96,http://www.cite-antiquaires.fr,"[[u'Social', u'Arts', u'Art Dealers and Galleries']]"
0,Marcelpoil Jeanne,Saint Just,01250,692 chemin de la Torchere,Ain,fr,,04 74 22 18 87,,"[[u'Social', u'Arts', u'Art Dealers and Galleries']]"
0,Au Fil du Temps,Laiz,01290,1 lot Montaplan,Ain,fr,,07 87 96 11 18,,"[[u'Social', u'Arts', u'Art Dealers and Galleries']]"
0,Nelva Pierre,Brens,01300,217 chemin de Vieille Vie,Ain,fr,,04 79 81 95 09,,"[[u'Social', u'Arts', u'Art Dealers and Galleries']]"
0,Musée de la Bresse Domaine des Planons,Saint Cyr sur Menthon,01380,Planon,Ain,fr,,03 85 36 31 22,http://pro.pagesjaunes.fr/conseilgeneraldel'ain/index.htm?T=0003&PA=9001,"[[u'Social', u'Arts', u'Art Dealers and Galleries']]"
0,Le Grenier Chatillonnais,Châtillon sur Chalaronne,01400,160 rue Victor Hugo,Ain,fr,,04 74 55 25 45,,"[[u'Social', u'Arts', u'Art Dealers and Galleries']]"
0,Bourdon Daniel,Viriat,01440,470 chemin de Butte,Ain,fr,,04 74 25 31 57,,"[[u'Social', u'Arts', u'Art Dealers and Galleries']]"
0,Servignat Eric,Viriat,01440,671 chemin de la Gelière,Ain,fr,,04 74 25 30 36,http://www.meubles-servignat.com,"[[u'Social', u'Arts', u'Art Dealers and Galleries']]"
0,Félix Antoine à Viriat,Viriat,01440,559 chemin Feuilles,Ain,fr,,04 74 25 38 45,,"[[u'Social', u'Arts', u'Art Dealers and Galleries']]"
0,Ain'Temporel,Poncin,01450,3 place Bichat,Ain,fr,,04 74 37 25 36,,"[[u'Social', u'Arts', u'Art Dealers and Galleries']]"
0,Zanol Alain,Montréal la Cluse,01460,45 rue de la Ville,Ain,fr,,04 74 76 01 74,,"[[u'Social', u'Arts', u'Art Dealers and Galleries']]"
0,Le Réginalde,Serrières de Briord,01470,20 rue de la Plantaz,Ain,fr,,04 74 36 72 36,http://www.antiquites-restauration-lyon-lereginalde.fr,"[[u'Social', u'Arts', u'Art Dealers and Galleries']]"
0,Monveneur Françoise,Villeneuve,01480,114 route de Villefranche,Ain,fr,,04 74 00 76 49,,"[[u'Social', u'Arts', u'Art Dealers and Galleries']]"
0,Brocante Bdgb,Villeneuve,01480,Fontaine,Ain,fr,,04 74 00 72 79,,"[[u'Social', u'Arts', u'Art Dealers and Galleries']]"
0,Collection de la Praye,Fareins,01480,16 chemin du Gourlas,Ain,fr,,09 50 36 12 68,http://www.artpraye.com,"[[u'Social', u'Arts', u'Art Dealers and Galleries']]"
0,Nimmegeers Michel,Ambérieu en Bugey,01500,79 rue du Prémonin,Ain,fr,,06 07 50 17 34,,"[[u'Social', u'Arts', u'Art Dealers and Galleries']]"
0,Bessiere Georges,Ambérieu en Bugey,01500,chemin de la Sommelière,Ain,fr,,04 74 38 12 39,,"[[u'Social', u'Arts', u'Art Dealers and Galleries']]"
0,Aiglon,Ambérieu en Bugey,01500,79 rue Prémonin,Ain,fr,,04 74 38 68 26,,"[[u'Social', u'Arts', u'Art Dealers and Galleries']]"
0,Burret Brocante,Izernore,01580,139 rue du Temple,Ain,fr,,04 74 76 32 92,,"[[u'Social', u'Arts', u'Art Dealers and Galleries']]"
0,Jarrix Guy,Saint Didier de Formans,01600,chemin des Creuses,Ain,fr,,04 74 00 11 57,,"[[u'Social', u'Arts', u'Art Dealers and Galleries']]"
0,Ulmann Georges,Saint Bernard,01600,1113 avenue Helvetes,Ain,fr,,04 74 00 46 22,,"[[u'Social', u'Arts', u'Art Dealers and Galleries']]"
0,Relais de l'Antiquite Licheron Michel,Saint Jean de Gonville,01630,1782 Grand' route,Ain,fr,,04 50 56 39 63,,"[[u'Social', u'Arts', u'Art Dealers and Galleries']]"
0,Cino Pascal,Jujurieux,01640,Cités de la Courbatière,Ain,fr,,04 74 37 12 52,,"[[u'Social', u'Arts', u'Art Dealers and Galleries']]"
0,Ponceblanc Pascal,Saint Jean le Vieux,01640,336 route de Genève,Ain,fr,,06 25 08 85 06,,"[[u'Social', u'Arts', u'Art Dealers and Galleries']]"
0,Cottier Dominique,Marchamp,01680,Hameau de Cerin,Ain,fr,,04 37 86 36 33,,"[[u'Social', u'Arts', u'Art Dealers and Galleries']]"
0,Brocante Chevrier,Beynost,01700,1914 route de Genève,Ain,fr,,04 78 55 14 13,,"[[u'Social', u'Arts', u'Art Dealers and Galleries']]"
0,Le Grenier de Sienne,Miribel,01700,chemin Belmont Mas Rillier,Ain,fr,,06 12 28 13 86,,"[[u'Social', u'Arts', u'Art Dealers and Galleries']]"
0,Oliveira Antunes de Manuël,Replonges,01750,65 Impasse de Libernet,Ain,fr,,03 85 31 00 36,,"[[u'Social', u'Arts', u'Art Dealers and Galleries']]"
0,Jacquet Pierre,Pérouges,01800,route de Trévoux,Ain,fr,,04 74 61 19 64,,"[[u'Social', u'Arts', u'Art Dealers and Galleries']]"
0,Tanzilli Roland,Meximieux,01800,9 avenue du Docteur Boyer,Ain,fr,,04 74 61 29 10,,"[[u'Social', u'Arts', u'Art Dealers and Galleries']]"
0,Antiquites Tanzilli Rolland Perouges,Pérouges,01800,route de Trévoux,Ain,fr,,04 74 61 07 11,,"[[u'Social', u'Arts', u'Art Dealers and Galleries']]"
0,Kiosque antiquites,Meximieux,01800,7 route Saint Maurice,Ain,fr,,06 88 58 55 74,,"[[u'Social', u'Arts', u'Art Dealers and Galleries']]"
0,Buhard Jean-Yves,Saint André sur Vieux Jonc,01960,Chaley,Ain,fr,,04 74 52 72 53,,"[[u'Social', u'Arts', u'Art Dealers and Galleries']]"
0,Antiquité Crapie,Péronnas,01960,130 chemin de l'Eglise,Ain,fr,,04 74 21 40 58,,"[[u'Social', u'Arts', u'Art Dealers and Galleries']]"
0,S.M.E.C Brocante,Annonay,07100,30 rue de Tournon,Ardèche,fr,,06 08 03 58 68,,"[[u'Social', u'Arts', u'Art Dealers and Galleries']]"
0,Berlioz Antiquités,Annonay,07100,le Berlioz les Domaines de la Gare,Ardèche,fr,,04 75 33 12 36,,"[[u'Social', u'Arts', u'Art Dealers and Galleries']]"
0,Aux Trouvailles,Annonay,07100,30 rue de Tournon,Ardèche,fr,,04 75 33 34 77,,"[[u'Social', u'Arts', u'Art Dealers and Galleries']]"
0,Bourel Jean-Paul,Annonay,07100,4 rue de l'Hôtel de Ville,Ardèche,fr,,04 75 67 65 22,,"[[u'Social', u'Arts', u'Art Dealers and Galleries']]"
0,Saint Peray Antiquites Gil-Charra,Saint Péray,07130,route de Valence Rond Point Pole 2000,Ardèche,fr,,04 75 40 53 93,,"[[u'Social', u'Arts', u'Art Dealers and Galleries']]"
0,Cooreman Inge,Vallon Pont d'Arc,07150,591 boulevard Peschaire Alizon,Ardèche,fr,,06 08 18 77 54,,"[[u'Social', u'Arts', u'Art Dealers and Galleries']]"
0,Ancien Couvent de Vagnas,Vagnas,07150,la Boissière,Ardèche,fr,,04 75 38 68 84,http://www.couventvagnas.fr,"[[u'Social', u'Arts', u'Art Dealers and Galleries']]"
0,Brocante Plantier,Le Cheylard,07160,31 avenue de la Gare,Ardèche,fr,,04 75 29 05 39,,"[[u'Social', u'Arts', u'Art Dealers and Galleries']]"
0,Rouzaud Jean Marie,Le Cheylard,07160,16 rue des Sabotiers,Ardèche,fr,,04 75 29 18 67,,"[[u'Social', u'Arts', u'Art Dealers and Galleries']]"
0,Eveque Jean-Marie,Lavilledieu,07170,chemin Clots,Ardèche,fr,,04 75 94 26 04,,"[[u'Social', u'Arts', u'Art Dealers and Galleries']]"
0,Jadis et Naguère,Aubenas,07200,12 rue Denis Papin,Ardèche,fr,,04 75 35 26 66,http://www.antiquites-brocante-aubenas.fr/,"[[u'Social', u'Arts', u'Art Dealers and Galleries']]"
0,Barbey Antiquité,Saint Privat,07200,1 route de l'Echelette,Ardèche,fr,,04 75 93 79 27,http://www.barbey-antiquites-ardeche.fr,"[[u'Social', u'Arts', u'Art Dealers and Galleries']]"
0,Court Bernard,Vesseaux,07200,les Fargiers,Ardèche,fr,,04 75 93 87 59,http://www.brocantecourt.com,"[[u'Social', u'Arts', u'Art Dealers and Galleries']]"
0,Mollenhoff Rolf,Aubenas,07200,7 rue de l'Industrie,Ardèche,fr,,04 75 35 95 81,,"[[u'Social', u'Arts', u'Art Dealers and Galleries']]"
0,Atelier Pierre Art et Matière,Aubenas,07200,27 rue du Docteur Louis Pargoire,Ardèche,fr,,04 75 87 27 14,,"[[u'Social', u'Arts', u'Art Dealers and Galleries']]"
0,Revoil Danielle,Saint Étienne de Fontbellon,07200,les Champs,Ardèche,fr,,06 82 01 37 45,,"[[u'Social', u'Arts', u'Art Dealers and Galleries']]"
0,Antiquites Brocnate,Joyeuse,07260,place de la Recluse,Ardèche,fr,,06 07 44 92 55,,"[[u'Social', u'Arts', u'Art Dealers and Galleries']]"
0,Millers Frantz,Tournon sur Rhône,07300,47 avenue du Maréchal Foch,Ardèche,fr,,06 81 60 37 94,,"[[u'Social', u'Arts', u'Art Dealers and Galleries']]"
0,Les Arts Verts,Tournon sur Rhône,07300,9 place Saint Julien,Ardèche,fr,,04 75 07 09 89,,"[[u'Social', u'Arts', u'Art Dealers and Galleries']]"
0,Muller Roger,Thueyts,07330,625 avenue Platanes,Ardèche,fr,,04 75 36 47 65,,"[[u'Social', u'Arts', u'Art Dealers and Galleries']]"
0,Durier Philippe,Limony,07340,rue d'Arcoules,Ardèche,fr,,09 63 04 21 62,,"[[u'Social', u'Arts', u'Art Dealers and Galleries']]"
0,Brocante Durier,Limony,07340,301 rue d'Arcoules,Ardèche,fr,,04 75 34 16 93,,"[[u'Social', u'Arts', u'Art Dealers and Galleries']]"
0,Lévêque Roland à Arras-sur-Rhône,Arras sur Rhône,07370,570 les Murets,Ardèche,fr,,04 75 06 84 12,,"[[u'Social', u'Arts', u'Art Dealers and Galleries']]"
0,Devaud Rene,Sarras,07370,Silon,Ardèche,fr,,04 75 23 18 08,,"[[u'Social', u'Arts', u'Art Dealers and Galleries']]"
0,Fabre Régis,Rochemaure,07400,25 rue de la Violle,Ardèche,fr,,04 75 49 06 10,,"[[u'Social', u'Arts', u'Art Dealers and Galleries']]"
0,Arenz Faurie Françoise,Lalouvesc,07520,15 route d'Annonay,Ardèche,fr,,04 75 67 00 51,,"[[u'Social', u'Arts', u'Art Dealers and Galleries']]"
0,Nicolas Michéle,Aizac,07530,quartier les Blanchons,Ardèche,fr,,04 75 38 72 04,,"[[u'Social', u'Arts', u'Art Dealers and Galleries']]"
0,Café Brocante Herminette,Saint Andéol de Vals,07600,,Ardèche,fr,,04 75 37 73 92,http://www.saint-andeol-de-vals.fr,"[[u'Social', u'Arts', u'Art Dealers and Galleries']]"
0,Dupont,Vals les Bains,07600,10 rue Jean Jaurès,Ardèche,fr,,09 79 21 04 79,,"[[u'Social', u'Arts', u'Art Dealers and Galleries']]"
0,Chabanis Roselyne,Bourg Saint Andeol,07700,33 place du Champ de Mars,Ardèche,fr,,04 75 54 55 94,,"[[u'Social', u'Arts', u'Art Dealers and Galleries']]"
0,Faure Thierry,Saint Marcel d'Ardèche,07700,place du Portail du Rhône,Ardèche,fr,,04 75 98 75 33,,"[[u'Social', u'Arts', u'Art Dealers and Galleries']]"
0,Lohse Olivier,Saint Laurent du Pape,07800,Grande rue,Ardèche,fr,,04 75 85 10 75,,"[[u'Social', u'Arts', u'Art Dealers and Galleries']]"
0,Galerie Sapet,Valence,26000,58 rue Bouffier,Drôme,fr,,04 75 42 02 11,http://www.galeriesapet.fr/,"[[u'Social', u'Arts', u'Art Dealers and Galleries']]"
0,Trichet Eric,Valence,26000,5 rue Pierre Barneron,Drôme,fr,,04 75 42 93 30,,"[[u'Social', u'Arts', u'Art Dealers and Galleries']]"
0,A.Grudzien,Valence,26000,17 avenue du Champ de Mars,Drôme,fr,,06 19 75 34 07,,"[[u'Social', u'Arts', u'Art Dealers and Galleries']]"
0,Galerie d'art krysop'art,Valence,26000,40 avenue de l'Yser,Drôme,fr,,04 26 60 56 83,http://www.galerie-krysop-art.com,"[[u'Social', u'Arts', u'Art Dealers and Galleries']]"
0,Galerie Gala Amalvy,Valence,26000,12 allée Jean Piaget,Drôme,fr,,04 75 41 62 07,,"[[u'Social', u'Arts', u'Art Dealers and Galleries']]"
0,Boutique l'indigo,Valence,26000,1 rue Balais,Drôme,fr,,04 75 43 06 74,,"[[u'Social', u'Arts', u'Art Dealers and Galleries']]"
0,Galerie Gala Amalvy,Valence,26000,4 rue Poncet,Drôme,fr,,,,"[[u'Social', u'Arts', u'Art Dealers and Galleries']]"
0,Cizeron Marie-Noêl,Romans sur Isère,26100,23 rue de la Pêcherie,Drôme,fr,,04 75 02 40 03,,"[[u'Social', u'Arts', u'Art Dealers and Galleries']]"
0,Galerie Flirey's Art,Romans sur Isère,26100,15 Bis rue Flirey,Drôme,fr,,04 75 71 03 42,,"[[u'Social', u'Arts', u'Art Dealers and Galleries']]"
0,L'Art Au Zénith,Nyons,26110,4 rue Septembre,Drôme,fr,,04 75 26 32 21,http://www.galerie-artauzenith.fr,"[[u'Social', u'Arts', u'Art Dealers and Galleries']]"
0,Michel Sylvain à Nyons,Nyons,26110,19 rue Maladrerie,Drôme,fr,,06 85 75 29 78,,"[[u'Social', u'Arts', u'Art Dealers and Galleries']]"
0,Bourgogne Francis à Nyons,Nyons,26110,7 rue 4 Septembre,Drôme,fr,,06 07 42 07 68,,"[[u'Social', u'Arts', u'Art Dealers and Galleries']]"
0,Angle,Saint Paul Trois Châteaux,26130,12 rue Notre Dame,Drôme,fr,,04 75 04 73 03,http://www.angle-art.fr,"[[u'Social', u'Arts', u'Art Dealers and Galleries']]"
0,A la Chine d' Antan,Saint Paul Trois Châteaux,26130,4 rue de l'Esplan,Drôme,fr,,04 75 53 57 88,http://www.alachinedantan.com,"[[u'Social', u'Arts', u'Art Dealers and Galleries']]"
0,Lithos,Saint Restitut,26130,Passage de la Cure le Village,Drôme,fr,,04 75 01 02 91,,"[[u'Social', u'Arts', u'Art Dealers and Galleries']]"
0,Peltier Jean François,Montségur sur Lauzon,26130,,Drôme,fr,,04 75 98 17 21,,"[[u'Social', u'Arts', u'Art Dealers and Galleries']]"
0,Association Pour la Promotion et la Sauvegarde de la Pierre de Saint-Restitut,Saint Restitut,26130,le Village pass Cure,Drôme,fr,,04 75 01 02 91,,"[[u'Social', u'Arts', u'Art Dealers and Galleries']]"
0,Ac Antiquites,Saint Rambert d'Albon,26140,19 chemin du Romanais,Drôme,fr,,06 11 03 02 28,,"[[u'Social', u'Arts', u'Art Dealers and Galleries']]"
0,Sassi Belgacem,Dié,26150,11 rue Emile Laurens,Drôme,fr,,06 70 85 60 07,,"[[u'Social', u'Arts', u'Art Dealers and Galleries']]"
0,Baradie,Dié,26150,57 rue Emile Laurens,Drôme,fr,,04 75 22 00 81,,"[[u'Social', u'Arts', u'Art Dealers and Galleries']]"
0,Beaumont Jean,Dié,26150,Conches et Chamarges,Drôme,fr,,04 75 22 00 83,,"[[u'Social', u'Arts', u'Art Dealers and Galleries']]"
0,Baudart Micke,Dié,26150,43 rue de l'Armellerie,Drôme,fr,,04 75 22 17 46,,"[[u'Social', u'Arts', u'Art Dealers and Galleries']]"
0,Café Théatre Andarta,Dié,26150,57 rue Emile Laurens,Drôme,fr,,07 87 93 07 96,http://www.facebook.com,"[[u'Social', u'Arts', u'Art Dealers and Galleries']]"
0,Galerie Michèle Emiliani,La Bégude de Mazenc,26160,quartier Manotière,Drôme,fr,,04 75 46 24 10,http://www.galerie-emiliani.com,"[[u'Social', u'Arts', u'Art Dealers and Galleries']]"
0,Centre International d'Art et d'Animation Raymond du Puy,Le Poët Laval,26160,Vieux Village,Drôme,fr,,04 75 46 49 38,http://www.centre-art-drome.com,"[[u'Social', u'Arts', u'Art Dealers and Galleries']]"
0,Brocante du Buis,Buis les Baronnies,26170,rue de la Conche,Drôme,fr,,04 75 28 11 52,,"[[u'Social', u'Arts', u'Art Dealers and Galleries']]"
0,L'arôme Antique,Saint Nazaire en Royans,26190,les Roches Brunes,Drôme,fr,,04 75 48 43 24,,"[[u'Social', u'Arts', u'Art Dealers and Galleries']]"
0,Au Fil du Temps Art et Antiquité,Montélimar,26200,88 avenue Saint Lazare,Drôme,fr,,04 75 90 04 04,,"[[u'Social', u'Arts', u'Art Dealers and Galleries']]"
0,Tendron Yannick,Montélimar,26200,112 avenue de Rochemaure,Drôme,fr,,04 75 49 03 93,,"[[u'Social', u'Arts', u'Art Dealers and Galleries']]"
0,Gauthier Lucien,Montélimar,26200,avenue du Meyrol,Drôme,fr,,06 27 04 63 73,http://vide-greniers.org/detailPuces.php?pucesID=17316,"[[u'Social', u'Arts', u'Art Dealers and Galleries']]"
0,Galerie Emiliani,Dieulefit,26220,allée des Promenades,Drôme,fr,,04 75 46 30 28,http://www.galerie-emiliani.com,"[[u'Social', u'Arts', u'Art Dealers and Galleries']]"
0,Galerie Artenostrum,Dieulefit,26220,allée des Promenades,Drôme,fr,,04 75 46 83 30,http://www.artenostrum.com,"[[u'Social', u'Arts', u'Art Dealers and Galleries']]"
0,Galerie Nadia B,Dieulefit,26220,31 rue Gabriel Péri,Drôme,fr,,04 75 46 31 22,,"[[u'Social', u'Arts', u'Art Dealers and Galleries']]"
0,elisa paule à Dieulefit,Dieulefit,26220,2 chemin des Demoiselles,Drôme,fr,,04 75 53 75 90,,"[[u'Social', u'Arts', u'Art Dealers and Galleries']]"
0,Galerie Incarnat,Grignan,26230,rue Saint Louis,Drôme,fr,,04 75 46 90 81,,"[[u'Social', u'Arts', u'Art Dealers and Galleries']]"
0,Roue Libre,Grignan,26230,rue Montant Au Chateau,Drôme,fr,,04 75 46 51 45,,"[[u'Social', u'Arts', u'Art Dealers and Galleries']]"
0,Galerie Saint Jacques,Grignan,26230,Montee du Tricot,Drôme,fr,,04 75 46 54 22,,"[[u'Social', u'Arts', u'Art Dealers and Galleries']]"
0,Atelier galerie F H,Grignan,26230,4 Grand rue,Drôme,fr,,,,"[[u'Social', u'Arts', u'Art Dealers and Galleries']]"
0,Seauve Philippe,Livron sur Drôme,26250,67 avenue Léon Aubin,Drôme,fr,,04 75 85 51 12,,"[[u'Social', u'Arts', u'Art Dealers and Galleries']]"
0,Margier Bernard,Clérieux,26260,les Clodits,Drôme,fr,,04 75 71 57 48,,"[[u'Social', u'Arts', u'Art Dealers and Galleries']]"
0,Le Jardin d'ebene,Cliousclat,26270,,Drôme,fr,,04 75 63 12 10,http://www.lejardindebene.fr/index.php,"[[u'Social', u'Arts', u'Art Dealers and Galleries']]"
0,Vetter Marc,Loriol sur Drôme,26270,chemin de Sainte-Catherine,Drôme,fr,,04 75 85 63 90,,"[[u'Social', u'Arts', u'Art Dealers and Galleries']]"
0,Galerie l'Oeil Soleil,Cliousclat,26270,,Drôme,fr,,04 75 63 10 08,http://www.oeilsoleil.com,"[[u'Social', u'Arts', u'Art Dealers and Galleries']]"
0,Porte des Gaultiers,Mirmande,26270,Porte Gaultiers,Drôme,fr,,04 75 63 13 29,,"[[u'Social', u'Arts', u'Art Dealers and Galleries']]"
0,Vernet Jacques,Donzère,26290,310 quart Vallon des Opilias,Drôme,fr,,04 75 51 64 27,,"[[u'Social', u'Arts', u'Art Dealers and Galleries']]"
0,Comptoir de la Bohème,Bourg de Péage,26300,19 rue Grande rue Jean Jaurès,Drôme,fr,,06 16 33 32 32,http://www.proantic.com/galerie/comptoirdelaboheme/?mode=search,"[[u'Social', u'Arts', u'Art Dealers and Galleries']]"
0,Fanget Jean-Luc,Chatuzange le Goubet,26300,route Chatuzange quart Tuilerie,Drôme,fr,,06 64 82 10 86,,"[[u'Social', u'Arts', u'Art Dealers and Galleries']]"
0,Girouette,Crest,26400,13 rue Maurice Long,Drôme,fr,,04 75 25 54 65,http://www.girouette.com,"[[u'Social', u'Arts', u'Art Dealers and Galleries']]"
0,Duvert Martial,Crest,26400,5 rue des Cordeliers,Drôme,fr,,04 75 25 31 41,http://www.antiquites-duvert.com,"[[u'Social', u'Arts', u'Art Dealers and Galleries']]"
0,Art du Temps,Cléon d'Andran,26450,place de l'Eglise,Drôme,fr,,04 75 00 46 58,http://www.artdutemps-drome.com/contact.html,"[[u'Social', u'Arts', u'Art Dealers and Galleries']]"
0,Carrier Sonia,Mours Saint Eusebe,26540,30 avenue Dauphine Provence,Drôme,fr,,04 75 70 40 95,,"[[u'Social', u'Arts', u'Art Dealers and Galleries']]"
0,Perramond Alain,Tain l'Hermitage,26600,435 chemin de Tortel,Drôme,fr,,04 75 08 57 72,,"[[u'Social', u'Arts', u'Art Dealers and Galleries']]"
0,Antiquité Naveri,Beaumont Monteux,26600,92 route Vercors,Drôme,fr,,04 75 84 64 52,,"[[u'Social', u'Arts', u'Art Dealers and Galleries']]"
0,Eric Linard Editions,La Garde Adhémar,26700,route du Val des Nymphes,Drôme,fr,,04 75 04 44 68,http://www.ericlinardeditions.com/,"[[u'Social', u'Arts', u'Art Dealers and Galleries']]"
0,Editions du Marronnier,Montboucher sur Jabron,26740,Zone Artisanale Fontgrave,Drôme,fr,,04 75 46 05 00,http://www.editionsdumarronnier.com/,"[[u'Social', u'Arts', u'Art Dealers and Galleries']]"
0,Michalot Jean,Savasse,26740,la Chapelle Hameau Homme d'Armes,Drôme,fr,,04 75 53 86 59,,"[[u'Social', u'Arts', u'Art Dealers and Galleries']]"
0,Brocantik,La Coucourde,26740,Ancienne RN7 Numéro 60,Drôme,fr,,04 75 90 08 02,,"[[u'Social', u'Arts', u'Art Dealers and Galleries']]"
0,Joly Brocante,Malataverne,26780,Zi Plaines,Drôme,fr,,04 75 90 84 19,,"[[u'Social', u'Arts', u'Art Dealers and Galleries']]"
0,Bonillo Anselme,Rochegude,26790,,Drôme,fr,,04 75 04 85 72,,"[[u'Social', u'Arts', u'Art Dealers and Galleries']]"
0,Ristori Marianne,Tulette,26790,13 avenue de Provence,Drôme,fr,,04 75 51 24 07,,"[[u'Social', u'Arts', u'Art Dealers and Galleries']]"
0,Arrêt Déco à Étoile-sur-Rhône,Etoile sur Rhône,26800,29 Grande rue,Drôme,fr,,04 75 61 79 38,http://www.arret-deco.fr,"[[u'Social', u'Arts', u'Art Dealers and Galleries']]"
0,Les Arts Galeries,Etoile sur Rhône,26800,3 rue Ecoles,Drôme,fr,,09 54 90 04 71,,"[[u'Social', u'Arts', u'Art Dealers and Galleries']]"
0,Ter Daniel,Etoile sur Rhône,26800,la Paillasse,Drôme,fr,,04 75 60 62 13,,"[[u'Social', u'Arts', u'Art Dealers and Galleries']]"
0,Centre d'Art Bastille,Grenoble,38000,Site sommital de la bastille,Isère,fr,,,http://www.cab-grenoble.net,"[[u'Social', u'Arts', u'Art Dealers and Galleries']]"
0,Ile aux Trésors,Grenoble,38000,2 place des Tilleuls,Isère,fr,,04 76 51 70 74,,"[[u'Social', u'Arts', u'Art Dealers and Galleries']]"
0,Broc'Art,Grenoble,38000,30 rue Thiers,Isère,fr,,04 76 86 18 89,http://brocart.placestars.com,"[[u'Social', u'Arts', u'Art Dealers and Galleries']]"
0,Galerie Eliane Poggi,Grenoble,38000,7 rue Alphand,Isère,fr,,04 76 54 40 33,http://www.paulconte.fr,"[[u'Social', u'Arts', u'Art Dealers and Galleries']]"
0,Jacob Rene Henri Jules,Grenoble,38000,1 route de clemencieres,Isère,fr,,06 32 15 33 05,,"[[u'Social', u'Arts', u'Art Dealers and Galleries']]"
0,Gandit Madeleine,Grenoble,38000,19 rue Voltaire,Isère,fr,,06 08 09 10 37,,"[[u'Social', u'Arts', u'Art Dealers and Galleries']]"
0,Galerie Voltaire,Grenoble,38000,3 rue Voltaire,Isère,fr,,04 76 51 19 51,http://www.galerievoltaire.com,"[[u'Social', u'Arts', u'Art Dealers and Galleries']]"
0,Galerie Vent des Cimes,Grenoble,38000,25 avenue Alsace Lorraine,Isère,fr,,04 76 46 20 09,http://www.galerie-ventdescimes.com,"[[u'Social', u'Arts', u'Art Dealers and Galleries']]"
0,Giroud Robert,Grenoble,38000,1 rue Lakanal,Isère,fr,,04 76 56 28 89,,"[[u'Social', u'Arts', u'Art Dealers and Galleries']]"
0,Amarante,Grenoble,38000,9 rue Voltaire,Isère,fr,,04 76 51 01 47,,"[[u'Social', u'Arts', u'Art Dealers and Galleries']]"
0,Conseilculture,Grenoble,38000,2 rue de l'Isère,Isère,fr,,06 85 26 40 86,,"[[u'Social', u'Arts', u'Art Dealers and Galleries']]"
0,Arcad'art,Grenoble,38000,39 rue Humbert Ii,Isère,fr,,04 76 46 13 00,,"[[u'Social', u'Arts', u'Art Dealers and Galleries']]"
0,Berline-Antiquités,Grenoble,38000,15 rue Bayard,Isère,fr,,04 76 54 82 83,,"[[u'Social', u'Arts', u'Art Dealers and Galleries']]"
0,Les Aristoloches,Grenoble,38000,10 rue Guétal,Isère,fr,,04 76 46 87 11,,"[[u'Social', u'Arts', u'Art Dealers and Galleries']]"
0,Digimag,Grenoble,38000,6 rue Servan,Isère,fr,,04 76 57 19 42,,"[[u'Social', u'Arts', u'Art Dealers and Galleries']]"
0,Au Chevalier Bayard,Grenoble,38000,16 rue Bayard,Isère,fr,,04 76 42 64 47,,"[[u'Social', u'Arts', u'Art Dealers and Galleries']]"
0,Galerie Giroud,Grenoble,38000,1 rue Lakanal,Isère,fr,,04 76 56 28 89,,"[[u'Social', u'Arts', u'Art Dealers and Galleries']]"
0,Galerie la Pleiade,Grenoble,38000,22 boulevard Edouard Rey,Isère,fr,,04 76 46 53 03,,"[[u'Social', u'Arts', u'Art Dealers and Galleries']]"
0,Cirieco Georges,Grenoble,38000,9 rue Bayard,Isère,fr,,06 07 65 29 83,,"[[u'Social', u'Arts', u'Art Dealers and Galleries']]"
0,Galerie Cupillard,Grenoble,38000,4 rue Voltaire,Isère,fr,,04 76 44 54 05,,"[[u'Social', u'Arts', u'Art Dealers and Galleries']]"
0,Acanthe Antiquites,Grenoble,38000,1 rue Voltaire,Isère,fr,,04 76 54 31 52,,"[[u'Social', u'Arts', u'Art Dealers and Galleries']]"
0,Carter Muriel,Grenoble,38000,6 rue Emile Augier,Isère,fr,,04 76 17 00 89,,"[[u'Social', u'Arts', u'Art Dealers and Galleries']]"
0,Mikaelian Edouard,Grenoble,38000,20 rue Nicolas Chorier,Isère,fr,,04 76 21 45 19,,"[[u'Social', u'Arts', u'Art Dealers and Galleries']]"
0,Galerie Marie-Louise,Grenoble,38000,10 rue Bayard,Isère,fr,,04 76 42 88 98,,"[[u'Social', u'Arts', u'Art Dealers and Galleries']]"
0,Appia Hebert,Grenoble,38000,17 rue Hebert,Isère,fr,,04 76 44 30 84,,"[[u'Social', u'Arts', u'Art Dealers and Galleries']]"
0,Galerie rome,Grenoble,38000,1 rue Tres Cloitres,Isère,fr,,,,"[[u'Social', u'Arts', u'Art Dealers and Galleries']]"
0,ULISSE Grenoble Solidarité la Ressourcerie,Grenoble,38100,2 rue Hippolyte Muller,Isère,fr,,04 76 26 66 94,http://www.ulisse38.com,"[[u'Social', u'Arts', u'Art Dealers and Galleries']]"
0,Duroure Bernard,Cessieu,38110,71 route de Chambéry,Isère,fr,,06 11 55 92 31,,"[[u'Social', u'Arts', u'Art Dealers and Galleries']]"
0,Amp Organisation,Échirolles,38130,13 rue Montagnes de Lans,Isère,fr,,04 76 09 87 57,,"[[u'Social', u'Arts', u'Art Dealers and Galleries']]"
0,Brocante de Comboire,Échirolles,38130,13 rue Montagnes de Lans,Isère,fr,,04 76 40 45 13,,"[[u'Social', u'Arts', u'Art Dealers and Galleries']]"
0,Mante Stéphane,Renage,38140,45 chemin du Maupas,Isère,fr,,06 21 81 04 34,,"[[u'Social', u'Arts', u'Art Dealers and Galleries']]"
0,Mallen Jimenez Guzman Marie Chantal,La Murette,38140,350 route du Pin,Isère,fr,,06 07 03 74 05,,"[[u'Social', u'Arts', u'Art Dealers and Galleries']]"
0,Dequier Jean-Yves,Saint Marcellin,38160,7 avenue du Docteur Carrier,Isère,fr,,04 76 38 68 35,http://www.lelienlocal.com/commercants/dequier-brocante-drome-isere/brocante-drome-isere.php,"[[u'Social', u'Arts', u'Art Dealers and Galleries']]"
0,Civitas Dei,Saint Antoine l'Abbaye,38160,route de Chapaize,Isère,fr,,04 76 64 45 60,,"[[u'Social', u'Arts', u'Art Dealers and Galleries']]"
0,Traffey Herve,Saint Romans,38160,le Gerin,Isère,fr,,04 76 36 05 56,,"[[u'Social', u'Arts', u'Art Dealers and Galleries']]"
0,Ruga Enrichetta,Vienne,38200,1 rue du Port de l'Écu,Isère,fr,,06 63 54 01 64,,"[[u'Social', u'Arts', u'Art Dealers and Galleries']]"
0,Toiles d'Aurore,Tullins,38210,65 rue du Général de Gaulle,Isère,fr,,06 19 94 15 43,http://cd.ultra-book.com,"[[u'Social', u'Arts', u'Art Dealers and Galleries']]"
0,Charbonneau Brocante,Vourey,38210,75 chemin de Suzet,Isère,fr,,04 76 07 27 79,,"[[u'Social', u'Arts', u'Art Dealers and Galleries']]"
0,Reclame d'Antan Vourey,Vourey,38210,35 route de la Fontaine Ronde,Isère,fr,,04 76 05 07 50,,"[[u'Social', u'Arts', u'Art Dealers and Galleries']]"
0,Le Troc'Antic,Vizille,38220,219 rue Ambroise Croizat,Isère,fr,,04 76 68 22 43,,"[[u'Social', u'Arts', u'Art Dealers and Galleries']]"
0,Colboc Laurent,Meylan,38240,2 Impasse des Saraméjous,Isère,fr,,06 08 82 72 39,,"[[u'Social', u'Arts', u'Art Dealers and Galleries']]"
0,Maillard Olivier,Villard de Lans,38250,chemin du Peuil,Isère,fr,,04 76 94 13 15,,"[[u'Social', u'Arts', u'Art Dealers and Galleries']]"
0,Diard Pierre-Olivier,La Cote Saint Andre,38260,26 rue Tourtain,Isère,fr,,04 74 20 42 95,http://www.diard-debarras-isere.fr,"[[u'Social', u'Arts', u'Art Dealers and Galleries']]"
0,Lacroix Gerald,La Frette,38260,183 Trievoz,Isère,fr,,06 87 25 14 39,,"[[u'Social', u'Arts', u'Art Dealers and Galleries']]"
0,Murgat,Beaurepaire,38270,37 avenue Jean Jaurès,Isère,fr,,09 61 25 64 41,,"[[u'Social', u'Arts', u'Art Dealers and Galleries']]"
0,Alvès Constantin à Janneyrias,Janneyrias,38280,2 Hameau de Saint Ours,Isère,fr,,04 78 31 95 26,http://www.brocante-recupe-alves.fr,"[[u'Social', u'Arts', u'Art Dealers and Galleries']]"
0,Galerie d'Art Thérèse Veyrat,Bourgoin Jallieu,38300,15 rue Victor Hugo Bourgoin,Isère,fr,,04 74 28 53 20,http://www.veyrat-encadrement.com,"[[u'Social', u'Arts', u'Art Dealers and Galleries']]"
0,Galerie Elizabeth Couturier,Bourgoin Jallieu,38300,12 rue de Stalingrad,Isère,fr,,04 74 28 47 26,http://www.galerie-elizabethcouturier.com,"[[u'Social', u'Arts', u'Art Dealers and Galleries']]"
0,Armanet Andree,Bourgoin Jallieu,38300,200 rue de la Libération,Isère,fr,,04 74 43 82 03,,"[[u'Social', u'Arts', u'Art Dealers and Galleries']]"
0,Sabiac Elisabeth,Bourgoin Jallieu,38300,48 rue Pontcottier,Isère,fr,,04 74 28 99 50,,"[[u'Social', u'Arts', u'Art Dealers and Galleries']]"
0,Lechner Gérard,Bourgoin Jallieu,38300,10 rue du Transvaal,Isère,fr,,04 74 93 75 90,,"[[u'Social', u'Arts', u'Art Dealers and Galleries']]"
0,Rousset Pascal,Bourgoin Jallieu,38300,10 rue du Transvaal,Isère,fr,,06 60 34 94 98,,"[[u'Social', u'Arts', u'Art Dealers and Galleries']]"
0,Emmaüs Grenoble,La Mure,38350,zi Marais,Isère,fr,,04 76 30 90 77,http://www.emmaus-grenoble.fr,"[[u'Social', u'Arts', u'Art Dealers and Galleries']]"
0,Le Relais des Arts,Sassenage,38360,57 rue de la République,Isère,fr,,04 76 26 74 12,,"[[u'Social', u'Arts', u'Art Dealers and Galleries']]"
0,Lejeune Michael,Saint Clair du Rhône,38370,10 rue Pierre et Marie Currie,Isère,fr,,06 17 72 87 35,,"[[u'Social', u'Arts', u'Art Dealers and Galleries']]"
0,Antiquite Brocante,Saint Clair du Rhône,38370,10 rue Pierre et Marie Curie,Isère,fr,,06 17 72 87 35,,"[[u'Social', u'Arts', u'Art Dealers and Galleries']]"
0,Pessin Marc,Saint Laurent du Pont,38380,166 chemin Reys,Isère,fr,,04 76 55 22 14,,"[[u'Social', u'Arts', u'Art Dealers and Galleries']]"
0,Emmaüs Grenoble,Le Versoud,38420,304 rue Henri Giraud,Isère,fr,,04 76 77 15 98,http://www.emmaus-grenoble.fr,"[[u'Social', u'Arts', u'Art Dealers and Galleries']]"
0,Blanchot Hubert,Moirans,38430,19 avenue Louis Moyroud,Isère,fr,,04 76 35 07 39,,"[[u'Social', u'Arts', u'Art Dealers and Galleries']]"
0,Les Trouvailles de Vincent,Pressins,38480,route du Sablon,Isère,fr,,06 87 32 40 87,,"[[u'Social', u'Arts', u'Art Dealers and Galleries']]"
0,Loriot Jean-Claude,Fitilieu,38490,224 route de Luissert,Isère,fr,,04 76 32 00 08,,"[[u'Social', u'Arts', u'Art Dealers and Galleries']]"
0,Antiquité Souvenirs des Alpes,Aoste,38490,60 route Clément Gondrand,Isère,fr,,04 76 31 64 13,,"[[u'Social', u'Arts', u'Art Dealers and Galleries']]"
0,Joirkin Pascal,Voiron,38500,12 rue des Cerneaux,Isère,fr,,06 81 88 61 48,,"[[u'Social', u'Arts', u'Art Dealers and Galleries']]"
0,Brocante de Vouise,Voiron,38500,75 Bis rue Sermorens,Isère,fr,,04 76 65 99 21,,"[[u'Social', u'Arts', u'Art Dealers and Galleries']]"
0,Au Verre Luisant,Voiron,38500,49 rue des Tallifardières,Isère,fr,,04 76 66 10 46,,"[[u'Social', u'Arts', u'Art Dealers and Galleries']]"
0,Antic'Ange,Saint Cassien,38500,27 chemin des Sources,Isère,fr,,04 76 65 76 45,,"[[u'Social', u'Arts', u'Art Dealers and Galleries']]"
0,Luigi Antiquites Brocante,Voiron,38500,36 Grande rue,Isère,fr,,06 08 34 91 34,,"[[u'Social', u'Arts', u'Art Dealers and Galleries']]"
0,Maison du Pays des Couleurs,Morestel,38510,84 place du Huit Mai 1945,Isère,fr,,04 74 80 39 30,http://www.lepaysdescouleurs.fr,"[[u'Social', u'Arts', u'Art Dealers and Galleries'], [u'Landmarks']]"
0,Galerie Dauphinoise,Le Bouchage,38510,Serrées,Isère,fr,,04 74 92 05 36,,"[[u'Social', u'Arts', u'Art Dealers and Galleries']]"
0,Art-amour,Le Bouchage,38510,route Buvin,Isère,fr,,04 74 92 55 47,,"[[u'Social', u'Arts', u'Art Dealers and Galleries']]"
0,Galerie Deneulin,Barraux,38530,200 Grande rue,Isère,fr,,09 53 80 49 33,http://www.deneulin.fr,"[[u'Social', u'Arts', u'Art Dealers and Galleries']]"
0,Luquet Roger,Saint Maurice l'Exil,38550,26 rue Louise Michel,Isère,fr,,04 74 86 37 82,,"[[u'Social', u'Arts', u'Art Dealers and Galleries']]"
0,Tribbia Edgar,Champ sur Drac,38560,11 route de Vizille,Isère,fr,,06 08 42 82 98,,"[[u'Social', u'Arts', u'Art Dealers and Galleries']]"
0,Broc' Sold,Torchefelon,38690,141 chemin des Roberts,Isère,fr,,04 74 92 34 28,,"[[u'Social', u'Arts', u'Art Dealers and Galleries']]"
0,Brocante de la Bertine,Colombe,38690,192 chemin Bertine,Isère,fr,,04 76 55 59 89,,"[[u'Social', u'Arts', u'Art Dealers and Galleries']]"
0,Jay Bruno,La Tronche,38700,2 chemin de la Viotte,Isère,fr,,04 76 44 20 57,,"[[u'Social', u'Arts', u'Art Dealers and Galleries']]"
0,Europucier,Varces Allières et Risset,38760,13 rue Passerelle,Isère,fr,,04 76 33 08 05,http://europucier.com,"[[u'Social', u'Arts', u'Art Dealers and Galleries']]"
0,Air du Temps,Varces Allières et Risset,38760,Général Saint Ange,Isère,fr,,06 07 84 02 14,,"[[u'Social', u'Arts', u'Art Dealers and Galleries']]"
0,Tournesols Art Gallery St Etienne,Saint Étienne,42000,17 rue Notre Dame,Loire,fr,,,,"[[u'Social', u'Arts']]"
0,Déco'Antics',Saint Étienne,42000,14 rue du Quatre Septembre,Loire,fr,,04 77 37 88 72,http://www.deco-antics.fr,"[[u'Social', u'Arts', u'Art Dealers and Galleries']]"
0,Galerie les Tournesols,Saint Étienne,42000,1 place Maxime Gorki,Loire,fr,,04 77 41 80 77,http://www.galerie-les-tournesols.fr,"[[u'Social', u'Arts', u'Art Dealers and Galleries']]"
0,Les Tournesols,Saint Étienne,42000,17 rue Notre Dame,Loire,fr,,04 77 41 74 89,http://www.galerie-les-tournesols.fr,"[[u'Social', u'Arts', u'Art Dealers and Galleries']]"
0,Vendange Bruno,Saint Étienne,42000,74 rue de la Sablière,Loire,fr,,04 77 21 23 06,,"[[u'Social', u'Arts', u'Art Dealers and Galleries']]"
0,Courbon Armand,Saint Étienne,42000,16 rue de la République,Loire,fr,,04 77 33 96 91,,"[[u'Social', u'Arts', u'Art Dealers and Galleries']]"
0,Aravnie,Saint Étienne,42000,14 rue Léon Nautin,Loire,fr,,06 23 18 08 66,,"[[u'Social', u'Arts', u'Art Dealers and Galleries']]"
0,Galerie Berthéas les Tournesols,Saint Étienne,42000,17 rue Notre Dame,Loire,fr,,06 13 57 11 80,http://www.galerie-les-tournesols.fr,"[[u'Social', u'Arts', u'Art Dealers and Galleries']]"
0,Geode Atelier,Saint Étienne,42000,1 rue Elise Gervais,Loire,fr,,06 75 09 18 60,,"[[u'Social', u'Arts', u'Art Dealers and Galleries']]"
0,Charpille Jean-Pierre,Saint Étienne,42000,place Jean Jaurès,Loire,fr,,04 77 33 84 01,,"[[u'Social', u'Arts', u'Art Dealers and Galleries']]"
0,Aaqpb,Saint Étienne,42000,26 rue Paul Bert,Loire,fr,,09 61 33 84 89,,"[[u'Social', u'Arts', u'Art Dealers and Galleries']]"
0,Croq'Broc,Saint Étienne,42000,le Bourg bourg Saint Victor,Loire,fr,,06 13 42 07 20,,"[[u'Social', u'Arts', u'Art Dealers and Galleries']]"
0,Galerie Geode,Saint Étienne,42000,1 rue Elise Gervais,Loire,fr,,04 77 32 20 38,,"[[u'Social', u'Arts', u'Art Dealers and Galleries']]"
0,Troc Bijoux,Saint Étienne,42000,2 rue de la Tour Varan,Loire,fr,,04 77 41 41 96,,"[[u'Social', u'Arts', u'Art Dealers and Galleries']]"
0,Galerie Bernard Ceysson,Saint Étienne,42000,8 rue des Creuses,Loire,fr,,04 77 33 28 93,,"[[u'Social', u'Arts', u'Art Dealers and Galleries']]"
0,Alchimie,Saint Étienne,42000,43 rue des Martyrs de Vingre,Loire,fr,,,,"[[u'Social', u'Arts', u'Art Dealers and Galleries']]"
0,Marché des Antiquités,Saint Étienne,42100,32 rue de la Badouillere,Loire,fr,,04 77 21 77 98,,"[[u'Social', u'Arts', u'Art Dealers and Galleries']]"
0,Decal et Co,Saint Étienne,42100,2 place Villeboeuf,Loire,fr,,04 77 33 89 68,,"[[u'Social', u'Arts', u'Art Dealers and Galleries']]"
0,Courbon Armand,Saint Étienne,42100,5 rue Camille de Rochetaillee,Loire,fr,,04 77 33 71 77,,"[[u'Social', u'Arts', u'Art Dealers and Galleries']]"
0,Giraud,Saint Étienne,42100,21 rue Antoine Durafour,Loire,fr,,04 77 25 31 96,,"[[u'Social', u'Arts', u'Art Dealers and Galleries']]"
0,Hinderchied André,Pouilly Lès Feurs,42110,168 rue Poterne,Loire,fr,,04 77 26 47 86,,"[[u'Social', u'Arts', u'Art Dealers and Galleries']]"
0,Hinderchied Maurice,Pouilly Lès Feurs,42110,5 rue Chapotière,Loire,fr,,04 77 26 37 49,,"[[u'Social', u'Arts', u'Art Dealers and Galleries']]"
0,Chaptard Jeannine,Le Coteau,42120,35 route de Commelle,Loire,fr,,04 77 68 13 46,,"[[u'Social', u'Arts', u'Art Dealers and Galleries']]"
0,Au Temps Jadis,Boën,42130,2 rue Elisée David,Loire,fr,,04 77 24 18 63,,"[[u'Social', u'Arts', u'Art Dealers and Galleries']]"
0,Madaire Thierry,Sainte Agathe La Bouteresse,42130,lieu-dit Bouteresse,Loire,fr,,04 77 24 16 90,,"[[u'Social', u'Arts', u'Art Dealers and Galleries']]"
0,Poncet Thierry,Chazelles sur Lyon,42140,18 rue Clément Clavel,Loire,fr,,04 77 94 24 93,http://www.poncet-antiquites.fr,"[[u'Social', u'Arts', u'Art Dealers and Galleries']]"
0,Neel Albert,Chazelles Sur Lyon,42140,18 rue Emile Rivoire,Loire,fr,,04 77 54 32 61,,"[[u'Social', u'Arts', u'Art Dealers and Galleries']]"
0,Verzeletti Serge,Andrézieux Bouthéon,42160,82 route Nationale avenue Jean Mermoz,Loire,fr,,04 77 36 57 05,,"[[u'Social', u'Arts', u'Art Dealers and Galleries']]"
0,Baeza Sylvain,Andrézieux Bouthéon,42160,5 Impasse Clément Ader,Loire,fr,,04 77 55 61 32,,"[[u'Social', u'Arts', u'Art Dealers and Galleries']]"
0,Perret Paul,Saint Just Saint Rambert,42170,chemin du Béchet,Loire,fr,,04 77 52 41 38,,"[[u'Social', u'Arts', u'Art Dealers and Galleries']]"
0,Royet Auguste,Saint Just Saint Rambert,42170,50 rue Gambetta,Loire,fr,,04 77 89 18 45,,"[[u'Social', u'Arts', u'Art Dealers and Galleries']]"
0,Valéry Tarabon,Saint Just Saint Rambert,42170,3 les hauts d'Avernay,Loire,fr,,06 10 66 21 59,,"[[u'Social', u'Arts', u'Art Dealers and Galleries']]"
0,Aux Mille et Une Brocs,Saint Pierre la Noaille,42190,le Bourg,Loire,fr,,04 77 60 72 13,,"[[u'Social', u'Arts', u'Art Dealers and Galleries']]"
0,Degrange Philippe,Charlieu,42190,28 rue Jean Jaurès,Loire,fr,,06 80 73 96 74,,"[[u'Social', u'Arts', u'Art Dealers and Galleries']]"
0,Beraud Marc,Marclopt,42210,le Bourg,Loire,fr,,04 77 54 47 84,,"[[u'Social', u'Arts', u'Art Dealers and Galleries']]"
0,Mallet Edith,Montrond les Bains,42210,29 les Vincents,Loire,fr,,04 77 54 89 46,,"[[u'Social', u'Arts', u'Art Dealers and Galleries']]"
0,La Draisienne,Roche la Molière,42230,5 rue Pierre et Marie Curie,Loire,fr,,04 77 21 03 08,,"[[u'Social', u'Arts', u'Art Dealers and Galleries']]"
0,Merley Pierre,Saint Maurice en Gourgois,42240,Gourgois,Loire,fr,,04 77 50 33 59,,"[[u'Social', u'Arts', u'Art Dealers and Galleries']]"
0,Pikinasso,Roanne,42300,8 rue de Brison,Loire,fr,,04 77 67 49 69,,"[[u'Social', u'Arts', u'Art Dealers and Galleries']]"
0,Les Tournesols,Roanne,42300,6 rue Alsace Lorraine,Loire,fr,,04 77 72 95 51,,"[[u'Social', u'Arts', u'Art Dealers and Galleries']]"
0,Roanne Collection,Roanne,42300,63 rue Albert Thomas,Loire,fr,,04 77 71 10 52,,"[[u'Social', u'Arts', u'Art Dealers and Galleries']]"
0,Abondance Antiquité Marcoux,Mably,42300,16 rue Alfred de Musset,Loire,fr,,04 77 71 79 00,http://www.antiquitesandra.fr/,"[[u'Social', u'Arts', u'Art Dealers and Galleries']]"
0,Perrier Jean Luc,Roanne,42300,39 rue Denis Papin,Loire,fr,,06 81 84 31 89,,"[[u'Social', u'Arts', u'Art Dealers and Galleries']]"
0,Créa Déco,Roanne,42300,1 rue de Clermont,Loire,fr,,04 77 72 37 87,,"[[u'Social', u'Arts', u'Art Dealers and Galleries']]"
0,Szangarski Jean-Paul,Roanne,42300,34 rue Benoît Malon,Loire,fr,,04 77 72 82 95,,"[[u'Social', u'Arts', u'Art Dealers and Galleries']]"
0,Galerie du Cheval Blanc Roanne,Roanne,42300,6 Passe Bourgneuf,Loire,fr,,04 77 71 94 52,,"[[u'Social', u'Arts', u'Art Dealers and Galleries']]"
0,Galerie Léoni,Saint Galmier,42330,rue Didier Guetton,Loire,fr,,04 77 94 95 41,http://www.galerieleoni.com,"[[u'Social', u'Arts', u'Art Dealers and Galleries']]"
0,Brocante du Rond Point,Renaison,42370,42 rue de l'Annexe,Loire,fr,,04 77 64 28 45,,"[[u'Social', u'Arts', u'Art Dealers and Galleries']]"
0,Giacone Antiquaire,Chuyer,42410,1 Col de Pavezin,Loire,fr,,04 77 20 22 68,,"[[u'Social', u'Arts', u'Art Dealers and Galleries']]"
0,Dépôt Vente Lorettois,Lorette,42420,rue de Villedieu,Loire,fr,,04 77 73 66 26,,"[[u'Social', u'Arts', u'Art Dealers and Galleries']]"
0,Lay Broc'Art,Lay,42470,Grand'rue,Loire,fr,,04 77 62 77 28,,"[[u'Social', u'Arts', u'Art Dealers and Galleries']]"
0,Lay Broc'Art,Lay,42470,la Chize,Loire,fr,,04 77 62 70 59,,"[[u'Social', u'Arts', u'Art Dealers and Galleries']]"
0,Felix Bernard,Balbigny,42510,2 rue 11 Novembre,Loire,fr,,04 77 28 10 53,,"[[u'Social', u'Arts', u'Art Dealers and Galleries']]"
0,Chateau de la Bertrandiere,L Etrat,42580,14 allée de la Bertrandiere,Loire,fr,,04 77 74 76 20,,"[[u'Social', u'Arts', u'Art Dealers and Galleries']]"
0,Sté Forézienne d'Antiquités,Savigneux,42600,18 Impasse des Jacquins,Loire,fr,,04 77 58 63 41,,"[[u'Social', u'Arts', u'Art Dealers and Galleries']]"
0,Dépôt Vente Forézien,Montbrison,42600,74 rue Purelles avenue Saint Etienne,Loire,fr,,06 77 03 81 32,,"[[u'Social', u'Arts', u'Art Dealers and Galleries']]"
0,Lopez Hervé,Montbrison,42600,12 avenue de la Libération,Loire,fr,,09 54 16 60 10,,"[[u'Social', u'Arts', u'Art Dealers and Galleries']]"
0,Gauchet Gerard,Montbrison,42600,Impasse de la Commanderie,Loire,fr,,04 77 58 45 79,,"[[u'Social', u'Arts', u'Art Dealers and Galleries']]"
0,Bord Jacques,Chalain le Comtal,42600,Fontannes,Loire,fr,,09 61 34 82 20,,"[[u'Social', u'Arts', u'Art Dealers and Galleries']]"
0,Association Galerie les Insoum,Montbrison,42600,7 rue Chenevotterie,Loire,fr,,04 77 58 20 19,,"[[u'Social', u'Arts', u'Art Dealers and Galleries']]"
0,Authentique Brocante,Saint Jean Bonnefonds,42650,route de Nantas,Loire,fr,,04 77 95 03 99,http://www.brocante-saint-etienne.fr,"[[u'Social', u'Arts', u'Art Dealers and Galleries']]"
0,Angelou Michel,Saint Genest Malifaux,42660,Lieu Dit la République,Loire,fr,,04 77 51 41 22,,"[[u'Social', u'Arts', u'Art Dealers and Galleries']]"
0,Dépôt Vente du Mas,Firminy,42700,15 rue du Professeur Calmette,Loire,fr,,04 77 61 97 00,,"[[u'Social', u'Arts', u'Art Dealers and Galleries']]"
0,Le Grenier de Julie,Firminy,42700,1 Square de la Rochette,Loire,fr,,06 72 16 62 44,,"[[u'Social', u'Arts', u'Art Dealers and Galleries']]"
0,Azazi Brahim,Firminy,42700,13 boulevard Loucheur,Loire,fr,,04 77 89 48 76,,"[[u'Social', u'Arts', u'Art Dealers and Galleries']]"
0,Vicente José,Saint Paul En Jarez,42740,13 Impasse des Hêtres,Loire,fr,,04 77 73 28 95,,"[[u'Social', u'Arts', u'Art Dealers and Galleries']]"
0,Les Halles du Gier,Rive De Gier,42800,61 rue Edouard Vaillant,Loire,fr,,04 77 75 86 55,,"[[u'Social', u'Arts', u'Art Dealers and Galleries']]"
0,Giacone Serge,Rive De Gier,42800,4 cours Gambetta,Loire,fr,,06 99 64 66 39,,"[[u'Social', u'Arts', u'Art Dealers and Galleries']]"
0,Fedora Art Gallery,Lyon,69001,37 quai Saint Vincent,Rhône,fr,,04 78 39 74 95,http://www.fedoraartgallery.com,"[[u'Social', u'Arts', u'Art Dealers and Galleries']]"
0,Galerie Michel Estades,Lyon,69001,61 quai Saint Vincent,Rhône,fr,,04 78 28 65 92,http://www.estades.com/,"[[u'Social', u'Arts', u'Art Dealers and Galleries']]"
0,Regard Sud,Lyon,69001,1-3 rue des Pierres Plantées,Rhône,fr,,04 78 27 44 67,http://www.regardsud.com/,"[[u'Social', u'Arts', u'Art Dealers and Galleries']]"
0,Galerie Anne-Marie et Roland Pallade,Lyon,69001,35 rue Burdeau,Rhône,fr,,09 50 45 85 75,http://www.pallade.net,"[[u'Social', u'Arts', u'Art Dealers and Galleries']]"
0,Galerie le Reverbere 2,Lyon,69001,38 rue de Burdeau,Rhône,fr,,04 72 00 06 72,http://www.andreforestier.com,"[[u'Social', u'Arts', u'Art Dealers and Galleries']]"
0,A Chacun Sa Toile,Lyon,69001,43 quai Saint Vincent,Rhône,fr,,06 63 03 01 69,http://www.tableau-abstrait-lyon.com,"[[u'Social', u'Arts', u'Art Dealers and Galleries']]"
0,Galerie Mathieu,Lyon,69001,48 rue Burdeau,Rhône,fr,,04 78 39 72 19,http://galeriemathieu.blogspot.com,"[[u'Social', u'Arts', u'Art Dealers and Galleries']]"
0,Galerie Atelier 28,Lyon,69001,28 rue Burdeau,Rhône,fr,,04 78 28 07 72,http://www.galerie-atelier28.fr,"[[u'Social', u'Arts', u'Art Dealers and Galleries']]"
0,Le Bleu du Ciel,Lyon,69001,12 rue des Fantasques,Rhône,fr,,04 72 07 84 31,http://www.lebleuduciel.net,"[[u'Social', u'Arts', u'Art Dealers and Galleries']]"
0,Galerie Françoise Souchaud,Lyon,69001,35 rue Burdeau,Rhône,fr,,04 78 42 49 51,http://www.galerie-souchaud.fr,"[[u'Social', u'Arts', u'Art Dealers and Galleries']]"
0,Galerie Caroline Vachet,Lyon,69001,23 rue Burdeau,Rhône,fr,,04 78 30 64 38,http://www.galeriecarolinevachet.com,"[[u'Social', u'Arts', u'Art Dealers and Galleries']]"
0,Antiquités Jean-Pierre,Lyon,69001,142 boulevard de la Croix Rousse,Rhône,fr,,04 78 29 09 14,,"[[u'Social', u'Arts', u'Art Dealers and Galleries']]"
0,Art Up Deco,Lyon,69001,59 quai Saint Vincent,Rhône,fr,,04 78 39 32 50,,"[[u'Social', u'Arts', u'Art Dealers and Galleries']]"
0,Galerie Henri Chartier,Lyon,69001,42 rue Burdeau,Rhône,fr,,04 78 58 77 27,http://www.henrichartier.com,"[[u'Social', u'Arts', u'Art Dealers and Galleries']]"
0,Amouyal Jean-Claude,Lyon,69001,26 rue Burdeau,Rhône,fr,,04 78 39 07 31,,"[[u'Social', u'Arts', u'Art Dealers and Galleries']]"
0,Mathieu Geneviève,Lyon,69001,48 rue Burdeau,Rhône,fr,,06 79 71 95 68,http://galeriemathieu.blogspot.com,"[[u'Social', u'Arts', u'Art Dealers and Galleries']]"
0,Trib'Art Galerie,Lyon,69001,22 Montée Saint Sébastien,Rhône,fr,,04 72 00 96 67,http://www.trib-art-galerie.com/,"[[u'Social', u'Arts', u'Art Dealers and Galleries']]"
0,Galerie Françoise Besson,Lyon,69001,10 rue de Crimée,Rhône,fr,,04 78 30 54 75,http://www.francoisebesson.com/,"[[u'Social', u'Arts', u'Art Dealers and Galleries']]"
0,Galerie Elizabeth Couturier,Lyon,69001,25 rue Burdeau,Rhône,fr,,04 27 78 82 32,http://www.galerie-elizabethcouturier.com,"[[u'Social', u'Arts', u'Art Dealers and Galleries']]"
0,Galerie Clemouchka,Lyon,69001,35 rue René Leynaud,Rhône,fr,,09 81 14 41 35,http://www.galerie-clemouchka.com,"[[u'Social', u'Arts', u'Art Dealers and Galleries']]"
0,Despaysages,Lyon,69001,14 rue Mottet de Gérando,Rhône,fr,,04 78 28 66 57,http://www.despaysages.com,"[[u'Social', u'Arts', u'Art Dealers and Galleries']]"
0,Corond Ludovic,Lyon,69001,142 boulevard de la Croix Rousse,Rhône,fr,,09 54 75 62 50,,"[[u'Social', u'Arts', u'Art Dealers and Galleries']]"
0,Artscenik Par Abreviation Ask,Lyon,69001,13 rue des Capucins,Rhône,fr,,04 78 60 07 65,,"[[u'Social', u'Arts', u'Art Dealers and Galleries']]"
0,Le Laboratoire,Lyon,69001,22 rue Terraille,Rhône,fr,,04 26 55 85 00,,"[[u'Social', u'Arts', u'Art Dealers and Galleries']]"
0,Galerie Lumière,Lyon,69001,3 rue de l'Arbre Sec,Rhône,fr,,04 78 78 18 95,,"[[u'Social', u'Arts', u'Art Dealers and Galleries']]"
0,Singul'Art,Lyon,69001,46 Montée Grande Côte,Rhône,fr,,04 78 39 12 65,,"[[u'Social', u'Arts', u'Art Dealers and Galleries']]"
0,Galerie Jose Martinez,Lyon,69001,28 rue Burdeau,Rhône,fr,,04 78 28 07 72,,"[[u'Social', u'Arts', u'Art Dealers and Galleries']]"
0,Darmedru Philippe à Lyon,Lyon,69001,1 rue Jardin des Plantes,Rhône,fr,,04 78 28 75 39,,"[[u'Social', u'Arts', u'Art Dealers and Galleries']]"
0,Galerie Henri Chartier,Lyon,69001,35 rue Rene Leynaud,Rhône,fr,,04 72 44 02 58,,"[[u'Social', u'Arts', u'Art Dealers and Galleries']]"
0,L'Ethnophile,Lyon,69001,42 quai Saint Vincent,Rhône,fr,,04 78 39 33 12,,"[[u'Social', u'Arts', u'Art Dealers and Galleries']]"
0,La Façon,Lyon,69001,19 rue des Capucins,Rhône,fr,,06 12 83 35 75,,"[[u'Social', u'Arts', u'Art Dealers and Galleries']]"
0,L'esprit Nouveau à Lyon,Lyon,69001,12 rue Capucins,Rhône,fr,,04 72 00 89 34,,"[[u'Social', u'Arts', u'Art Dealers and Galleries']]"
0,Galerie Morillon-Cuneus,Lyon,69001,7 rue Romarin,Rhône,fr,,04 78 27 02 84,,"[[u'Social', u'Arts', u'Art Dealers and Galleries']]"
0,Galerie Malaval,Lyon,69001,1 rue du President Edouard Herriot,Rhône,fr,,,,"[[u'Social', u'Arts', u'Art Dealers and Galleries']]"
0,BRUN Vale à Lyon,Lyon,69001,30 du Bon Pasteur,Rhône,fr,,06 60 92 79 90,,"[[u'Social', u'Arts', u'Art Dealers and Galleries']]"
0,Marie Dessalle Galerie,,69001,3 rue Bodin,Rhône,fr,,09 50 40 61 81,,"[[u'Social', u'Arts', u'Art Dealers and Galleries']]"
0,Twentytwo Gallery,Lyon,69002,22 rue Auguste Comte,Rhône,fr,,04 78 82 80 15,http://www.twentytwo-gallery.com,"[[u'Social', u'Arts', u'Art Dealers and Galleries']]"
0,Artclub Gallery,Lyon,69002,22 et 23 place Bellecour,Rhône,fr,,04 78 37 47 37,http://www.artclub.fr,"[[u'Social', u'Arts', u'Art Dealers and Galleries']]"
0,Galerie Laurencin,Lyon,69002,17 rue Auguste Comte,Rhône,fr,,04 78 37 86 19,http://laurencin.net,"[[u'Social', u'Arts', u'Art Dealers and Galleries']]"
0,Galerie Dettinger Mayer,Lyon,69002,4 quai du Docteur Gailleton,Rhône,fr,,04 72 41 07 80,http://www.galerie-dettinger-mayer.com,"[[u'Social', u'Arts', u'Art Dealers and Galleries']]"
0,Georges Alain,Lyon,69002,47 rue Auguste Comte,Rhône,fr,,04 78 42 07 31,http://www.galerie-alaingeorges.com/,"[[u'Social', u'Arts', u'Art Dealers and Galleries']]"
0,Galerie Sarah Blancardi Kalbache,Lyon,69002,24 rue des Remparts d'Ainay,Rhône,fr,,04 69 70 03 92,http://www.galerie-sbk.com,"[[u'Social', u'Arts', u'Art Dealers and Galleries']]"
0,Houg Olivier,Lyon,69002,46 rue Auguste Comte,Rhône,fr,,04 72 77 61 05,http://www.redroomexpertise.fr,"[[u'Social', u'Arts', u'Art Dealers and Galleries']]"
0,Galerie Comtesses,Lyon,69002,39 rue Auguste Comte,Rhône,fr,,04 78 37 87 18,http://www.galeriecomtesses.com,"[[u'Social', u'Arts', u'Art Dealers and Galleries']]"
0,Galerie d'Art Célia B. Guedj,Lyon,69002,9 rue de la Monnaie,Rhône,fr,,04 78 38 31 41,http://www.celiabguedj.com,"[[u'Social', u'Arts', u'Art Dealers and Galleries']]"
0,Carre d'Artistes,Lyon,69002,57 Passage de l'Argue,Rhône,fr,,04 78 37 02 14,http://fr.carredartistes.com/,"[[u'Social', u'Arts', u'Art Dealers and Galleries']]"
0,Antiquités Alain Locatelli,Lyon,69002,64 rue Auguste Comte,Rhône,fr,,04 78 92 94 73,http://antiquitesalainlocatelli.com/index.htm?T=0001&HO=9001&VI=0001&PA=9001,"[[u'Social', u'Arts', u'Art Dealers and Galleries']]"
0,Galerie Georges Verney-Carron,Lyon,69002,45 quai Rambaud,Rhône,fr,,04 72 69 08 20,http://communiquez.fr,"[[u'Social', u'Arts', u'Art Dealers and Galleries']]"
0,Galerie de la Charité,Lyon,69002,15 rue de la Charité,Rhône,fr,,04 78 37 69 89,http://www.galerie-charite.com/,"[[u'Social', u'Arts', u'Art Dealers and Galleries']]"
0,Galerie de l'Estampe,Lyon,69002,32 rue Auguste Comte,Rhône,fr,,04 78 37 88 26,http://www.galerie-de-lestampe.fr,"[[u'Social', u'Arts', u'Art Dealers and Galleries']]"
0,Au Passé Entreposé,Lyon,69002,41 rue des Remparts d'Ainay,Rhône,fr,,04 78 92 85 81,http://www.au-passe-entrepose.com,"[[u'Social', u'Arts', u'Art Dealers and Galleries']]"
0,Artis,Lyon,69002,54 rue Auguste Comte,Rhône,fr,,04 78 38 28 01,http://www.borome-sculptures.com,"[[u'Social', u'Arts', u'Art Dealers and Galleries']]"
0,Antic Dolls Toys,Lyon,69002,28 rue Auguste Comte,Rhône,fr,,04 78 42 91 51,http://www.antiquedollstoys.com,"[[u'Social', u'Arts', u'Art Dealers and Galleries']]"
0,Artclub,Lyon,69002,52 rue Auguste Comte,Rhône,fr,,04 72 41 89 15,http://www.designartclub.fr,"[[u'Social', u'Arts', u'Art Dealers and Galleries']]"
0,Yellow Korner,Lyon,69002,112 cours Charlemagne,Rhône,fr,,04 78 85 57 02,http://www.yellowkorner.com,"[[u'Social', u'Arts', u'Art Dealers and Galleries']]"
0,Antiquités Marilyn,Lyon,69002,55 rue Auguste Comte,Rhône,fr,,04 72 41 88 12,http://marilynexpertpoupees.pagesperso-orange.fr/index.html,"[[u'Social', u'Arts', u'Art Dealers and Galleries']]"
0,Antiquités G Vernay Chantrel,Lyon,69002,3 rue Auguste Comte,Rhône,fr,,04 78 42 87 55,http://www.antiquites-vernay-chantrel.fr,"[[u'Social', u'Arts', u'Art Dealers and Galleries']]"
0,Galerie Olivier Houg,Lyon,69002,45 quai Ramabaud,Rhône,fr,,04 78 42 98 50,http://www.olivierhoug.com,"[[u'Social', u'Arts', u'Art Dealers and Galleries']]"
0,Galerie 32,Lyon,69002,14 rue Auguste Comte,Rhône,fr,,04 78 42 25 42,http://www.galerie-32.fr,"[[u'Social', u'Arts', u'Art Dealers and Galleries']]"
0,Galerie Gilbert Riou,Lyon,69002,1 place d'Ainay,Rhône,fr,,06 74 17 13 32,http://www.galeriegilbertriou.fr,"[[u'Social', u'Arts', u'Art Dealers and Galleries']]"
0,Marceau Frederic,Lyon,69002,21 rue des Remparts d'Ainay,Rhône,fr,,04 78 42 99 57,http://www.marceauantiques.com,"[[u'Social', u'Arts', u'Art Dealers and Galleries']]"
0,Galerie d'art Michel Descours,Lyon,69002,44 rue Auguste Comte,Rhône,fr,,04 78 37 34 54,http://www.peintures-descours.fr,"[[u'Social', u'Arts', u'Art Dealers and Galleries']]"
0,Galerie Pascal Laguerre,Lyon,69002,50 rue Auguste Comte,Rhône,fr,,04 78 05 51 63,http://www.galerie-pascal-laguerre.fr,"[[u'Social', u'Arts', u'Art Dealers and Galleries']]"
0,Bertouy Didier,Lyon,69002,33 rue Franklin,Rhône,fr,,04 78 37 08 31,http://www.bertouy.chez.com,"[[u'Social', u'Arts', u'Art Dealers and Galleries']]"
0,Inky Dinky Tattoo Lyon,Lyon,69002,13 rue Vaubecour,Rhône,fr,,06 66 99 57 11,http://www.inky-tattoo.com/,"[[u'Social', u'Arts', u'Art Dealers and Galleries']]"
0,Galerie Henri Chartier,Lyon,69002,60 rue Denuzière,Rhône,fr,,09 64 20 54 83,http://www.henrichartier.com,"[[u'Social', u'Arts', u'Art Dealers and Galleries']]"
0,Art Sauf,Lyon,69002,9 11 rue Claudius Collonge,Rhône,fr,,04 78 38 37 88,http://www.debarras-artsauf.com,"[[u'Social', u'Arts', u'Art Dealers and Galleries']]"
0,Groupe 45,Lyon,69002,45 quai Rambaud,Rhône,fr,,04 72 69 08 20,http://communiquez.fr,"[[u'Social', u'Arts', u'Art Dealers and Galleries']]"
0,Galerie de l'Olympe,Lyon,69002,58 rue Auguste Comte,Rhône,fr,,04 78 37 25 62,http://www.galerie-olympe.com,"[[u'Social', u'Arts', u'Art Dealers and Galleries']]"
0,Francom Rp Plus,Lyon,69002,45 quai Rambaud,Rhône,fr,,04 72 69 08 20,http://communiquez.fr,"[[u'Social', u'Arts', u'Art Dealers and Galleries']]"
0,La Galerie VP,Lyon,69002,33 rue Auguste Comte,Rhône,fr,,09 67 49 95 61,http://laurencin.net,"[[u'Social', u'Arts', u'Art Dealers and Galleries']]"
0,Galerie Gregory Chesne,Lyon,69002,24 rue des Remparts d'Ainay,Rhône,fr,,04 78 42 20 26,http://www.gregorychesne.com,"[[u'Social', u'Arts', u'Art Dealers and Galleries']]"
0,Sylvie Platini,Lyon,69002,7 place des Célestins,Rhône,fr,,04 72 15 75 52,http://www.artmontblanc.com,"[[u'Social', u'Arts', u'Art Dealers and Galleries']]"
0,Febvre,Lyon,69002,25 rue Auguste Comte,Rhône,fr,,04 72 40 95 87,http://www.galeriegillesfebvre.com,"[[u'Social', u'Arts', u'Art Dealers and Galleries']]"
0,La Pharmacopée Antiquités,Lyon,69002,56 rue Auguste Comte,Rhône,fr,,04 72 56 04 05,,"[[u'Social', u'Arts', u'Art Dealers and Galleries']]"
0,Archaia,Lyon,69002,10 rue Auguste Comte,Rhône,fr,,04 78 92 93 91,,"[[u'Social', u'Arts', u'Art Dealers and Galleries']]"
0,La Cave aux Curiosités,Lyon,69002,27 place Bellecour,Rhône,fr,,04 78 37 77 05,,"[[u'Social', u'Arts', u'Art Dealers and Galleries']]"
0,Galerie de l'Impasse,Lyon,69002,4 Impasse Catelin,Rhône,fr,,04 72 41 77 02,,"[[u'Social', u'Arts', u'Art Dealers and Galleries']]"
0,Rousset Poirier,Lyon,69002,23 rue Auguste Comte,Rhône,fr,,04 72 41 03 67,,"[[u'Social', u'Arts', u'Art Dealers and Galleries']]"
0,Beltramelli Angeline,Lyon,69002,33 rue Jarente,Rhône,fr,,04 78 37 82 01,,"[[u'Social', u'Arts', u'Art Dealers and Galleries']]"
0,Ogier Jacques,Lyon,69002,3 rue Auguste Comte,Rhône,fr,,04 78 37 79 83,,"[[u'Social', u'Arts', u'Art Dealers and Galleries']]"
0,Prete Antoine,Lyon,69002,21 rue Ferrandière,Rhône,fr,,04 78 42 23 16,,"[[u'Social', u'Arts', u'Art Dealers and Galleries']]"
0,De Breda Aude,Lyon,69002,40 rue Auguste Comte,Rhône,fr,,04 78 38 24 59,,"[[u'Social', u'Arts', u'Art Dealers and Galleries']]"
0,Guillemin Pascal,Lyon,69002,25 rue Auguste Comte,Rhône,fr,,04 78 37 91 51,,"[[u'Social', u'Arts', u'Art Dealers and Galleries']]"
0,Hauser Walter,Lyon,69002,54 rue Auguste Comte,Rhône,fr,,04 78 37 56 86,,"[[u'Social', u'Arts', u'Art Dealers and Galleries']]"
0,Chalvin Yves,Lyon,69002,25 rue Auguste Comte,Rhône,fr,,04 78 38 21 46,,"[[u'Social', u'Arts', u'Art Dealers and Galleries']]"
0,Bernard Michel,Lyon,69002,1 place Antoine Vollon,Rhône,fr,,04 78 38 02 14,,"[[u'Social', u'Arts', u'Art Dealers and Galleries']]"
0,Jean Rey et Cie,Lyon,69002,23 rue Auguste Comte,Rhône,fr,,04 78 37 09 99,,"[[u'Social', u'Arts', u'Art Dealers and Galleries']]"
0,Galerie l'Amateur,Lyon,69002,20 rue des Remparts d'Ainay,Rhône,fr,,04 72 41 05 80,,"[[u'Social', u'Arts', u'Art Dealers and Galleries']]"
0,L'Eau Forte,Lyon,69002,7 rue Auguste Comte,Rhône,fr,,04 78 37 89 14,,"[[u'Social', u'Arts', u'Art Dealers and Galleries']]"
0,Blanc Annie,Lyon,69002,38 rue Franklin,Rhône,fr,,04 78 37 65 58,,"[[u'Social', u'Arts', u'Art Dealers and Galleries']]"
0,Galerie WM,Lyon,69002,29 rue Vaubecourt,Rhône,fr,,04 78 38 16 10,,"[[u'Social', u'Arts', u'Art Dealers and Galleries']]"
0,Nizeret Arnaud,Lyon,69002,7 rue de Condé,Rhône,fr,,06 09 40 83 61,,"[[u'Social', u'Arts', u'Art Dealers and Galleries']]"
0,Jacquet Gerard,Lyon,69002,60 rue Auguste Comte,Rhône,fr,,04 72 40 28 85,,"[[u'Social', u'Arts', u'Art Dealers and Galleries']]"
0,Agora,Lyon,69002,24 rue des Remparts d'Ainay,Rhône,fr,,04 78 38 21 49,,"[[u'Social', u'Arts', u'Art Dealers and Galleries']]"
0,Egregore,Lyon,69002,70 rue Auguste Comte,Rhône,fr,,04 72 40 29 73,,"[[u'Social', u'Arts', u'Art Dealers and Galleries']]"
0,De Cicco Antiquité,Lyon,69002,12 rue Auguste Comte,Rhône,fr,,04 78 92 88 76,,"[[u'Social', u'Arts', u'Art Dealers and Galleries']]"
0,Ci Service,Lyon,69002,4 Impasse Catelin,Rhône,fr,,04 78 53 36 36,,"[[u'Social', u'Arts', u'Art Dealers and Galleries']]"
0,London Market,Lyon,69002,49 rue Auguste Comte,Rhône,fr,,04 78 37 30 73,,"[[u'Social', u'Arts', u'Art Dealers and Galleries']]"
0,Art Up Déco,Lyon,69002,43 rue Auguste Comte,Rhône,fr,,04 78 42 88 93,,"[[u'Social', u'Arts', u'Art Dealers and Galleries']]"
0,Apostrophe,Lyon,69002,33 rue de la Charité,Rhône,fr,,06 12 91 79 08,,"[[u'Social', u'Arts', u'Art Dealers and Galleries']]"
0,Dhikeos Pierre,Lyon,69002,16 rue Sainte Helene,Rhône,fr,,04 78 37 66 43,,"[[u'Social', u'Arts', u'Art Dealers and Galleries']]"
0,Mathé Frédéric,Lyon,69002,29 rue de Jarente,Rhône,fr,,04 78 37 16 35,,"[[u'Social', u'Arts', u'Art Dealers and Galleries']]"
0,Galerie du Triangle,Lyon,69002,33 rue Auguste Comte,Rhône,fr,,04 78 42 73 37,,"[[u'Social', u'Arts', u'Art Dealers and Galleries']]"
0,Sophie Michel,Lyon,69002,33 rue de la Charité,Rhône,fr,,04 78 92 82 10,,"[[u'Social', u'Arts', u'Art Dealers and Galleries']]"
0,Slika,Lyon,69002,37 rue des Remparts d'Ainay,Rhône,fr,,04 78 62 92 90,,"[[u'Social', u'Arts', u'Art Dealers and Galleries']]"
0,Houg Contemporain,Lyon,69002,43 rue Auguste Comte,Rhône,fr,,04 78 42 98 50,,"[[u'Social', u'Arts', u'Art Dealers and Galleries']]"
0,Galerie Gilles Febvre,Lyon,69002,25 rue Auguste Comte,Rhône,fr,,04 72 40 95 87,,"[[u'Social', u'Arts', u'Art Dealers and Galleries']]"
0,Anima l,Lyon,69002,20 rue Remparts d'Ainay,Rhône,fr,,04 78 37 13 07,,"[[u'Social', u'Arts', u'Art Dealers and Galleries']]"
0,Aux 3 Aches,Lyon,69002,29 rue des Remparts d'Ainay,Rhône,fr,,04 78 42 54 70,,"[[u'Social', u'Arts', u'Art Dealers and Galleries']]"
0,A l'espace des Arts,Lyon,69002,10 quai Tilsitt,Rhône,fr,,04 78 92 95 40,,"[[u'Social', u'Arts', u'Art Dealers and Galleries']]"
0,Bils Christophe,Lyon,69002,24 rue des Remparts d'Ainay,Rhône,fr,,06 74 59 17 01,,"[[u'Social', u'Arts', u'Art Dealers and Galleries']]"
0,Galerie Verre et Bois,Lyon,69002,44 rue Sala,Rhône,fr,,,,"[[u'Social', u'Arts', u'Art Dealers and Galleries']]"
0,Galerie Saint Charles,Lyon,69002,17 rue des Remparts d'Ainay,Rhône,fr,,,,"[[u'Social', u'Arts', u'Art Dealers and Galleries']]"
0,Duparc Philippe,Lyon,69002,50 rue Sala,Rhône,fr,,09 51 08 70 69,,"[[u'Social', u'Arts', u'Art Dealers and Galleries']]"
0,Galerie Bellecour,Lyon,69002,11 rue Auguste Comte,Rhône,fr,,04 78 37 80 13,,"[[u'Social', u'Arts', u'Art Dealers and Galleries']]"
0,Galerie Nadir,Lyon,69002,41 rue Auguste Comte,Rhône,fr,,,,"[[u'Social', u'Arts', u'Art Dealers and Galleries']]"
0,Tubois Sarl Galerie Saint Luc,,69002,44 rue Franklin,Rhône,fr,,,,"[[u'Social', u'Arts', u'Art Dealers and Galleries']]"
0,Galerie Domi Nostrae,Lyon,69003,39 cours de la Liberté,Rhône,fr,,04 78 95 48 67,http://domi.nostrae.free.fr/,"[[u'Social', u'Arts', u'Art Dealers and Galleries']]"
0,Galerie Nuances et Lumiere,Lyon,69003,4 cours de la Liberté,Rhône,fr,,04 37 48 09 71,http://www.nuancesetlumiere.com/,"[[u'Social', u'Arts', u'Art Dealers and Galleries']]"
0,L'Afficheur,Lyon,69003,67 rue Etienne Richerand,Rhône,fr,,04 72 00 96 86,http://www.lafficheur.com,"[[u'Social', u'Arts', u'Art Dealers and Galleries']]"
0,Marion,Lyon,69003,23 cours de la Liberté,Rhône,fr,,04 78 60 23 64,,"[[u'Social', u'Arts', u'Art Dealers and Galleries']]"
0,Artae,Lyon,69003,11 rue Aimé Collomb,Rhône,fr,,04 78 38 31 57,,"[[u'Social', u'Arts', u'Art Dealers and Galleries']]"
0,Galerie Ories,Lyon,69003,11 rue Auguste Lacroix,Rhône,fr,,06 80 20 34 32,,"[[u'Social', u'Arts', u'Art Dealers and Galleries']]"
0,Arnaud Iracane,Lyon,69003,4 rue Paul Bert,Rhône,fr,,09 50 09 32 24,,"[[u'Social', u'Arts', u'Art Dealers and Galleries']]"
0,Brocant'el,Lyon,69003,47 rue du Dauphiné,Rhône,fr,,06 64 52 32 56,,"[[u'Social', u'Arts', u'Art Dealers and Galleries']]"
0,Galerie Jara,Lyon,69003,214 rue Garibaldi,Rhône,fr,,04 78 60 49 48,,"[[u'Social', u'Arts', u'Art Dealers and Galleries']]"
0,Galerie Vrais Rêves,Lyon,69004,6 rue Dumenge,Rhône,fr,,04 78 30 65 42,http://www.vraisreves.com,"[[u'Social', u'Arts', u'Art Dealers and Galleries']]"
0,I. U. F. M,Lyon,69004,5 rue Anselme,Rhône,fr,,04 72 07 30 30,http://iufm.univ-lyon1.fr/,"[[u'Social', u'Arts', u'Art Dealers and Galleries']]"
0,Antiquité le Manoir,Lyon,69004,1 rue Duviard,Rhône,fr,,06 61 85 06 47,http://www.antiquites-manoir.fr,"[[u'Social', u'Arts', u'Art Dealers and Galleries']]"
0,Deba et Rasse,Lyon,69004,114 rue Hénon,Rhône,fr,,04 72 07 34 96,,"[[u'Social', u'Arts', u'Art Dealers and Galleries']]"
0,Lollipop shop,Lyon,69004,37 rue Hénon,Rhône,fr,,06 87 80 30 54,,"[[u'Social', u'Arts', u'Art Dealers and Galleries']]"
0,Le Bleu du Ciel,Lyon,69004,10 Bis rue Cuire,Rhône,fr,,04 72 07 84 31,,"[[u'Social', u'Arts', u'Art Dealers and Galleries']]"
0,Peraudin Jean Michel,Lyon,69004,3 rue Perrod,Rhône,fr,,09 75 37 32 46,,"[[u'Social', u'Arts', u'Art Dealers and Galleries']]"
0,Artigone,Lyon,69005,13 rue Juiverie,Rhône,fr,,04 72 26 36 21,,"[[u'Social', u'Arts', u'Art Dealers and Galleries']]"
0,Galerie du Vieux Lyon,Lyon,69005,5 place du Gouvernement,Rhône,fr,,04 78 42 67 04,http://www.galerie-vieuxlyon.com/,"[[u'Social', u'Arts', u'Art Dealers and Galleries']]"
0,Riva Fabrice,Lyon,69005,6 place de la Baleine,Rhône,fr,,04 72 40 99 49,http://www.galerie-mazarini.fr/,"[[u'Social', u'Arts', u'Art Dealers and Galleries']]"
0,Atelier des Ombres,Lyon,69005,15 rue Saint Georges,Rhône,fr,,04 72 77 59 80,http://www.atelierdesombres.com,"[[u'Social', u'Arts', u'Art Dealers and Galleries']]"
0,Le Bois Debout,Lyon,69005,34 rue Saint Jean,Rhône,fr,,04 72 77 93 17,http://www.leboisdebout.com,"[[u'Social', u'Arts', u'Art Dealers and Galleries']]"
0,Galerie Brigit Langloy,Lyon,69005,1 rue des Estrées,Rhône,fr,,04 78 37 96 98,http://www.brigitlangloy.fr,"[[u'Social', u'Arts', u'Art Dealers and Galleries']]"
0,Berthet André,Lyon,69005,19 rue des Trois Maries,Rhône,fr,,04 78 92 81 74,,"[[u'Social', u'Arts', u'Art Dealers and Galleries']]"
0,Le Loft 4.40,Lyon,69005,4 rue de la Quarantaine,Rhône,fr,,06 09 48 50 27,http://www.loft4-40.fr,"[[u'Social', u'Arts', u'Art Dealers and Galleries']]"
0,Galrie Vis'Art,Lyon,69005,26 quai Romain Rolland,Rhône,fr,,09 83 28 38 10,http://vis-art.fr,"[[u'Social', u'Arts', u'Art Dealers and Galleries']]"
0,Atelier Moreau Aurelie,Lyon,69005,15 rue de la Juiverie,Rhône,fr,,04 72 07 82 28,http://www.amoreau.com,"[[u'Social', u'Arts', u'Art Dealers and Galleries']]"
0,Galerie Saint Paul,Lyon,69005,4 rue de la Lainerie,Rhône,fr,,04 78 27 38 11,,"[[u'Social', u'Arts', u'Art Dealers and Galleries']]"
0,Galerie Mazarini,Lyon,69005,6 place de la Baleine,Rhône,fr,,04 72 40 99 49,,"[[u'Social', u'Arts', u'Art Dealers and Galleries']]"
0,Claireye,Lyon,69005,27 rue du Bœuf,Rhône,fr,,04 78 38 23 69,,"[[u'Social', u'Arts', u'Art Dealers and Galleries']]"
0,Galerie le coeur au ventre,Lyon,69005,27 rue Tramassac,Rhône,fr,,06 86 10 36 70,,"[[u'Social', u'Arts', u'Art Dealers and Galleries']]"
0,Art Génération,Lyon,69005,7 quai Romain Rolland,Rhône,fr,,04 72 41 83 19,,"[[u'Social', u'Arts', u'Art Dealers and Galleries']]"
0,Galerie Vision d' Artiste,Lyon,69005,26 quai Romain Rolland,Rhône,fr,,09 53 72 31 73,http://visiondartiste.fr,"[[u'Social', u'Arts', u'Art Dealers and Galleries']]"
0,Addenda Galerie d'Art,Lyon,69005,24 rue du Boeuf,Rhône,fr,,04 78 42 50 18,,"[[u'Social', u'Arts', u'Art Dealers and Galleries']]"
0,Galerie Saint Georges,Lyon,69005,22 rue Saint Georges,Rhône,fr,,04 78 37 72 40,,"[[u'Social', u'Arts', u'Art Dealers and Galleries']]"
0,de Dart,Lyon,69005,11 rue des Trois Maries,Rhône,fr,,04 26 55 70 32,,"[[u'Social', u'Arts', u'Art Dealers and Galleries']]"
0,Jargic Stéphane à Lyon,Lyon,69005,8 rue Saint Jean,Rhône,fr,,09 54 17 89 82,,"[[u'Social', u'Arts', u'Art Dealers and Galleries']]"
0,Ranaldi Freschi Viviane,Lyon,69006,131 rue de Créqui,Rhône,fr,,06 07 90 73 30,http://www.galerie-ranaldi.fr,"[[u'Social', u'Arts', u'Art Dealers and Galleries']]"
0,Galerie des Brotteaux,Lyon,69006,30 boulevard des Brotteaux,Rhône,fr,,04 78 24 45 74,http://www.galeriedesbrotteaux.com/contact.php,"[[u'Social', u'Arts', u'Art Dealers and Galleries']]"
0,Bouchon d'Art,Lyon,69006,49 avenue Maréchal Foch,Rhône,fr,,06 19 89 62 75,http://bouchon-d-art.e-monsite.com/,"[[u'Social', u'Arts', u'Art Dealers and Galleries']]"
0,Galerie Saint Hubert,Lyon,69006,7 avenue du Général Brosset,Rhône,fr,,04 78 52 00 51,http://www.galerie-saint-hubert.com,"[[u'Social', u'Arts', u'Art Dealers and Galleries']]"
0,L'Authentique,Lyon,69006,57 rue de la Tete d'Or,Rhône,fr,,04 78 24 07 09,,"[[u'Social', u'Arts', u'Art Dealers and Galleries']]"
0,Seto Akio,Lyon,69006,50 rue de Sèze,Rhône,fr,,04 78 24 70 41,,"[[u'Social', u'Arts', u'Art Dealers and Galleries']]"
0,Antilope l',Lyon,69006,45 rue Ney,Rhône,fr,,04 78 42 50 61,,"[[u'Social', u'Arts', u'Art Dealers and Galleries']]"
0,Favre Daniel,Lyon,69006,39 cours Vitton,Rhône,fr,,04 78 89 52 51,,"[[u'Social', u'Arts', u'Art Dealers and Galleries']]"
0,Studio 5.56,Lyon,69006,112 rue de Sèze,Rhône,fr,,06 81 26 51 50,http://www.studio556.fr/,"[[u'Social', u'Arts', u'Art Dealers and Galleries']]"
0,Wallerand Béatrice,Lyon,69006,17 place du Maréchal Lyautey,Rhône,fr,,06 09 83 83 75,,"[[u'Social', u'Arts', u'Art Dealers and Galleries']]"
0,La Galerie du Parc,Lyon,69006,103 rue Bossuet,Rhône,fr,,04 72 74 48 26,,"[[u'Social', u'Arts', u'Art Dealers and Galleries']]"
0,Finas,Lyon,69006,45 rue Ney,Rhône,fr,,09 79 28 65 47,,"[[u'Social', u'Arts', u'Art Dealers and Galleries']]"
0,Duparc Philippe,Lyon,69006,10 boulevard Jules Favre,Rhône,fr,,09 51 08 70 69,,"[[u'Social', u'Arts', u'Art Dealers and Galleries']]"
0,Tanuki la Galerie,Lyon,69006,29 rue Cuvier,Rhône,fr,,04 72 83 51 99,,"[[u'Social', u'Arts', u'Art Dealers and Galleries']]"
0,Galerie Ooblik,Lyon,69006,3 rue Bossuet,Rhône,fr,,04 72 74 43 61,http://www.ooblik.com/,"[[u'Social', u'Arts', u'Art Dealers and Galleries']]"
0,Tseng Huan Chin,Lyon,69006,29 rue Cuvier,Rhône,fr,,09 54 08 88 88,,"[[u'Social', u'Arts', u'Art Dealers and Galleries']]"
0,Galerie Jean Charveriat,Lyon,69006,133 rue de Crequi,Rhône,fr,,04 78 52 63 16,,"[[u'Social', u'Arts', u'Art Dealers and Galleries']]"
0,La Nouvelle Echelle d'Or,Lyon,69006,124 rue de Sèze,Rhône,fr,,04 78 24 07 43,,"[[u'Social', u'Arts', u'Art Dealers and Galleries']]"
0,L'Antilope,Lyon,69006,45 rue Ney,Rhône,fr,,04 78 42 50 61,,"[[u'Social', u'Arts', u'Art Dealers and Galleries']]"
0,Kima art decoration,Lyon,69006,25 rue Professeur Weill,Rhône,fr,,06 16 51 38 25,,"[[u'Social', u'Arts', u'Art Dealers and Galleries']]"
0,Lepere Dominique Francois Gerard,Lyon,69006,21 rue Germain,Rhône,fr,,04 27 89 10 25,,"[[u'Social', u'Arts', u'Art Dealers and Galleries']]"
0,L'Oujopo,Lyon,69006,40 rue Viabert,Rhône,fr,,04 78 41 48 05,,"[[u'Social', u'Arts', u'Art Dealers and Galleries']]"
0,Pourrat Georges,Lyon,69006,283 cours Lafayette,Rhône,fr,,09 53 77 24 51,,"[[u'Social', u'Arts', u'Art Dealers and Galleries']]"
0,Kuality Street Gallery,Lyon,69007,121 Grande rue de la Guillotière,Rhône,fr,,09 51 46 59 00,http://www.rezine69.com/,"[[u'Social', u'Arts', u'Art Dealers and Galleries']]"
0,Loren,Lyon,69007,33 rue Pasteur,Rhône,fr,,04 37 28 51 27,http://www.art-horslesnormes.org/,"[[u'Social', u'Arts', u'Art Dealers and Galleries']]"
0,Hamadou Lamri,Lyon,69007,121 rue Sébastien Gryphe,Rhône,fr,,04 78 69 33 09,,"[[u'Social', u'Arts', u'Art Dealers and Galleries']]"
0,Galerie Roger Tator,Lyon,69007,36 rue d'Anvers,Rhône,fr,,04 78 58 83 12,http://www.rogertator.com,"[[u'Social', u'Arts', u'Art Dealers and Galleries']]"
0,Galerie la Rage,Lyon,69007,33 rue Pasteur,Rhône,fr,,09 50 32 81 00,http://larage.over-blog.net/,"[[u'Social', u'Arts', u'Art Dealers and Galleries']]"
0,Galerie le Point sur le i,Lyon,69007,220 Grande rue de la Guillotière,Rhône,fr,,04 72 71 53 53,http://www.lepointsurlei.com/,"[[u'Social', u'Arts', u'Art Dealers and Galleries']]"
0,Antiquités Crinoline,Lyon,69007,1 place Jules Guesde,Rhône,fr,,06 07 24 69 94,,"[[u'Social', u'Arts', u'Art Dealers and Galleries']]"
0,Singul'Art,Lyon,69007,3 rue Faidherbe,Rhône,fr,,04 78 39 12 65,http://singulart.over-blog.com,"[[u'Social', u'Arts', u'Art Dealers and Galleries']]"
0,Leleu Richard,Lyon,69007,50 rue de l'Université,Rhône,fr,,04 78 72 46 84,,"[[u'Social', u'Arts', u'Art Dealers and Galleries']]"
0,Teboul Darmon Cecile,Lyon,69008,33 rue des Tuiliers,Rhône,fr,,04 78 75 31 10,http://www.galeriedestuiliers.com/,"[[u'Social', u'Arts', u'Art Dealers and Galleries']]"
0,Galerie des Tuiliers,Lyon,69008,33 rue des Tuiliers,Rhône,fr,,04 72 78 18 68,http://www.galeriedestuiliers.com/,"[[u'Social', u'Arts', u'Art Dealers and Galleries']]"
0,Artcurial Lyon,Lyon,69008,2-4 rue Saint-Firmin,Rhône,fr,,04 78 00 86 65,http://www.rambert.fr/,"[[u'Social', u'Arts', u'Art Dealers and Galleries']]"
0,Lambertini Andre,Lyon,69008,74 rue du Professeur Ranvier,Rhône,fr,,06 09 44 13 93,,"[[u'Social', u'Arts', u'Art Dealers and Galleries']]"
0,Galerie Saint Firmin,Lyon,69008,2 rue Saint Firmin,Rhône,fr,,04 78 01 00 46,,"[[u'Social', u'Arts', u'Art Dealers and Galleries']]"
0,Galerie Gérard Chomarat,Lyon,69008,4 place Ambroise Courtois,Rhône,fr,,04 78 00 26 79,,"[[u'Social', u'Arts', u'Art Dealers and Galleries']]"
0,Sci Fero,Lyon,69008,33 rue des Tuiliers,Rhône,fr,,04 78 75 31 10,,"[[u'Social', u'Arts', u'Art Dealers and Galleries']]"
0,St'Art Up,Lyon,69009,5 place Henri Barbusse,Rhône,fr,,04 72 19 73 86,,"[[u'Social', u'Arts', u'Art Dealers and Galleries']]"
0,L'attrape Couleurs,Lyon,69009,5 place Henri Barbusse,Rhône,fr,,04 72 19 73 86,http://attrape-couleurs.com,"[[u'Social', u'Arts', u'Art Dealers and Galleries']]"
0,Armée du Salut,Villeurbanne,69100,93 cours Tolstoï,Rhône,fr,,04 78 68 03 25,http://armeedusalut.fr,"[[u'Social', u'Arts', u'Art Dealers and Galleries']]"
0,L'Estanco,Villeurbanne,69100,74 rue Château Gaillard,Rhône,fr,,06 09 46 38 71,http://www.antiquites-brocante-lestanco.fr,"[[u'Social', u'Arts', u'Art Dealers and Galleries']]"
0,Antiquité Baudry,Villeurbanne,69100,117 boulevard Stalingrad,Rhône,fr,,04 78 45 18 52,http://www.reves-d-ispahan.com,"[[u'Social', u'Arts', u'Art Dealers and Galleries']]"
0,Clerc Cyrille,Villeurbanne,69100,10 rue Marteret,Rhône,fr,,06 20 37 60 99,,"[[u'Social', u'Arts', u'Art Dealers and Galleries']]"
0,Le Gaga Vintage,Villeurbanne,69100,1 rue du Canal,Rhône,fr,,04 78 80 34 48,,"[[u'Social', u'Arts', u'Art Dealers and Galleries']]"
0,Le Soleil Rouge,Villeurbanne,69100,117 boulevard de Stalingrad,Rhône,fr,,04 72 44 95 44,,"[[u'Social', u'Arts', u'Art Dealers and Galleries']]"
0,Franc Isabelle,Villeurbanne,69100,117 boulevard de Stalingrad,Rhône,fr,,04 72 44 98 91,,"[[u'Social', u'Arts', u'Art Dealers and Galleries']]"
0,Gaillard Julien,Villeurbanne,69100,72 avenue Roger Salengro,Rhône,fr,,06 07 21 26 16,,"[[u'Social', u'Arts', u'Art Dealers and Galleries']]"
0,Aux Trois Clés,Villeurbanne,69100,117 boulevard Stalingrad,Rhône,fr,,04 72 44 22 02,,"[[u'Social', u'Arts', u'Art Dealers and Galleries']]"
0,O'donnell John,Villeurbanne,69100,61 rue Lucette et René Desgrand,Rhône,fr,,04 78 94 12 45,,"[[u'Social', u'Arts', u'Art Dealers and Galleries']]"
0,Reure Dominique,Villeurbanne,69100,117 boulevard de Stalingrad,Rhône,fr,,04 78 89 13 05,,"[[u'Social', u'Arts', u'Art Dealers and Galleries']]"
0,Armée du Salut,Villeurbanne,69100,98 rue Hippolyte Kahn,Rhône,fr,,04 78 03 90 20,,"[[u'Social', u'Arts', u'Art Dealers and Galleries']]"
0,Cote Philippe,Villeurbanne,69100,10 rue Marteret,Rhône,fr,,04 72 44 04 55,http://www.cote-antiques.com,"[[u'Social', u'Arts', u'Art Dealers and Galleries']]"
0,Adelphi,Villeurbanne,69100,117 boulevard Stalingrad,Rhône,fr,,06 20 16 29 78,,"[[u'Social', u'Arts', u'Art Dealers and Galleries']]"
0,Ereca,Villeurbanne,69100,72 avenue Roger Salengro,Rhône,fr,,06 08 21 16 37,,"[[u'Social', u'Arts', u'Art Dealers and Galleries']]"
0,Renna Carmine,Villeurbanne,69100,1 rue du Canal,Rhône,fr,,06 27 17 12 66,,"[[u'Social', u'Arts', u'Art Dealers and Galleries']]"
0,Pentecoste Daniel,Villeurbanne,69100,117 boulevard de Stalingrad,Rhône,fr,,04 78 89 84 19,,"[[u'Social', u'Arts', u'Art Dealers and Galleries']]"
0,Atelier Bois'Arts,Villeurbanne,69100,20 bis rue René Prolongée,Rhône,fr,,04 78 84 25 62,,"[[u'Social', u'Arts', u'Art Dealers and Galleries']]"
0,Lacombe Marie-Louise,Villeurbanne,69100,14 rue du Docteur Rollet,Rhône,fr,,04 78 84 53 17,,"[[u'Social', u'Arts', u'Art Dealers and Galleries']]"
0,Ughetto Henry,Villeurbanne,69100,117 boulevard Stalingrad,Rhône,fr,,04 72 43 00 36,,"[[u'Social', u'Arts', u'Art Dealers and Galleries']]"
0,Philippe Cote Antiquités,Villeurbanne,69100,117 boulevard Stalingrad,Rhône,fr,,04 72 44 24 35,,"[[u'Social', u'Arts', u'Art Dealers and Galleries']]"
0,Alph'Art,Villeurbanne,69100,117 boulevard Stalingrad,Rhône,fr,,06 13 68 83 66,,"[[u'Social', u'Arts', u'Art Dealers and Galleries']]"
0,Galerie Georges Verney-Carron,Villeurbanne,69100,99 cours Emile Zola,Rhône,fr,,04 72 69 07 87,,"[[u'Social', u'Arts', u'Art Dealers and Galleries']]"
0,Reure Dominique,Sainte Foy Lès Lyon,69110,31 rue du Vingtain,Rhône,fr,,04 78 59 47 98,,"[[u'Social', u'Arts', u'Art Dealers and Galleries']]"
0,Antiquités Lyonnaises,Vaulx en Velin,69120,58 rue Jean Foucaud,Rhône,fr,,06 85 40 00 92,,"[[u'Social', u'Arts', u'Art Dealers and Galleries']]"
0,Rondhani Zorha,Vaulx en Velin,69120,12 rue Louis Varignier,Rhône,fr,,04 72 46 01 56,,"[[u'Social', u'Arts', u'Art Dealers and Galleries']]"
0,Bouley Roger,Vaulx en Velin,69120,18 rue Jean Jaurès,Rhône,fr,,04 78 80 90 48,,"[[u'Social', u'Arts', u'Art Dealers and Galleries']]"
0,Le Toboggan Centre Culturel,Décines Charpieu,69150,14 avenue Jean Macé,Rhône,fr,,04 72 93 30 00,http://www.letoboggan.com,"[[u'Social', u'Arts', u'Art Dealers and Galleries']]"
0,Happy Days,Décines Charpieu,69150,63 rue Paul et Marc Barbezat,Rhône,fr,,04 78 54 82 38,http://www.happy-days-lyon.com,"[[u'Social', u'Arts', u'Art Dealers and Galleries']]"
0,Chris'Broc,L'Arbresle,69210,332 route de Sain-Bel,Rhône,fr,,04 74 26 90 97,http://www.chrisbroc.com,"[[u'Social', u'Arts', u'Art Dealers and Galleries']]"
0,Patrick Services,Bully,69210,chemin le Grand Laval,Rhône,fr,,06 15 32 81 91,http://patrick-services-debarras.fr,"[[u'Social', u'Arts', u'Art Dealers and Galleries']]"
0,Poncet Bernard,L'Arbresle,69210,3 rue Anne Franck,Rhône,fr,,06 33 08 46 52,,"[[u'Social', u'Arts', u'Art Dealers and Galleries']]"
0,L'Ere du Temps,L'Arbresle,69210,24 rue Paris,Rhône,fr,,06 24 25 13 14,,"[[u'Social', u'Arts', u'Art Dealers and Galleries']]"
0,Art Multiple Décoration,Belleville,69220,147 rue de la République,Rhône,fr,,04 74 66 74 16,,"[[u'Social', u'Arts', u'Art Dealers and Galleries']]"
0,Garcia José,Saint Genis Laval,69230,chemin des Fouillouses,Rhône,fr,,06 81 28 36 40,,"[[u'Social', u'Arts', u'Art Dealers and Galleries']]"
0,Renna Nino Gaetan,Saint Genis Laval,69230,83 rue des Sources,Rhône,fr,,04 78 51 62 51,,"[[u'Social', u'Arts', u'Art Dealers and Galleries']]"
0,Thevenoux Virginie,Pont Trambouze,69240,Lieu-Dit Lieutenant Haut,Rhône,fr,,04 74 64 07 52,,"[[u'Social', u'Arts', u'Art Dealers and Galleries']]"
0,Pernet Mugnier Christiane,Bourg de Thizy,69240,Clair Matin,Rhône,fr,,04 74 64 44 53,,"[[u'Social', u'Arts', u'Art Dealers and Galleries']]"
0,Benharbon Paul,Saint Genis les Ollières,69290,38 avenue Marcel Mérieux,Rhône,fr,,04 78 44 85 01,,"[[u'Social', u'Arts', u'Art Dealers and Galleries']]"
0,Passé Composé Décapage,Craponne,69290,120 avenue Pierre Dumond,Rhône,fr,,04 78 44 89 56,,"[[u'Social', u'Arts', u'Art Dealers and Galleries']]"
0,Galerie Ateliers d'Art les Nabis,Caluire et Cuire,69300,8 cours Aristide Briand,Rhône,fr,,04 78 08 21 07,http://www.cours-dessin-peinture-lyon.com,"[[u'Social', u'Arts', u'Art Dealers and Galleries']]"
0,Le Passe du Futur,Caluire et Cuire,69300,5 avenue Pierre Terrasse,Rhône,fr,,06 07 19 03 83,,"[[u'Social', u'Arts', u'Art Dealers and Galleries']]"
0,Mekhnache Abderrahim,Caluire et Cuire,69300,4 rue de l'Orangerie,Rhône,fr,,06 09 40 65 49,,"[[u'Social', u'Arts', u'Art Dealers and Galleries']]"
0,2 R Antiquités,Caluire et Cuire,69300,19 chemin de Boutary,Rhône,fr,,04 78 08 08 87,,"[[u'Social', u'Arts', u'Art Dealers and Galleries']]"
0,Guinot Philippe,Jons,69330,3 chemin de Chantenoy,Rhône,fr,,04 78 31 16 79,,"[[u'Social', u'Arts', u'Art Dealers and Galleries']]"
0,Bernard Alain,Meyzieu,69330,1 rue du Chateau d'Eau,Rhône,fr,,04 78 31 51 26,,"[[u'Social', u'Arts', u'Art Dealers and Galleries']]"
0,Le Grenier Beaujolais,Lissieu,69380,5 route de Limonest,Rhône,fr,,04 37 50 36 85,http://www.materiaux-anciens-lissieu.fr,"[[u'Social', u'Arts', u'Art Dealers and Galleries']]"
0,Girier Antiquités,Dommartin,69380,565 route Nationale 6,Rhône,fr,,04 78 47 37 08,http://www.antiquites-girier.com/,"[[u'Social', u'Arts', u'Art Dealers and Galleries']]"
0,Tendance Broc,Lozanne,69380,5 Impasse des Cerisiers,Rhône,fr,,04 72 54 60 96,http://www.debarras-lozanne.fr,"[[u'Social', u'Arts', u'Art Dealers and Galleries']]"
0,Galerie Kungka,Charnay,69380,Bel Air du Haut,Rhône,fr,,06 37 72 53 48,,"[[u'Social', u'Arts', u'Art Dealers and Galleries']]"
0,Antic Deco,Lozanne,69380,25 place Gare,Rhône,fr,,09 61 44 53 82,,"[[u'Social', u'Arts', u'Art Dealers and Galleries']]"
0,Joe Delamar,Lissieu,69380,5 route Limonest,Rhône,fr,,09 62 13 62 51,,"[[u'Social', u'Arts', u'Art Dealers and Galleries']]"
0,Le Temps Passé,Villefranche sur Saône,69400,234 rue de Belleville,Rhône,fr,,04 74 68 08 96,,"[[u'Social', u'Arts', u'Art Dealers and Galleries']]"
0,Jeunink Brigitte,Gleizé,69400,2 rue des Catalpas,Rhône,fr,,04 74 68 37 83,,"[[u'Social', u'Arts', u'Art Dealers and Galleries']]"
0,Fees Maison,Gleizé,69400,Dubuisson Albane 856 route Tarare,Rhône,fr,,06 75 04 68 24,,"[[u'Social', u'Arts', u'Art Dealers and Galleries']]"
0,Arcourt Patrick,Villefranche sur Saône,69400,146 rue Dechavanne,Rhône,fr,,06 07 51 41 70,,"[[u'Social', u'Arts', u'Art Dealers and Galleries']]"
0,Vallon Pierre,Ampuis,69420,2 rue du Garat,Rhône,fr,,04 74 56 14 32,,"[[u'Social', u'Arts', u'Art Dealers and Galleries']]"
0,La Grange Moulin,Les Ardillats,69430,les Ardillats,Rhône,fr,,04 74 04 88 95,,"[[u'Social', u'Arts', u'Art Dealers and Galleries']]"
0,Lafond Bernard,Marchampt,69430,Riviere,Rhône,fr,,04 74 03 25 56,,"[[u'Social', u'Arts', u'Art Dealers and Galleries']]"
0,Petitjean Joel,Mornant,69440,2 allée des Pinsons,Rhône,fr,,06 19 41 72 98,,"[[u'Social', u'Arts', u'Art Dealers and Galleries']]"
0,Au Coeur du Temps,Sainte Catherine,69440,la Charonnière,Rhône,fr,,06 03 54 04 48,,"[[u'Social', u'Arts', u'Art Dealers and Galleries']]"
0,Tout Un Art,Saint Cyr au Mont D'or,69450,8 avenue Victor Hugo,Rhône,fr,,04 78 83 09 25,,"[[u'Social', u'Arts', u'Art Dealers and Galleries']]"
0,Chaffal Roger,Morancé,69480,1 chemin de Fontjards,Rhône,fr,,04 78 43 64 60,,"[[u'Social', u'Arts', u'Art Dealers and Galleries']]"
0,Ricklin,Saint Forgeux,69490,Napoly,Rhône,fr,,04 74 05 95 72,,"[[u'Social', u'Arts', u'Art Dealers and Galleries']]"
0,Caccamo Bertrand,Brignais,69530,32 chemin de la Rivière,Rhône,fr,,04 72 31 67 87,,"[[u'Social', u'Arts', u'Art Dealers and Galleries']]"
0,Russo Pascal,Dardilly,69570,8 chemin de Pierre Blanche,Rhône,fr,,04 78 64 98 80,,"[[u'Social', u'Arts', u'Art Dealers and Galleries']]"
0,Troc d'or,Dardilly,69570,56 Rn6,Rhône,fr,,04 74 72 85 70,,"[[u'Social', u'Arts', u'Art Dealers and Galleries']]"
0,Oelschlager Evelyne,Saint Symphorien sur Coise,69590,58 montée Ferrachat,Rhône,fr,,04 78 48 41 63,,"[[u'Social', u'Arts', u'Art Dealers and Galleries']]"
0,Oullins Ou l'Autre,Oullins,69600,,Rhône,fr,,06 07 24 69 85,,"[[u'Social', u'Arts', u'Art Dealers and Galleries']]"
0,j.j DEGOTTEX Histoire de maisosns,Légny,69620,Varina,Rhône,fr,,04 78 47 78 64,,"[[u'Social', u'Arts', u'Art Dealers and Galleries']]"
0,Dumas André à Saint-Laurent-d'Oingt,Saint Laurent d'Oingt,69620,181 E le Vernier,Rhône,fr,,04 74 71 21 89,,"[[u'Social', u'Arts', u'Art Dealers and Galleries']]"
0,J.J Degottex,Saint Vérand,69620,44 lieu-dit Aucherand,Rhône,fr,,04 74 71 85 92,,"[[u'Social', u'Arts', u'Art Dealers and Galleries']]"
0,Lejeune Didier à Givors,Givors,69700,52 rue Jean Ligonnet,Rhône,fr,,06 08 88 28 56,,"[[u'Social', u'Arts', u'Art Dealers and Galleries']]"
0,Abalone,Chambost Longessaigne,69770,les Gorges,Rhône,fr,,04 37 64 69 18,,"[[u'Social', u'Arts', u'Art Dealers and Galleries']]"
0,Brocante Mi-Plaine,Saint Priest,69800,112 rue Ambroise Paré,Rhône,fr,,04 78 90 59 70,,"[[u'Social', u'Arts', u'Art Dealers and Galleries']]"
0,Galerie de Lans,Chambéry,73000,3 rue de Lans,Savoie,fr,,04 79 85 68 43,http://galerie-de-lans.com,"[[u'Social', u'Arts', u'Art Dealers and Galleries']]"
0,Espace Larith,Chambéry,73000,39-40 rue du Larith,Savoie,fr,,04 79 70 42 67,http://www.larith.org,"[[u'Social', u'Arts', u'Art Dealers and Galleries']]"
0,La Brocante du Faubourg,Chambéry,73000,65 rue Fodéré,Savoie,fr,,04 79 33 42 25,,"[[u'Social', u'Arts', u'Art Dealers and Galleries']]"
0,Vatin Perignon Francois Jacques,Montagnole,73000,les Meuniers,Savoie,fr,,04 79 69 91 85,,"[[u'Social', u'Arts', u'Art Dealers and Galleries']]"
0,Boidet Philippe,Chambéry,73000,Carré Curial,Savoie,fr,,04 79 85 48 87,,"[[u'Social', u'Arts', u'Art Dealers and Galleries']]"
0,Perrin Josiane,Aix les Bains,73100,2 avenue Victoria,Savoie,fr,,04 79 35 15 64,,"[[u'Social', u'Arts', u'Art Dealers and Galleries']]"
0,Antiquités Saint Simond,Aix les Bains,73100,48 avenue de Saint-Simond,Savoie,fr,,04 79 88 85 24,,"[[u'Social', u'Arts', u'Art Dealers and Galleries']]"
0,Barbaux Jean Pierre,Aix les Bains,73100,4 rue des Goelands,Savoie,fr,,04 79 61 24 25,,"[[u'Social', u'Arts', u'Art Dealers and Galleries']]"
0,Antiquités Brocante Au Grenier Savoyard,Aix les Bains,73100,6 Passage Pierpont Morgan,Savoie,fr,,04 79 35 05 22,,"[[u'Social', u'Arts', u'Art Dealers and Galleries']]"
0,Amis Galerie d'Art Bagatelle,Aix les Bains,73100,10 rue Georges 1 Er,Savoie,fr,,04 79 34 91 68,,"[[u'Social', u'Arts', u'Art Dealers and Galleries']]"
0,Galerie Bartoux Galerie de l'Alpage Ii Membre,,73120,Espace Diamant Imm Grandes Alpes,Savoie,fr,,04 79 01 00 10,http://www.galeries-bartoux.com/fr/galeries/courchevel-1850/galerie-de-l-alpage-ii.html,"[[u'Social', u'Arts', u'Art Dealers and Galleries']]"
0,Le Grenier de Valentine,Saint Bon Tarentaise,73120,rue des Verdons,Savoie,fr,,04 79 00 24 98,,"[[u'Social', u'Arts', u'Art Dealers and Galleries']]"
0,Galerie Daniel Besseiche,Saint Bon Tarentaise,73120,Espace Diamant Imm Grandes Alpes,Savoie,fr,,04 79 08 39 83,,"[[u'Social', u'Arts', u'Art Dealers and Galleries']]"
0,Galerie daniel besseiche,Saint bon Tarentaise,73120,Immeuble la Croisette,Savoie,fr,,04 79 08 39 44,,"[[u'Social', u'Arts', u'Art Dealers and Galleries']]"
0,Maurienne Antiquités,La Chambre,73130,539 Grande rue,Savoie,fr,,06 80 02 44 23,,"[[u'Social', u'Arts', u'Art Dealers and Galleries']]"
0,Gal Daniel Besseiche,,73150,Lys Martagnon,Savoie,fr,,04 79 06 64 90,,"[[u'Social', u'Arts', u'Art Dealers and Galleries']]"
0,Berthaud Christophe,Challes les Eaux,73190,156 rue du Grand Barberaz,Savoie,fr,,06 13 40 70 59,,"[[u'Social', u'Arts', u'Art Dealers and Galleries']]"
0,Persault Michel,Albertville,73200,2 avenue de Tarentaise,Savoie,fr,,04 79 37 40 91,,"[[u'Social', u'Arts', u'Art Dealers and Galleries']]"
0,Vautrelle et Francony,Saint Genix sur Guiers,73240,route de Yenne,Savoie,fr,,04 76 32 50 49,,"[[u'Social', u'Arts', u'Art Dealers and Galleries']]"
0,Picton Nicolas,Saint Jean de Maurienne,73300,rue des Rippes,Savoie,fr,,06 07 75 95 49,,"[[u'Social', u'Arts', u'Art Dealers and Galleries']]"
0,Bedogni Didier,Chindrieux,73310,3041 route Aix,Savoie,fr,,04 79 52 05 66,,"[[u'Social', u'Arts', u'Art Dealers and Galleries']]"
0,Antiquité Au Passé Simple à Albens,Albens,73410,Orly,Savoie,fr,,04 79 88 94 81,,"[[u'Social', u'Arts', u'Art Dealers and Galleries']]"
0,Guyot Thierry,Notre Dame du Pré,73600,,Savoie,fr,,04 79 24 31 60,,"[[u'Social', u'Arts', u'Art Dealers and Galleries']]"
0,Weber Roberte Jacqueline,Moûtiers,73600,40 Square Liberte,Savoie,fr,,04 79 24 17 85,,"[[u'Social', u'Arts', u'Art Dealers and Galleries']]"
0,Antiquités Saint Martin,Bourg Saint Maurice,73700,la Côte,Savoie,fr,,06 18 39 10 44,,"[[u'Social', u'Arts', u'Art Dealers and Galleries']]"
0,Le Chalet d'Alice,Séez,73700,21 rue Celestin Freppaz,Savoie,fr,,06 08 99 93 96,,"[[u'Social', u'Arts', u'Art Dealers and Galleries']]"
0,Zurcher Joseph,Montmélian,73800,12 quai de l'Isère,Savoie,fr,,06 85 40 92 89,http://www.antiquite.fr.st/,"[[u'Social', u'Arts', u'Art Dealers and Galleries']]"
0,Meyer Jacqueline,Les Marches,73800,les Abymes route Lac,Savoie,fr,,06 87 48 40 75,,"[[u'Social', u'Arts', u'Art Dealers and Galleries']]"
0,Leclere Pascal,Coise Saint Jean Pied Gauthier,73800,Coise,Savoie,fr,,04 79 62 70 43,,"[[u'Social', u'Arts', u'Art Dealers and Galleries']]"
0,Galerie d'Art Perbet,Annecy,74000,20 rue Perrière,Haute-Savoie,fr,,04 50 45 78 42,http://www.galerie-perbet.com,"[[u'Social', u'Arts', u'Art Dealers and Galleries']]"
0,Au Dela des Apparences,Annecy,74000,15 rue Filaterie,Haute-Savoie,fr,,04 50 52 94 34,http://www.galerie-audeladesapparences.com,"[[u'Social', u'Arts', u'Art Dealers and Galleries']]"
0,Chantal Melanson,Annecy,74000,10 Passage de la Cathédrale,Haute-Savoie,fr,,04 50 45 22 78,http://www.art-chantal-melanson.com,"[[u'Social', u'Arts', u'Art Dealers and Galleries']]"
0,Galerie Valparaiso,Annecy,74000,1 rue Camille Dunant,Haute-Savoie,fr,,04 50 02 45 66,http://www.galerie-valpariso-annecy.com,"[[u'Social', u'Arts', u'Art Dealers and Galleries']]"
0,L'An 1920,Annecy,74000,6 bis Passage de la Cathédrale,Haute-Savoie,fr,,04 50 51 46 20,,"[[u'Social', u'Arts', u'Art Dealers and Galleries']]"
0,Arcad,Annecy,74000,15 rue de la Paix,Haute-Savoie,fr,,04 50 45 25 63,,"[[u'Social', u'Arts', u'Art Dealers and Galleries']]"
0,Bruce Antiquit s,Annecy,74000,2 rue Jean Jaurès,Haute-Savoie,fr,,06 83 83 23 01,,"[[u'Social', u'Arts', u'Art Dealers and Galleries']]"
0,Antiquité Niederhoffer,Annecy,74000,rue Jean Jaurès,Haute-Savoie,fr,,06 07 48 94 59,,"[[u'Social', u'Arts', u'Art Dealers and Galleries']]"
0,Beauquis Philippe,Annecy,74000,16 Faubourg Sainte-Claire,Haute-Savoie,fr,,06 60 65 80 55,,"[[u'Social', u'Arts', u'Art Dealers and Galleries']]"
0,Un Autre Monde,Annecy,74000,1 rue Saint-Dominique,Haute-Savoie,fr,,06 32 03 72 14,,"[[u'Social', u'Arts', u'Art Dealers and Galleries']]"
0,Bouveron Raphael,Annecy,74000,2 avenue de Chevenes,Haute-Savoie,fr,,04 50 45 32 65,,"[[u'Social', u'Arts', u'Art Dealers and Galleries']]"
0,Labigne Jean-Claude,Annecy,74000,6 Passage de la Cathédrale,Haute-Savoie,fr,,04 50 51 91 10,,"[[u'Social', u'Arts', u'Art Dealers and Galleries']]"
0,Antiques et Puces,Annecy,74000,8 Faubourg des Annonciades,Haute-Savoie,fr,,04 50 51 44 39,,"[[u'Social', u'Arts', u'Art Dealers and Galleries']]"
0,Chambre Claire,Annecy,74000,34 avenue de Loverchy,Haute-Savoie,fr,,04 50 33 02 53,,"[[u'Social', u'Arts', u'Art Dealers and Galleries']]"
0,Galerie Bagnorea,Annecy,74000,11 Faubourg des Annonciades,Haute-Savoie,fr,,04 50 52 72 17,,"[[u'Social', u'Arts', u'Art Dealers and Galleries']]"
0,Galerie Chabanian,Annecy,74000,18 rue de la Paix,Haute-Savoie,fr,,04 50 51 67 61,,"[[u'Social', u'Arts', u'Art Dealers and Galleries']]"
0,Galerie d'Art Chabanian,Annecy,74000,24 place Sainte Claire,Haute-Savoie,fr,,04 50 51 67 28,,"[[u'Social', u'Arts', u'Art Dealers and Galleries']]"
0,Galerie Atelier Couleur Bonheur à Annecy,Annecy,74000,5 Faubourg Sainte Claire,Haute-Savoie,fr,,04 50 09 76 25,,"[[u'Social', u'Arts', u'Art Dealers and Galleries']]"
0,Galerie Fardel Demanie,Annecy,74000,9 rue Royale,Haute-Savoie,fr,,04 50 45 73 38,,"[[u'Social', u'Arts', u'Art Dealers and Galleries']]"
0,Brocante de l'Eveche,Annecy,74000,8 quai de l'Eveche,Haute-Savoie,fr,,06 13 79 45 73,,"[[u'Social', u'Arts', u'Art Dealers and Galleries']]"
0,Galerie Chabanian le Baron,Annecy,74000,20 rue Perriere,Haute-Savoie,fr,,04 50 45 78 09,,"[[u'Social', u'Arts', u'Art Dealers and Galleries']]"
0,Galerie Nadir,Annecy,74000,15 rue Filaterie,Haute-Savoie,fr,,04 50 45 20 27,,"[[u'Social', u'Arts', u'Art Dealers and Galleries']]"
0,Art sur Cour,Annecy,74000,18 rue Sainte Claire,Haute-Savoie,fr,,04 50 52 85 76,,"[[u'Social', u'Arts', u'Art Dealers and Galleries']]"
0,galerie d'art à Annecy,Annecy,74000,8 Faubourg des Annonciades,Haute-Savoie,fr,,06 03 17 02 29,,"[[u'Social', u'Arts', u'Art Dealers and Galleries']]"
0,Alp chic à Annecy,Annecy,74000,11 rue de la Préfecture,Haute-Savoie,fr,,04 50 32 60 31,,"[[u'Social', u'Arts', u'Art Dealers and Galleries']]"
0,Buttin Philippe,Annecy,74000,2 Passage de la Cathédrale,Haute-Savoie,fr,,04 50 51 44 36,,"[[u'Social', u'Arts', u'Art Dealers and Galleries']]"
0,Actuel Dessin,Annemasse,74100,1 rue du Chablais,Haute-Savoie,fr,,04 50 37 24 01,http://www.actueldessin-encadrement.com,"[[u'Social', u'Arts', u'Art Dealers and Galleries']]"
0,Villa du Parc,Annemasse,74100,12 rue de Genève,Haute-Savoie,fr,,04 50 38 84 61,,"[[u'Social', u'Arts', u'Art Dealers and Galleries']]"
0,Decorah,Ambilly,74100,56 rue du Jura,Haute-Savoie,fr,,04 50 38 27 92,,"[[u'Social', u'Arts', u'Art Dealers and Galleries']]"
0,Cadréart,Annemasse,74100,1 rue du Chablais,Haute-Savoie,fr,,04 50 37 24 01,http://www.cadre-et-art.com,"[[u'Social', u'Arts', u'Art Dealers and Galleries']]"
0,Galerie les Petits Papiers d'Alice,Morzine,74110,82 route de la Combe à Zore,Haute-Savoie,fr,,06 84 18 61 07,http://www.lespetitspapiersdalice.fr,"[[u'Social', u'Arts', u'Art Dealers and Galleries']]"
0,Passaquin Alice,Morzine,74110,82 route de la Combe à Zore,Haute-Savoie,fr,,04 50 38 45 56,,"[[u'Social', u'Arts', u'Art Dealers and Galleries']]"
0,Galerie Temps des Arts,Praz sur Arly,74120,16 route de Megève,Haute-Savoie,fr,,04 50 54 74 85,http://www.temps-des-arts.com,"[[u'Social', u'Arts', u'Art Dealers and Galleries']]"
0,Galeries Bartoux,Megève,74120,53 rue Monseigneur Conseil,Haute-Savoie,fr,,04 50 21 27 33,http://www.galeries-bartoux.com,"[[u'Social', u'Arts', u'Art Dealers and Galleries']]"
0,Galerie d'Art Christian Dazy,Megève,74120,8 rue Ambroise Martin,Haute-Savoie,fr,,04 50 21 47 92,,"[[u'Social', u'Arts', u'Art Dealers and Galleries']]"
0,Galeries Bartoux Galerie de l'Alpage I,Megève,74120,53 rue Monseigneur Conseil,Haute-Savoie,fr,,04 50 21 27 33,http://www.galeries-bartoux.com,"[[u'Social', u'Arts', u'Art Dealers and Galleries']]"
0,Galerie d'Art Perbet,Megève,74120,56 rue Charles Feige,Haute-Savoie,fr,,04 50 91 93 26,http://www.galerie-perbet.com,"[[u'Social', u'Arts', u'Art Dealers and Galleries']]"
0,Galerie May,Megève,74120,22 rue Saint François de Sales,Haute-Savoie,fr,,04 50 21 46 34,,"[[u'Social', u'Arts', u'Art Dealers and Galleries']]"
0,Antiquites Navarro,Megève,74120,2142 route Nationale,Haute-Savoie,fr,,04 50 58 98 38,,"[[u'Social', u'Arts', u'Art Dealers and Galleries']]"
0,Union Mediterraneenne d'Art Contemporain Megeve,Megève,74120,53 rue Monseigneur Conseil,Haute-Savoie,fr,,04 50 21 27 33,,"[[u'Social', u'Arts', u'Art Dealers and Galleries']]"
0,Galerie Temps des Arts,Megève,74120,220 rue de la Poste,Haute-Savoie,fr,,04 50 54 74 85,,"[[u'Social', u'Arts', u'Art Dealers and Galleries']]"
0,Umac,Megève,74120,53 rue Monseigneur Conseil,Haute-Savoie,fr,,09 60 49 16 14,,"[[u'Social', u'Arts', u'Art Dealers and Galleries']]"
0,Galerie Saint Martin,Megève,74120,12 route de Rochebrune,Haute-Savoie,fr,,04 50 78 35 82,,"[[u'Social', u'Arts', u'Art Dealers and Galleries']]"
0,Raymond Galerie 56,Megève,74120,56 rue Saint Francois,Haute-Savoie,fr,,04 50 54 47 70,,"[[u'Social', u'Arts', u'Art Dealers and Galleries']]"
0,Bayard Yves,Megève,74120,47 rue du Clos des Rennes,Haute-Savoie,fr,,04 50 91 74 14,,"[[u'Social', u'Arts', u'Art Dealers and Galleries']]"
0,Berger André,Bonneville,74130,74 rue des Places,Haute-Savoie,fr,,04 50 97 15 32,,"[[u'Social', u'Arts', u'Art Dealers and Galleries']]"
0,Berger Maurice,Bonneville,74130,35 rue d'Andey,Haute-Savoie,fr,,04 50 07 61 85,,"[[u'Social', u'Arts', u'Art Dealers and Galleries']]"
0,Juillet Edouard,Contamine sur Arve,74130,67 Impasse des Voirons,Haute-Savoie,fr,,04 50 03 63 18,,"[[u'Social', u'Arts', u'Art Dealers and Galleries']]"
0,Galerie Fert,Yvoire,74140,,Haute-Savoie,fr,,04 50 72 84 79,http://www.galeriefert-yvoire.com,"[[u'Social', u'Arts', u'Art Dealers and Galleries']]"
0,Piccot François,Yvoire,74140,rue de l'Eglise,Haute-Savoie,fr,,04 50 72 81 13,,"[[u'Social', u'Arts', u'Art Dealers and Galleries']]"
0,Equinoxe Groupe Artisanat Contemporain,Yvoire,74140,rue Principale,Haute-Savoie,fr,,04 50 72 80 77,,"[[u'Social', u'Arts', u'Art Dealers and Galleries']]"
0,Lacroix Serge,Saint Julien en Genevois,74160,31 chemin Notre-Dame des Champs,Haute-Savoie,fr,,04 50 49 38 70,,"[[u'Social', u'Arts', u'Art Dealers and Galleries']]"
0,Antiquités Jaccaz,Saint Julien en Genevois,74160,11 Bis route de Lyon,Haute-Savoie,fr,,04 50 49 36 84,,"[[u'Social', u'Arts', u'Art Dealers and Galleries']]"
0,Atout Toile,Saint Gervais les Bains,74170,226 avenue du mont d'Arbois,Haute-Savoie,fr,,06 07 53 24 87,,"[[u'Social', u'Arts', u'Art Dealers and Galleries']]"
0,Atout Toile,Les Contamines Montjoie,74170,40 route de Saint-Gervais,Haute-Savoie,fr,,04 50 47 35 67,,"[[u'Social', u'Arts', u'Art Dealers and Galleries']]"
0,Mont Blanc Antiquités,Le Fayet,74190,532 avenue de Genève,Haute-Savoie,fr,,04 50 54 13 18,,"[[u'Social', u'Arts', u'Art Dealers and Galleries']]"
0,Lavanchy Brocante Shop,Thonon les Bains,74200,9 rue de l'Hôtel de Ville,Haute-Savoie,fr,,04 50 71 60 00,http://www.antiquites-fonbonne.com,"[[u'Social', u'Arts', u'Art Dealers and Galleries']]"
0,Aux Trésors d'Autrefois,Thonon les Bains,74200,chemin du Vuard Marchat,Haute-Savoie,fr,,06 76 41 35 00,,"[[u'Social', u'Arts', u'Art Dealers and Galleries']]"
0,A la Poussière d'Or,Marin,74200,route de Sussinges,Haute-Savoie,fr,,04 50 70 29 82,,"[[u'Social', u'Arts', u'Art Dealers and Galleries']]"
0,Le Sablier,La Clusaz,74220,52 chemin Pres de Foire Ld Sablier,Haute-Savoie,fr,,04 50 02 51 29,,"[[u'Social', u'Arts', u'Art Dealers and Galleries']]"
0,Interieur Altitude,Thônes,74230,route d' Annecy,Haute-Savoie,fr,,04 50 02 15 56,http://www.interieur-altitude.com,"[[u'Social', u'Arts', u'Art Dealers and Galleries']]"
0,C Establissements Pour Vous,Thônes,74230,le Sappey,Haute-Savoie,fr,,06 10 05 52 62,,"[[u'Social', u'Arts', u'Art Dealers and Galleries']]"
0,Brocante du Château,Gaillard,74240,2 rue du Lieutenant Yvan Genot,Haute-Savoie,fr,,06 61 91 58 29,,"[[u'Social', u'Arts', u'Art Dealers and Galleries']]"
0,Au Trésor de Stef,Viuz en Sallaz,74250,307 route du Thy,Haute-Savoie,fr,,04 50 31 49 77,,"[[u'Social', u'Arts', u'Art Dealers and Galleries']]"
0,Galerie d'Art Sylvie Platini,Veyrier du Lac,74290,1 route de la Tournette,Haute-Savoie,fr,,04 50 60 16 08,http://www.galerie-platini.com,"[[u'Social', u'Arts', u'Art Dealers and Galleries']]"
0,La Marmotte Cassandrine,Châtillon sur Cluses,74300,115 Impasse des Granges,Haute-Savoie,fr,,04 50 89 31 70,,"[[u'Social', u'Arts', u'Art Dealers and Galleries']]"
0,Le Passé de la Montagne,Les Houches,74310,3 promenade de l'Arve,Haute-Savoie,fr,,04 50 47 22 79,,"[[u'Social', u'Arts', u'Art Dealers and Galleries']]"
0,Trouvailles Antiquités Brocante,Épagny,74330,565 route de Sillingy,Haute-Savoie,fr,,04 50 22 09 10,,"[[u'Social', u'Arts', u'Art Dealers and Galleries']]"
0,Jacquemin Gérard,Allonzier la Caille,74350,route de Chez Poraz,Haute-Savoie,fr,,04 50 46 85 88,,"[[u'Social', u'Arts', u'Art Dealers and Galleries']]"
0,Levesque Denis,Cruseilles,74350,30 Impasse de la Gouenne,Haute-Savoie,fr,,04 50 44 13 77,,"[[u'Social', u'Arts', u'Art Dealers and Galleries']]"
0,Brocante Rm,Villaz,74370,969 route Moiron,Haute-Savoie,fr,,06 63 35 36 22,,"[[u'Social', u'Arts', u'Art Dealers and Galleries']]"
0,Bérod Pascal,Bonne,74380,21 avenue du Faucigny,Haute-Savoie,fr,,04 50 39 29 71,,"[[u'Social', u'Arts', u'Art Dealers and Galleries']]"
0,Aart's Masters Gallery,Chamonix Mont Blanc,74400,29 rue Docteur Paccard,Haute-Savoie,fr,,04 50 93 74 71,,"[[u'Social', u'Arts', u'Art Dealers and Galleries']]"
0,Le Globe,Chamonix Mont Blanc,74400,93 rue Charlet Straton,Haute-Savoie,fr,,04 50 54 54 54,,"[[u'Social', u'Arts', u'Art Dealers and Galleries']]"
0,Galerie Arv'art,Chamonix Mont Blanc,74400,40 avenue Savoy,Haute-Savoie,fr,,04 50 53 02 85,,"[[u'Social', u'Arts', u'Art Dealers and Galleries']]"
0,Galerie Artistique et Litteraire du Mont Blanc,Chamonix Mont Blanc,74400,65 avenue Michel Croz,Haute-Savoie,fr,,04 50 53 59 29,,"[[u'Social', u'Arts', u'Art Dealers and Galleries']]"
0,Posters Classics,Saint Jorioz,74410,105 Impasse des Roseaux,Haute-Savoie,fr,,04 50 77 20 52,http://www.posterclassics.com/,"[[u'Social', u'Arts', u'Art Dealers and Galleries']]"
0,Bric et Broc,Taninges,74440,route Samoens,Haute-Savoie,fr,,04 50 34 29 56,http://www.bricetbroc.net,"[[u'Social', u'Arts', u'Art Dealers and Galleries']]"
0,Piccot François,Lullin,74470,,Haute-Savoie,fr,,04 50 73 88 59,http://www.lullin.fr,"[[u'Social', u'Arts', u'Art Dealers and Galleries']]"
0,Perron Ralph,Saint Jeoire,74490,18 rue François Melchior Saint-Jeoir,Haute-Savoie,fr,,04 50 35 81 39,,"[[u'Social', u'Arts', u'Art Dealers and Galleries']]"
0,Curiosité,Évian les Bains,74500,1 place de l'Eglise,Haute-Savoie,fr,,06 80 13 50 66,,"[[u'Social', u'Arts', u'Art Dealers and Galleries']]"
0,Galerie 29,Évian les Bains,74500,29 rue Nationale,Haute-Savoie,fr,,04 50 75 29 61,http://mjcevian.com,"[[u'Social', u'Arts', u'Art Dealers and Galleries']]"
0,Antiquités les Cinq Louis,Évian les Bains,74500,37 avenue Commandant Madelaine,Haute-Savoie,fr,,04 50 71 43 55,,"[[u'Social', u'Arts', u'Art Dealers and Galleries']]"
0,Galerie Atalante,Évian les Bains,74500,29 rue Nationale,Haute-Savoie,fr,,04 50 75 29 61,,"[[u'Social', u'Arts', u'Art Dealers and Galleries']]"
0,Lavanchy Henri,Évian les Bains,74500,5 avenue des Sources,Haute-Savoie,fr,,04 50 75 12 05,,"[[u'Social', u'Arts', u'Art Dealers and Galleries']]"
0,Le Grenier d'Henriette,Saint Félix,74540,22 place de l'Église,Haute-Savoie,fr,,04 50 01 07 63,,"[[u'Social', u'Arts', u'Art Dealers and Galleries']]"
0,Label Broc,Seynod,74600,281 route des Creuses,Haute-Savoie,fr,,04 50 10 28 42,http://www.labelbroc.com,"[[u'Social', u'Arts', u'Art Dealers and Galleries']]"
0,La-O Antiquités à Sallanches,Sallanches,74700,54 rue Guer,Haute-Savoie,fr,,06 11 15 66 96,,"[[u'Social', u'Arts', u'Art Dealers and Galleries']]"
0,Brocante Plain-Château,La Roche sur Foron,74800,47 rue du Plain Chateau,Haute-Savoie,fr,,06 81 30 32 45,,"[[u'Social', u'Arts', u'Art Dealers and Galleries']]"
0,Abacantic,Bons en Chablais,74890,205 rue du Petit Paris,Haute-Savoie,fr,,04 50 39 49 74,http://www.lavy-lionel.com,"[[u'Social', u'Arts', u'Art Dealers and Galleries']]"
0,Lavy Catherine,Bons en Chablais,74890,204 rue du Petit Paris,Haute-Savoie,fr,,06 20 59 81 82,,"[[u'Social', u'Arts', u'Art Dealers and Galleries']]"
0,Antiquités Forain à Annecy-le-Vieux,Annecy le Vieux,74940,35 rue Centrale,Haute-Savoie,fr,,04 50 23 68 13,,"[[u'Social', u'Arts', u'Art Dealers and Galleries']]"
0,Fabregues Patrick,Meythet,74960,2 chemin du Soulaz,Haute-Savoie,fr,,04 50 22 55 73,,"[[u'Social', u'Arts', u'Art Dealers and Galleries']]"
0,Vermote Jacky,Marignier,74970,35 avenue du Vieux Pont,Haute-Savoie,fr,,04 50 34 04 92,,"[[u'Social', u'Arts', u'Art Dealers and Galleries']]"
0,V2 Gallery,Strasbourg,67000,5 rue de Molsheim,Bas-Rhin,fr,,03 88 25 14 20,http://www.v2gallery.fr,"[[u'Businesses and Services', u'Advertising and Marketing', u'Advertising Agencies and Media Buyers']]"
0,Antiquités Galerie Dach,Strasbourg,67000,14 rue des Tonneliers,Bas-Rhin,fr,,03 88 23 63 59,http://www.antiquites-asiatiques-strasbourg.fr,"[[u'Social', u'Arts', u'Art Dealers and Galleries']]"
0,Estampe,Strasbourg,67000,31 quai des Bateliers,Bas-Rhin,fr,,03 88 36 84 11,http://www.estampe.fr,"[[u'Social', u'Arts', u'Art Dealers and Galleries']]"
0,Galerie Pascale Froessel,Strasbourg,67000,14 rue des Dentelles,Bas-Rhin,fr,,03 88 32 74 48,http://www.galerie-pascale-froessel.fr,"[[u'Social', u'Arts', u'Art Dealers and Galleries']]"
0,Pop Shop Strasbourg,Strasbourg,67000,29 place de la Cathédrale,Bas-Rhin,fr,,03 90 24 98 66,http://www.pop-shop-strasbourg.com,"[[u'Social', u'Arts', u'Art Dealers and Galleries']]"
0,Zee-art,Strasbourg,67000,5 rue des Frères,Bas-Rhin,fr,,03 88 32 21 41,http://www.zee-art.com,"[[u'Social', u'Arts', u'Art Dealers and Galleries']]"
0,Galerie Bertrand Gillig,Strasbourg,67000,11 rue Oberlin,Bas-Rhin,fr,,03 88 32 49 08,http://www.bertrandgillig.fr,"[[u'Social', u'Arts', u'Art Dealers and Galleries']]"
0,Galerie Chantal Bamberger,Strasbourg,67000,16 rue du 22 Novembre,Bas-Rhin,fr,,03 88 22 54 48,http://www.galerie-bamberger.com,"[[u'Social', u'Arts', u'Art Dealers and Galleries']]"
0,Carre d'artistes,Strasbourg,67000,24 rue du Dôme,Bas-Rhin,fr,,03 88 35 86 55,http://www.carredartistes.com,"[[u'Social', u'Arts', u'Art Dealers and Galleries']]"
0,Antiquités Bastian,Strasbourg,67000,24 place de la Cathédrale,Bas-Rhin,fr,,03 88 32 45 93,http://www.antiquites-bastian-blog.com,"[[u'Social', u'Arts', u'Art Dealers and Galleries']]"
0,Rendez-Vous,Strasbourg,67000,1 place d'Austerlitz,Bas-Rhin,fr,,03 88 35 18 36,http://www.galerierendez-vous.com,"[[u'Social', u'Arts', u'Art Dealers and Galleries']]"
0,Galerie No Smoking,Strasbourg,67000,19 rue Thiergarten,Bas-Rhin,fr,,03 88 32 60 83,http://www.galerie-nosmoking.com,"[[u'Social', u'Arts', u'Art Dealers and Galleries']]"
0,Galerie Brûlée,Strasbourg,67000,6 rue Brûlée,Bas-Rhin,fr,,03 88 21 04 04,http://www.galeriebrulee.fr,"[[u'Social', u'Arts', u'Art Dealers and Galleries']]"
0,Stimultania,Strasbourg,67000,33 rue de Kageneck,Bas-Rhin,fr,,03 88 23 63 11,http://www.stimultania.org,"[[u'Social', u'Arts', u'Art Dealers and Galleries'], [u'Landmarks']]"
0,La Chambre à Strasbourg,Strasbourg,67000,4 place d'Austerlitz,Bas-Rhin,fr,,03 88 36 65 38,http://la-chambre.org,"[[u'Social', u'Arts', u'Art Dealers and Galleries']]"
0,Galerie Kiwior,Strasbourg,67000,42 quai des Bateliers,Bas-Rhin,fr,,09 50 84 07 58,http://www.galeriekiwior.com,"[[u'Social', u'Arts', u'Art Dealers and Galleries']]"
0,Pêle-Mêle,Strasbourg,67000,9 rue des Veaux,Bas-Rhin,fr,,03 88 32 54 59,http://www.pelemele.eu,"[[u'Social', u'Arts', u'Art Dealers and Galleries']]"
0,Art Up Déco,Strasbourg,67000,5 rue des Frères,Bas-Rhin,fr,,03 88 32 21 41,http://www.artup-deco.com,"[[u'Social', u'Arts', u'Art Dealers and Galleries']]"
0,Artosmose,Strasbourg,67000,1 place Saint Louis,Bas-Rhin,fr,,06 66 13 04 32,http://www.artosmose.fr/diffusart-pm-12.html,"[[u'Social', u'Arts', u'Art Dealers and Galleries']]"
0,Galerie Bertrand Gillig,Strasbourg,67000,15 boulevard Ohmacht,Bas-Rhin,fr,,03 88 32 49 08,http://www.bertrandgillig.fr,"[[u'Social', u'Arts', u'Art Dealers and Galleries']]"
0,Art Strasbourg Gallery,Strasbourg,67000,12 boulevard d'Anvers,Bas-Rhin,fr,,06 78 50 23 10,,"[[u'Social', u'Arts', u'Art Dealers and Galleries']]"
0,La Popartiserie,Strasbourg,67000,3 rue de l'Ail,Bas-Rhin,fr,,03 88 24 13 10,,"[[u'Social', u'Arts', u'Art Dealers and Galleries']]"
0,Syndicat Potentiel,Strasbourg,67000,13 rue des Couples,Bas-Rhin,fr,,,,"[[u'Social', u'Arts', u'Art Dealers and Galleries']]"
0,Kilian Francis,Strasbourg,67000,62 Grand'rue,Bas-Rhin,fr,,03 88 32 41 00,,"[[u'Social', u'Arts', u'Art Dealers and Galleries']]"
0,Galerie Jean-Pierre Ritsch Fisch,Strasbourg,67000,6 rue des Charpentiers,Bas-Rhin,fr,,03 88 23 60 74,,"[[u'Social', u'Arts', u'Art Dealers and Galleries']]"
0,Antiquités Chenkier,Strasbourg,67000,18 rue des Glacières,Bas-Rhin,fr,,03 88 35 33 42,,"[[u'Social', u'Arts', u'Art Dealers and Galleries']]"
0,Onthea,Strasbourg,67000,87 boulevard d'Anvers,Bas-Rhin,fr,,06 17 50 52 37,,"[[u'Social', u'Arts', u'Art Dealers and Galleries']]"
0,Galerie Yves Iffrig,Strasbourg,67000,6 rue des Charpentiers,Bas-Rhin,fr,,03 88 32 30 81,,"[[u'Social', u'Arts', u'Art Dealers and Galleries']]"
0,BFG,Strasbourg,67000,12 rue du Vieil Hôpital,Bas-Rhin,fr,,03 88 22 16 16,,"[[u'Social', u'Arts', u'Art Dealers and Galleries']]"
0,Galerie des Petits Maîtres,Strasbourg,67000,8 rue du Bain aux Plantes,Bas-Rhin,fr,,06 08 90 92 38,,"[[u'Social', u'Arts', u'Art Dealers and Galleries']]"
0,Maison d'Art Alsacienne,Strasbourg,67000,130 Grand'rue,Bas-Rhin,fr,,03 88 32 40 39,,"[[u'Social', u'Arts', u'Art Dealers and Galleries']]"
0,Antiquités Schmidt Jean-Paul,Strasbourg,67000,21 rue Or,Bas-Rhin,fr,,06 08 28 23 63,,"[[u'Social', u'Arts', u'Art Dealers and Galleries']]"
0,Antiquités le Monnier,Strasbourg,67000,10 rue du Vieil Hôpital,Bas-Rhin,fr,,06 07 25 54 05,,"[[u'Social', u'Arts', u'Art Dealers and Galleries']]"
0,Cirçé,Strasbourg,67000,24 Bis rue des Orfevres,Bas-Rhin,fr,,03 88 22 43 15,,"[[u'Social', u'Arts', u'Art Dealers and Galleries']]"
0,Galerie Nord-Est,Strasbourg,67000,18 rue de la Division Leclerc,Bas-Rhin,fr,,03 88 32 32 09,,"[[u'Social', u'Arts', u'Art Dealers and Galleries']]"
0,Galerie Jean-Pierre Ritsch Fisch,Strasbourg,67000,6 place de l'Homme de Fer,Bas-Rhin,fr,,03 88 23 60 74,,"[[u'Social', u'Arts', u'Art Dealers and Galleries']]"
0,Galerie d'Art Nicole Buck,Strasbourg,67000,4 rue des Orfevres,Bas-Rhin,fr,,03 88 22 63 09,,"[[u'Social', u'Arts', u'Art Dealers and Galleries']]"
0,La Maison de Hanssen et Gretel,Strasbourg,67000,7 rue du Chaudron,Bas-Rhin,fr,,03 88 38 31 62,,"[[u'Social', u'Arts', u'Art Dealers and Galleries']]"
0,Art Renchin,Strasbourg,67000,44 rue d'Ypres,Bas-Rhin,fr,,06 37 27 58 25,,"[[u'Social', u'Arts', u'Art Dealers and Galleries']]"
0,Hamzavi Mohamed,Strasbourg,67000,57 avenue des Vosges,Bas-Rhin,fr,,03 88 36 72 05,,"[[u'Social', u'Arts', u'Art Dealers and Galleries']]"
0,Galerie Aktuaryus,Strasbourg,67000,23 rue de la Nuee Bleue,Bas-Rhin,fr,,03 88 22 44 44,,"[[u'Social', u'Arts', u'Art Dealers and Galleries']]"
0,Galerie Espace G,Strasbourg,67000,3 place de Haguenau,Bas-Rhin,fr,,03 88 32 49 08,,"[[u'Social', u'Arts', u'Art Dealers and Galleries']]"
0,Salort,Strasbourg,67000,17 rue Moulins,Bas-Rhin,fr,,09 62 27 10 25,,"[[u'Social', u'Arts', u'Art Dealers and Galleries']]"
0,Lamarche Patrick,Strasbourg,67000,8 rue des Bouchers,Bas-Rhin,fr,,06 07 69 73 49,,"[[u'Social', u'Arts', u'Art Dealers and Galleries']]"
0,Cour Renaissance,Strasbourg,67000,3 rue de l'Ail,Bas-Rhin,fr,,03 88 52 01 21,,"[[u'Social', u'Arts', u'Art Dealers and Galleries']]"
0,Gil,Strasbourg,67000,1 rue d'Alger,Bas-Rhin,fr,,03 88 60 09 34,,"[[u'Social', u'Arts', u'Art Dealers and Galleries']]"
0,Blizz'Art,Strasbourg,67000,17 rue des Moulins,Bas-Rhin,fr,,03 88 22 91 68,,"[[u'Social', u'Arts', u'Art Dealers and Galleries']]"
0,Zerrouki Ch. Antiquités,Strasbourg,67000,14 quai Saint Nicolas,Bas-Rhin,fr,,03 88 36 13 29,,"[[u'Social', u'Arts', u'Art Dealers and Galleries']]"
0,Antiquités Dach,Strasbourg,67000,18 rue Vieil Hôpital,Bas-Rhin,fr,,03 88 32 52 79,,"[[u'Social', u'Arts', u'Art Dealers and Galleries']]"
0,Aquatinte,Strasbourg,67000,5 quai pecheurs Robertsau,Bas-Rhin,fr,,03 88 25 00 32,,"[[u'Social', u'Arts', u'Art Dealers and Galleries']]"
0,Bricabrac,Strasbourg,67000,16 rue de la Course,Bas-Rhin,fr,,03 88 22 02 54,,"[[u'Social', u'Arts', u'Art Dealers and Galleries']]"
0,Galerie Lacan,Strasbourg,67000,31 quai des Bateliers,Bas-Rhin,fr,,03 88 25 78 19,,"[[u'Social', u'Arts', u'Art Dealers and Galleries']]"
0,Need Arts,Strasbourg,67000,10 rue Staine Hélène,Bas-Rhin,fr,,03 88 22 29 94,,"[[u'Social', u'Arts', u'Art Dealers and Galleries']]"
0,Galerie Marinelli,Strasbourg,67000,19 Bis rue de Lucerne,Bas-Rhin,fr,,03 88 25 75 93,,"[[u'Social', u'Arts', u'Art Dealers and Galleries']]"
0,Au Grenier de Rathus,Strasbourg,67000,4 quai Finkwiller,Bas-Rhin,fr,,03 88 37 91 91,,"[[u'Social', u'Arts', u'Art Dealers and Galleries']]"
0,C-Plus,Strasbourg,67000,19 rue des Orfevres,Bas-Rhin,fr,,03 88 32 06 10,,"[[u'Social', u'Arts', u'Art Dealers and Galleries']]"
0,C-Plus,Strasbourg,67000,35 rue Mimosas,Bas-Rhin,fr,,03 88 32 06 10,,"[[u'Social', u'Arts', u'Art Dealers and Galleries']]"
0,Gardelliano,Strasbourg,67000,5 quai Pecheurs,Bas-Rhin,fr,,09 61 52 81 65,,"[[u'Social', u'Arts', u'Art Dealers and Galleries']]"
0,Oscar,Strasbourg,67100,6 rue de Thann,Bas-Rhin,fr,,03 88 34 54 83,http://www.oscar-design.fr,"[[u'Social', u'Arts', u'Art Dealers and Galleries']]"
0,Sainteff Denis,Strasbourg,67100,91 route de la Meinau,Bas-Rhin,fr,,03 88 39 07 69,,"[[u'Social', u'Arts', u'Art Dealers and Galleries']]"
0,Diebold Francois,Strasbourg,67100,15 rue Amédée Cailliot,Bas-Rhin,fr,,06 64 34 39 23,,"[[u'Social', u'Arts', u'Art Dealers and Galleries']]"
0,Schott Jean-Marie,Strasbourg,67100,1 rue de Hunawihr,Bas-Rhin,fr,,06 67 91 49 20,,"[[u'Social', u'Arts', u'Art Dealers and Galleries']]"
0,Muller Roland,Strasbourg,67100,18 rue de l'Ardeche,Bas-Rhin,fr,,03 88 79 94 15,,"[[u'Social', u'Arts', u'Art Dealers and Galleries']]"
0,Galerie Goralsky,Reichstett,67116,13 rue du Canal,Bas-Rhin,fr,,03 88 33 96 58,,"[[u'Social', u'Arts', u'Art Dealers and Galleries']]"
0,Bodein Charles,Furdenheim,67117,34 route Strasbourg,Bas-Rhin,fr,,03 88 69 00 39,,"[[u'Social', u'Arts', u'Art Dealers and Galleries']]"
0,Harry Korn Antiquites,Handschuheim,67117,19 rue Principale,Bas-Rhin,fr,,03 88 69 09 85,,"[[u'Social', u'Arts', u'Art Dealers and Galleries']]"
0,Le Grenier d'Olivier,Molsheim,67120,13 route Industrielle de la Hardt,Bas-Rhin,fr,,03 88 38 85 51,http://www.ledepotvente.fr,"[[u'Social', u'Arts', u'Art Dealers and Galleries']]"
0,Erelfeu,Barr,67140,5 rue des Lievres,Bas-Rhin,fr,,03 88 08 52 64,,"[[u'Social', u'Arts', u'Art Dealers and Galleries']]"
0,Klein Raoul,Barr,67140,3 rue Saint Marc,Bas-Rhin,fr,,03 88 08 93 59,,"[[u'Social', u'Arts', u'Art Dealers and Galleries']]"
0,Wehrling David,Barr,67140,20 rue Docteur Sultzer,Bas-Rhin,fr,,03 88 08 07 25,,"[[u'Social', u'Arts', u'Art Dealers and Galleries']]"
0,Antiquites le Manoir,Bernolsheim,67170,44 rue Principale,Bas-Rhin,fr,,06 62 68 44 37,,"[[u'Social', u'Arts', u'Art Dealers and Galleries']]"
0,Bach Pia à Mutzig,Mutzig,67190,3 rue Haberland,Bas-Rhin,fr,,03 88 13 55 72,,"[[u'Social', u'Arts', u'Art Dealers and Galleries']]"
0,Andres marie- christine,Mutzig,67190,3 route de Molsheim,Bas-Rhin,fr,,06 10 29 07 32,,"[[u'Social', u'Arts', u'Art Dealers and Galleries']]"
0,Goralsky Pierre-Henri,Obernai,67210,63 rue du Général Gouraud,Bas-Rhin,fr,,03 88 95 24 56,http://www.pictural.fr/indexcontact.php4,"[[u'Social', u'Arts', u'Art Dealers and Galleries']]"
0,Antiquites A la Vieille Fontaine,Obernai,67210,16 rue du Marche,Bas-Rhin,fr,,03 88 95 33 97,,"[[u'Social', u'Arts', u'Art Dealers and Galleries']]"
0,Galerie Goralsky,Obernai,67210,63 rue Général Gouraud,Bas-Rhin,fr,,06 14 39 56 80,,"[[u'Social', u'Arts', u'Art Dealers and Galleries']]"
0,Hamm Pierre,Benfeld,67230,5 rue de Hollande,Bas-Rhin,fr,,03 88 74 49 37,http://antiquites-materiaux-hamm.com,"[[u'Social', u'Arts', u'Art Dealers and Galleries']]"
0,Bignet Constant,Kaltenhouse,67240,5 A rue des Lilas,Bas-Rhin,fr,,06 78 38 06 87,,"[[u'Social', u'Arts', u'Art Dealers and Galleries']]"
0,Antik Art Atelier,Bischwiller,67240,3 rue Couturieres,Bas-Rhin,fr,,03 88 63 65 32,http://antikartatelier.blogspot.com/,"[[u'Social', u'Arts', u'Art Dealers and Galleries']]"
0,La Brocante,Keskastel,67260,"75 A, rue Faubourg",Bas-Rhin,fr,,03 88 00 24 68,,"[[u'Social', u'Arts', u'Art Dealers and Galleries']]"
0,Anstaett Antiquités,Schiltigheim,67300,25 rue des Vosges,Bas-Rhin,fr,,06 07 60 73 01,,"[[u'Social', u'Arts', u'Art Dealers and Galleries']]"
0,Antiquité M. Chenkier,Scharrachbergheim Irmstett,67310,17 rue Principale,Bas-Rhin,fr,,03 88 50 67 30,,"[[u'Social', u'Arts', u'Art Dealers and Galleries']]"
0,Au Charme du Passe,Bouxwiller,67330,24 Drand rue,Bas-Rhin,fr,,06 85 91 82 51,,"[[u'Social', u'Arts', u'Art Dealers and Galleries']]"
0,Urban Patrick,Illkirch Graffenstaden,67400,16 rue des Lilas,Bas-Rhin,fr,,03 88 67 29 52,,"[[u'Social', u'Arts', u'Art Dealers and Galleries']]"
0,Acte 2 Déco,Illkirch Graffenstaden,67400,1 b Faubourg de la Paix,Bas-Rhin,fr,,06 21 20 10 25,,"[[u'Social', u'Arts', u'Art Dealers and Galleries']]"
0,Le Savoir de Marie,Haguenau,67500,2 rue des Dominicains,Bas-Rhin,fr,,03 88 73 17 18,http://www.lesavoirdemarie.fr,"[[u'Social', u'Arts', u'Art Dealers and Galleries']]"
0,Baumeister Alain,Sélestat,67600,5 rue Roswag,Bas-Rhin,fr,,03 88 92 14 60,,"[[u'Social', u'Arts', u'Art Dealers and Galleries']]"
0,Hoa et B Art Galerie,Sélestat,67600,15 rue Prés Raymond Poincaré,Bas-Rhin,fr,,03 88 58 49 41,,"[[u'Social', u'Arts', u'Art Dealers and Galleries']]"
0,Au Grenier de Betschdorf,Betschdorf,67660,26 rue des Potiers,Bas-Rhin,fr,,03 88 54 48 64,,"[[u'Social', u'Arts', u'Art Dealers and Galleries']]"
0,Moret Jocelyne,Betschdorf,67660,26 rue des Potiers,Bas-Rhin,fr,,09 62 19 10 30,,"[[u'Social', u'Arts', u'Art Dealers and Galleries']]"
0,Charles Zahira,Epfig,67680,rue de la Montagne,Bas-Rhin,fr,,06 79 76 14 64,,"[[u'Social', u'Arts', u'Art Dealers and Galleries']]"
0,Yves la Brocante,Saverne,67700,17 rue des Bonnes Gens,Bas-Rhin,fr,,06 78 54 56 38,,"[[u'Social', u'Arts', u'Art Dealers and Galleries']]"
0,Broc'Antik,Gambsheim,67760,85 route Nationale,Bas-Rhin,fr,,06 07 77 59 30,,"[[u'Social', u'Arts', u'Art Dealers and Galleries']]"
0,Au Charme du Passé,Steinbourg,67790,7 rue du Chateau,Bas-Rhin,fr,,03 88 91 57 56,http://antiquiteaucharmedupasse.e-monsite.com/,"[[u'Social', u'Arts', u'Art Dealers and Galleries']]"
0,Alligri Dominique,Bischheim,67800,11 rue du Fosse Neuf,Bas-Rhin,fr,,03 88 83 19 15,,"[[u'Social', u'Arts', u'Art Dealers and Galleries']]"
0,Espace d'Art Contemporain André Malraux,Colmar,68000,4 rue Rapp,Haut-Rhin,fr,,03 89 20 67 59,http://www.colmar.fr,"[[u'Social', u'Arts', u'Art Dealers and Galleries'], [u'Landmarks']]"
0,Antiquités Pfeiffer Olivier,Colmar,68000,5 Quinquies rue Marchands,Haut-Rhin,fr,,03 89 23 62 08,http://www.antiquite-brocante-colmar.fr,"[[u'Social', u'Arts', u'Art Dealers and Galleries']]"
0,Original Design,Colmar,68000,57 Grand'rue,Haut-Rhin,fr,,03 89 23 22 48,http://www.originaldesign.fr,"[[u'Social', u'Arts', u'Art Dealers and Galleries']]"
0,Arcana,Colmar,68000,13 place de l'Ancienne Douane,Haut-Rhin,fr,,03 89 41 59 81,,"[[u'Social', u'Arts', u'Art Dealers and Galleries']]"
0,Franck Lydia,Colmar,68000,34 rue des Marchands,Haut-Rhin,fr,,03 89 24 55 15,,"[[u'Social', u'Arts', u'Art Dealers and Galleries']]"
0,Mannsfeld Encadreur,Colmar,68000,7 rue des Tanneurs,Haut-Rhin,fr,,03 89 23 06 28,,"[[u'Social', u'Arts', u'Art Dealers and Galleries']]"
0,Galerie Art et Collection,Colmar,68000,10 rue des Ecoles,Haut-Rhin,fr,,03 89 23 71 43,http://www.galerie-art-et-collection.com,"[[u'Social', u'Arts', u'Art Dealers and Galleries']]"
0,Antiquités Bally,Colmar,68000,3 rue Mangold,Haut-Rhin,fr,,03 89 23 63 71,http://www.antiquites-brocante-colmar.fr,"[[u'Social', u'Arts', u'Art Dealers and Galleries']]"
0,Galerie Eclat d'Art,Colmar,68000,3 rue Saint Nicolas,Haut-Rhin,fr,,03 89 41 89 33,http://www.galerie-eclatdart.com,"[[u'Social', u'Arts', u'Art Dealers and Galleries']]"
0,Antiquités Donato,Colmar,68000,14 rue des Tanneurs,Haut-Rhin,fr,,03 89 41 40 06,,"[[u'Social', u'Arts', u'Art Dealers and Galleries']]"
0,Agwe Galerie,Colmar,68000,60 A rue Charles Marie Widor,Haut-Rhin,fr,,06 17 32 12 28,http://www.agwe-galerie.com,"[[u'Social', u'Arts', u'Art Dealers and Galleries']]"
0,Geismar Dany,Colmar,68000,32 rue des Marchands,Haut-Rhin,fr,,03 89 23 30 41,,"[[u'Social', u'Arts', u'Art Dealers and Galleries']]"
0,Il était une Fois,Colmar,68000,5 rue des Tanneurs,Haut-Rhin,fr,,03 89 23 78 40,,"[[u'Social', u'Arts', u'Art Dealers and Galleries']]"
0,Bally Sandra,Colmar,68000,3 rue Mangold,Haut-Rhin,fr,,03 89 23 63 71,,"[[u'Social', u'Arts', u'Art Dealers and Galleries']]"
0,Galerie d'Art Bucciali Minarro,Colmar,68000,14 cours Staine Anne,Haut-Rhin,fr,,03 89 23 72 99,,"[[u'Social', u'Arts', u'Art Dealers and Galleries']]"
0,Remy Bally Gisele,Colmar,68000,3 rue Mangold,Haut-Rhin,fr,,06 07 19 84 04,,"[[u'Social', u'Arts', u'Art Dealers and Galleries']]"
0,Brocante Vincentz,Colmar,68000,Peyerimhoff,Haut-Rhin,fr,,03 89 23 75 20,,"[[u'Social', u'Arts', u'Art Dealers and Galleries']]"
0,La Vieille Garde,Mulhouse,68065,14 place Concorde BP 3284,Haut-Rhin,fr,,03 89 45 51 51,http://www.lavieillegarde.fr,"[[u'Social', u'Arts', u'Art Dealers and Galleries']]"
0,Galerie Concorde Keiflin,Mulhouse,68100,1 place de la Concorde,Haut-Rhin,fr,,03 89 45 64 54,,"[[u'Social', u'Arts', u'Art Dealers and Galleries']]"
0,Galerie des Tanneurs,Mulhouse,68100,17 rue des Tanneurs,Haut-Rhin,fr,,03 89 45 88 88,,"[[u'Social', u'Arts', u'Art Dealers and Galleries']]"
0,La Kunsthalle,Mulhouse,68100,16 rue de la Fonderie,Haut-Rhin,fr,,03 69 77 66 47,http://kunsthallemulhouse.com,"[[u'Social', u'Arts', u'Art Dealers and Galleries']]"
0,Courant d'art Galerie,Mulhouse,68100,10 rue des Tanneurs,Haut-Rhin,fr,,03 89 66 33 77,http://www.courantdart.fr/,"[[u'Social', u'Arts', u'Art Dealers and Galleries']]"
0,Neher Jean-Michel,Mulhouse,68100,1 rue Jacques Preiss,Haut-Rhin,fr,,06 03 12 09 91,,"[[u'Social', u'Arts', u'Art Dealers and Galleries']]"
0,Galerie Marbach,Mulhouse,68100,10 rue des Tanneurs,Haut-Rhin,fr,,03 89 46 53 97,http://www.courantdart.fr,"[[u'Social', u'Arts', u'Art Dealers and Galleries']]"
0,Boite Antique Kintz,Mulhouse,68100,3 place de la Concorde,Haut-Rhin,fr,,06 07 76 66 63,,"[[u'Social', u'Arts', u'Art Dealers and Galleries']]"
0,Berger Edouard,Mulhouse,68100,,Haut-Rhin,fr,,06 07 54 91 41,,"[[u'Social', u'Arts', u'Art Dealers and Galleries']]"
0,Mutschler S.A.R.L.,Mulhouse,68100,12 allée Nathan Katz,Haut-Rhin,fr,,03 89 36 31 11,,"[[u'Social', u'Arts', u'Art Dealers and Galleries']]"
0,Le Comptoir de la Chine,Illzach,68110,19 avenue de Hollande,Haut-Rhin,fr,,03 89 61 80 07,,"[[u'Social', u'Arts', u'Art Dealers and Galleries']]"
0,LAMBOLEY à Illzach,Illzach,68110,19 avenue Hollande,Haut-Rhin,fr,,09 72 94 82 14,,"[[u'Social', u'Arts', u'Art Dealers and Galleries']]"
0,Artantic Conseil,Carspach,68130,6 rue de Fulleren,Haut-Rhin,fr,,03 89 40 08 21,,"[[u'Social', u'Arts', u'Art Dealers and Galleries']]"
0,Legrand Marie-Christine,Ribeauvillé,68150,34 Grand' rue,Haut-Rhin,fr,,03 89 72 93 40,http://m-c.legrand.lin-fini-brocante.over-blog.com,"[[u'Social', u'Arts', u'Art Dealers and Galleries']]"
0,Roland Vonesch,Ensisheim,68190,6 rue Gutenberg,Haut-Rhin,fr,,03 89 81 01 55,,"[[u'Social', u'Arts', u'Art Dealers and Galleries']]"
0,Daguet Fabrice,Saint Ulrich,68210,13 rue du Canal,Haut-Rhin,fr,,03 89 25 33 84,,"[[u'Social', u'Arts', u'Art Dealers and Galleries']]"
0,Le Gousset,Folgensbourg,68220,43 rue de Ferrette,Haut-Rhin,fr,,03 89 07 92 99,,"[[u'Social', u'Arts', u'Art Dealers and Galleries']]"
0,Antiquités Donato,Niedermorschwihr,68230,111 rue de Ribeaupierre,Haut-Rhin,fr,,03 89 27 23 33,,"[[u'Social', u'Arts', u'Art Dealers and Galleries']]"
0,Brocante Drif,Wittenheim,68270,160 rue d'Ensisheim,Haut-Rhin,fr,,06 07 81 63 57,,"[[u'Social', u'Arts', u'Art Dealers and Galleries']]"
0,Brocante de la Doller,Kirchberg,68290,1 rue de l'Eichbourg,Haut-Rhin,fr,,03 89 37 00 25,,"[[u'Social', u'Arts', u'Art Dealers and Galleries']]"
0,Glutz Daniel,Wittelsheim,68310,5 rue de la Pie Qui Chante,Haut-Rhin,fr,,03 89 55 53 30,,"[[u'Social', u'Arts', u'Art Dealers and Galleries']]"
0,RempArt Galerie d'Art,Eguisheim,68420,47 Grand'rue,Haut-Rhin,fr,,03 89 29 69 16,http://www.galerie-rempart.fr,"[[u'Social', u'Arts', u'Art Dealers and Galleries']]"
0,Theiller Christophe,Hattstatt,68420,5 rue des Seigneurs,Haut-Rhin,fr,,06 12 52 00 24,http://www.brocante-hattstatt.fr,"[[u'Social', u'Arts', u'Art Dealers and Galleries']]"
0,Troc Top,Habsheim,68440,12 A rue de la Chapelle,Haut-Rhin,fr,,03 89 32 85 56,,"[[u'Social', u'Arts', u'Art Dealers and Galleries']]"
0,Au Grenier Alsacien,Lutterbach,68460,5 rue Voltaire,Haut-Rhin,fr,,03 89 52 91 46,,"[[u'Social', u'Arts', u'Art Dealers and Galleries']]"
0,Wucher Francis,Storckensohn,68470,rue du Forst,Haut-Rhin,fr,,03 89 82 73 74,,"[[u'Social', u'Arts', u'Art Dealers and Galleries']]"
0,Stehlin Clément,Biederthal,68480,33 rue Principale,Haut-Rhin,fr,,03 89 40 79 40,,"[[u'Social', u'Arts', u'Art Dealers and Galleries']]"
0,A l'Espace des Arts,Guebwiller,68500,rue des Marronniers,Haut-Rhin,fr,,03 89 74 28 57,http://www.chateau-hotel.net,"[[u'Social', u'Arts', u'Art Dealers and Galleries']]"
0,Brocante du Florival,Guebwiller,68500,2 rue du Général de Gaulle,Haut-Rhin,fr,,03 89 76 12 63,http://www.ebenisterie-antiquite-guebwiller.fr,"[[u'Social', u'Arts', u'Art Dealers and Galleries']]"
0,Galerie-AjctCom,Issenheim,68500,7 rue du Chateau,Haut-Rhin,fr,,06 10 58 71 55,http://www.galerie-ajct.com,"[[u'Social', u'Arts', u'Art Dealers and Galleries']]"
0,Galerie d'Art Action,Sierentz,68510,44 rue Rogg Haas,Haut-Rhin,fr,,03 89 81 69 39,,"[[u'Social', u'Arts', u'Art Dealers and Galleries']]"
0,Eurl Gentilis,Buhl,68530,108 rue Florival,Haut-Rhin,fr,,03 89 83 08 28,,"[[u'Social', u'Arts', u'Art Dealers and Galleries']]"
0,Alzon Yves,Hirsingue,68560,34 rue du Général de Gaulle,Haut-Rhin,fr,,03 89 07 59 04,,"[[u'Social', u'Arts', u'Art Dealers and Galleries']]"
0,Wickert Didier,Kembs,68680,3 bis rue des Buissons,Haut-Rhin,fr,,03 89 74 50 67,,"[[u'Social', u'Arts', u'Art Dealers and Galleries']]"
0,Antiquités Brocante du Muhlbach,Froeningen,68720,5 rue Meunier,Haut-Rhin,fr,,03 89 25 10 57,,"[[u'Social', u'Arts', u'Art Dealers and Galleries']]"
0,A l' Instant,Morschwiller Le Bas,68790,23 rue Large,Haut-Rhin,fr,,06 80 15 76 52,,"[[u'Social', u'Arts', u'Art Dealers and Galleries']]"
0,Guéridon,Bartenheim,68870,35 rue du Général de Gaulle,Haut-Rhin,fr,,03 89 68 28 60,,"[[u'Social', u'Arts', u'Art Dealers and Galleries']]"
