,Name,Locality,Postalcode,Address,Region,Country,Neighborhood,Phone,Website,Category Labels
0,,,,,,,,,,
0,Abc Breon,Saint Maur des Fossés,94100,30 rue de la Varennes,Val-de-Marne,fr,,06 60 62 50 23,http://www.achat-antiquites-debarras-paris.fr,"[[u'Social', u'Arts', u'Art Dealers and Galleries']]"
0,Daum Maison Lefevre,Saint Maur des Fossés,94100,129 rue Garibaldi,Val-de-Marne,fr,,01 48 83 27 60,http://www.antiquites-lefevre.com,"[[u'Social', u'Arts', u'Art Dealers and Galleries']]"
0,LMB,Saint Maur des Fossés,94100,7 boulevard de Creteil,Val-de-Marne,fr,,01 48 85 22 88,,"[[u'Social', u'Arts', u'Art Dealers and Galleries']]"
0,Artempion,Fontenay Sous Bois,94120,rue Médéric,Val-de-Marne,fr,,06 99 17 59 47,,"[[u'Social', u'Arts', u'Art Dealers and Galleries']]"
0,Au Temps Jadis,Fontenay sous Bois,94120,11 place du Général Leclerc,Val-de-Marne,fr,,01 48 77 51 23,,"[[u'Social', u'Arts', u'Art Dealers and Galleries']]"
0,La Caverne de Nogent,Nogent sur Marne,94130,7 rue du Lieutenant Ohresser,Val-de-Marne,fr,,01 48 76 63 71,http://www.kelvitrine.com/nogent-sur-marne/lacavernedenogent,"[[u'Social', u'Arts', u'Art Dealers and Galleries']]"
0,Galerie Christian Croset,Nogent sur Marne,94130,4 rue Edmond Vitry,Val-de-Marne,fr,,01 48 72 53 19,http://www.galeriechristiancroset.com,"[[u'Social', u'Arts', u'Art Dealers and Galleries']]"
0,Ridard Claudine,Saint Mandé,94160,3 rue Poirier,Val-de-Marne,fr,,01 43 74 82 65,,"[[u'Social', u'Arts', u'Art Dealers and Galleries']]"
0,Lortal Jean,Saint Mandé,94160,3 avenue de la Pelouse,Val-de-Marne,fr,,01 43 74 29 08,,"[[u'Social', u'Arts', u'Art Dealers and Galleries']]"
0,Galerie Hugo et Fils,Ivry sur Seine,94200,34 bis rue Ampère,Val-de-Marne,fr,,01 46 70 86 93,http://www.galerierx.com,"[[u'Social', u'Arts', u'Art Dealers and Galleries']]"
0,Lot 10,Ivry sur Seine,94200,44 rue Jules Vanzuppe,Val-de-Marne,fr,,01 43 90 31 92,,"[[u'Social', u'Arts', u'Art Dealers and Galleries']]"
0,Rodriguez Iléana,Ivry sur Seine,94200,1 rue Paul Mazy,Val-de-Marne,fr,,06 72 95 22 47,,"[[u'Social', u'Arts', u'Art Dealers and Galleries']]"
0,Zoo Studio,Ivry sur Seine,94200,50 D124,Val-de-Marne,fr,,,http://www.zoostudio.fr,"[[u'Social', u'Arts', u'Art Dealers and Galleries']]"
0,Maison le Roy,La Varenne Saint Hilaire,94210,14 rue Chappelier,Val-de-Marne,fr,,01 43 97 93 43,http://www.brocanteleroy.com/,"[[u'Social', u'Arts', u'Art Dealers and Galleries']]"
0,Galerie Spolnik,La Varenne Saint Hilaire,94210,2 bis avenue de Chanzy,Val-de-Marne,fr,,01 48 85 66 24,http://www.galerie-spolnik.com,"[[u'Social', u'Arts', u'Art Dealers and Galleries']]"
0,Kreloufi Gilbert,Saint Maur des Fossés,94210,25 avenue du Bac,Val-de-Marne,fr,,01 48 83 52 48,,"[[u'Social', u'Arts', u'Art Dealers and Galleries']]"
0,Pardo Cyril,La Varenne Saint Hilaire,94210,4 avenue Chanzy,Val-de-Marne,fr,,06 07 57 47 76,,"[[u'Social', u'Arts', u'Art Dealers and Galleries']]"
0,Couleurs A Croquer,Charenton le Pont,94220,place de l'Eglise,Val-de-Marne,fr,,06 60 83 27 57,http://www.couleursacroquer.com,"[[u'Social', u'Arts', u'Art Dealers and Galleries']]"
0,Cagnard Thierry,Charenton le Pont,94220,199 rue de Paris,Val-de-Marne,fr,,01 48 93 55 53,,"[[u'Social', u'Arts', u'Art Dealers and Galleries']]"
0,Espace Art et Liberté,Charenton le Pont,94220,3 place des Marseillais,Val-de-Marne,fr,,01 46 76 68 05,,"[[u'Social', u'Arts', u'Art Dealers and Galleries']]"
0,Brocante Ponse,Charenton le Pont,94220,116 Bis rue de Paris,Val-de-Marne,fr,,01 43 68 12 43,,"[[u'Social', u'Arts', u'Art Dealers and Galleries']]"
0,Actee S.A.R.L.,Charenton le Pont,94220,114 rue de Paris,Val-de-Marne,fr,,01 43 96 30 52,,"[[u'Social', u'Arts', u'Art Dealers and Galleries']]"
0,Vanhoecke Pascal,Cachan,94230,14 Bis rue du Docteur Gosselin,Val-de-Marne,fr,,01 49 86 59 24,http://www.galeriepascalvanhoecke.com/,"[[u'Social', u'Arts', u'Art Dealers and Galleries']]"
0,Maison d'Art Contemporain Chaillioux,Fresnes,94260,5 rue Julien Chaillioux,Val-de-Marne,fr,,01 46 68 58 31,,"[[u'Social', u'Arts', u'Art Dealers and Galleries']]"
0,Knezevic Robert,Villeneuve Le Roi,94290,73 avenue Paul Painlevé,Val-de-Marne,fr,,01 49 61 39 78,,"[[u'Social', u'Arts', u'Art Dealers and Galleries']]"
0,Frémeaux et Associés,Vincennes,94300,20 rue Robert Giraudineau,Val-de-Marne,fr,,01 43 74 90 24,http://www.fremeaux.com,"[[u'Social', u'Arts', u'Art Dealers and Galleries']]"
0,Memoires de Grenier,Vincennes,94300,86 rue Raymond du Temple,Val-de-Marne,fr,,01 43 28 55 17,,"[[u'Social', u'Arts', u'Art Dealers and Galleries']]"
0,Caron Daniel,Vincennes,94300,177 rue de Fontenay,Val-de-Marne,fr,,01 43 74 71 86,,"[[u'Social', u'Arts', u'Art Dealers and Galleries']]"
0,Boyard Thibaut,Vincennes,94300,10 rue Monmory,Val-de-Marne,fr,,01 43 28 73 03,,"[[u'Social', u'Arts', u'Art Dealers and Galleries']]"
0,Le Grillon,Vincennes,94300,5 rue Lejemptel,Val-de-Marne,fr,,01 43 28 26 30,,"[[u'Social', u'Arts', u'Art Dealers and Galleries']]"
0,Galerie Sillages,Vincennes,94300,23 rue Robert Giraudineau,Val-de-Marne,fr,,01 43 74 48 86,,"[[u'Social', u'Arts', u'Art Dealers and Galleries']]"
0,Zeitoun Jean,Orly,94310,2 avenue Moliere,Val-de-Marne,fr,,06 12 51 33 67,,"[[u'Social', u'Arts', u'Art Dealers and Galleries']]"
0,Schomack Store,Villiers sur Marne,94350,37 avenue des Châtaigniers,Val-de-Marne,fr,,01 49 41 03 08,,"[[u'Social', u'Arts', u'Art Dealers and Galleries']]"
0,Dutourleau Audoin Françoise,Sucy en Brie,94370,3 rue du Temple,Val-de-Marne,fr,,01 45 76 70 35,,"[[u'Social', u'Arts', u'Art Dealers and Galleries']]"
0,Badin de Montjoye Dominique Jean,Sucy En Brie,94370,44 rue de Boissy,Val-de-Marne,fr,,06 80 13 57 92,,"[[u'Social', u'Arts', u'Art Dealers and Galleries']]"
0,Galerie municipale Jean-Collet,Vitry sur Seine,94400,59 avenue Guy Môquet,Val-de-Marne,fr,,01 43 91 15 33,,"[[u'Social', u'Arts', u'Art Dealers and Galleries']]"
0,Acii,Vitry sur Seine,94400,4 avenue Andre Maginot,Val-de-Marne,fr,,01 45 73 21 46,,"[[u'Social', u'Arts', u'Art Dealers and Galleries']]"
0,Bonnat Marie,Chennevières sur Marne,94430,6 Villa Lorraine,Val-de-Marne,fr,,06 14 77 93 81,http://bonnatmarie.com,"[[u'Social', u'Arts', u'Art Dealers and Galleries']]"
0,Antiquités 56,Marolles En Brie,94440,28 rue des Fourneaux,Val-de-Marne,fr,,01 43 86 57 44,,"[[u'Social', u'Arts', u'Art Dealers and Galleries']]"
0,Lefebvre Didier,Villecresnes,94440,10 chemin de Vaux,Val-de-Marne,fr,,06 81 91 76 41,,"[[u'Social', u'Arts', u'Art Dealers and Galleries']]"
0,Le Bouette Catherine,Santeny,94440,11 avenue du Général Leclerc,Val-de-Marne,fr,,01 43 86 56 38,,"[[u'Social', u'Arts', u'Art Dealers and Galleries']]"
0,Galerie Corinne Caminade,Champigny,94500,190 rue Diderot,Val-de-Marne,fr,,01 48 80 10 32,,"[[u'Social', u'Arts', u'Art Dealers and Galleries']]"
0,Art Partner Galerie,Champigny,94500,628 rue Henri Barbusse,Val-de-Marne,fr,,01 47 06 47 78,,"[[u'Social', u'Arts', u'Art Dealers and Galleries']]"
0,Elise Michel Art Consulting,Champigny,94500,21 rue Matteoti,Val-de-Marne,fr,,06 80 61 85 93,,"[[u'Social', u'Arts', u'Art Dealers and Galleries']]"
0,Ateliers du Parc S.A.,Champigny,94500,634 rue de Bernau,Val-de-Marne,fr,,01 48 81 08 31,,"[[u'Social', u'Arts', u'Art Dealers and Galleries']]"
0,Atmosphere Antiquites,Champigny,94500,24 rue du Dix Neuf Mars 1962,Val-de-Marne,fr,,01 41 78 36 09,,"[[u'Social', u'Arts', u'Art Dealers and Galleries']]"
0,Brocante de l'Hermitage,La Queue en Brie,94510,1 rue de la Libération,Val-de-Marne,fr,,01 45 90 13 54,,"[[u'Social', u'Arts', u'Art Dealers and Galleries']]"
0,Au Grenier du Passé,Chevilly Larue,94550,1 rue Lieutenant Alain Lecoz,Val-de-Marne,fr,,01 45 12 96 18,http://www.debarras-brocante-idf-75-92-94.fr,"[[u'Social', u'Arts', u'Art Dealers and Galleries']]"
0,Brocante C le Garrec,Choisy le Roi,94600,35 avenue du Docteur Charcot,Val-de-Marne,fr,,01 48 53 57 22,http://www.planetis.com,"[[u'Social', u'Arts', u'Art Dealers and Galleries']]"
0,Choisy Antiquités,Choisy le Roi,94600,45 rue de la Chasse,Val-de-Marne,fr,,01 48 92 21 13,,"[[u'Social', u'Arts', u'Art Dealers and Galleries']]"
0,Antiquités Van Houtte,Maisons Alfort,94700,4 rue du Dix Huit Juin 1940,Val-de-Marne,fr,,01 43 68 62 49,,"[[u'Social', u'Arts', u'Art Dealers and Galleries']]"
0,Caillaud Thierry,Maisons Alfort,94700,221 avenue du Général Leclerc,Val-de-Marne,fr,,06 60 49 55 21,,"[[u'Social', u'Arts', u'Art Dealers and Galleries']]"
0,Weber Michel,Villejuif,94800,45 rue des Coquettes,Val-de-Marne,fr,,01 46 78 73 16,,"[[u'Social', u'Arts', u'Art Dealers and Galleries']]"
0,Multi Pat,Villejuif,94800,32 rue Jules Verne,Val-de-Marne,fr,,06 20 54 13 75,,"[[u'Social', u'Arts', u'Art Dealers and Galleries']]"
0,Perrigne Philippe,Noiseau,94880,1 rue de Bellevue,Val-de-Marne,fr,,06 07 87 73 39,,"[[u'Social', u'Arts', u'Art Dealers and Galleries']]"
0,Au Grenier du Chateau,Neuville sur Oise,95000,4 rue du Pont,Val-d'Oise,fr,,01 30 31 33 76,,"[[u'Social', u'Arts', u'Art Dealers and Galleries']]"
0,Galerie Lelong,Argenteuil,95100,98 Ter boulevard Héloise,Val-d'Oise,fr,,01 30 76 92 93,http://www.galerie-lelong.com/,"[[u'Social', u'Arts', u'Art Dealers and Galleries']]"
0,Antiquité Brocante,Argenteuil,95100,2 boulevard Maurice Berteaux,Val-d'Oise,fr,,01 30 76 19 53,,"[[u'Social', u'Arts', u'Art Dealers and Galleries']]"
0,Le Grenier d'Argenteuil,Argenteuil,95100,76 avenue de Stalingrad,Val-d'Oise,fr,,01 39 82 52 00,,"[[u'Social', u'Arts', u'Art Dealers and Galleries']]"
0,Bérard Thierry,Sannois,95110,16 rue Georges Clemenceau,Val-d'Oise,fr,,01 39 82 90 67,,"[[u'Social', u'Arts', u'Art Dealers and Galleries']]"
0,Lecard Michel,Sannois,95110,21 rue Diderot,Val-d'Oise,fr,,06 63 74 35 15,,"[[u'Social', u'Arts', u'Art Dealers and Galleries']]"
0,Intemporelle,Sannois,95110,12 Ter boulevard Charles de Gaulle,Val-d'Oise,fr,,01 34 10 32 01,,"[[u'Social', u'Arts', u'Art Dealers and Galleries']]"
0,Isa Brocante,Sannois,95110,53 boulevard Gambetta,Val-d'Oise,fr,,06 60 83 59 82,,"[[u'Social', u'Arts', u'Art Dealers and Galleries']]"
0,Taupin Claude,Ermont,95120,21 rue de la République,Val-d'Oise,fr,,01 30 72 99 51,,"[[u'Social', u'Arts', u'Art Dealers and Galleries']]"
0,Antiquites Brocante 95,Ermont,95120,4 avenue Louise Eugenie,Val-d'Oise,fr,,01 30 72 25 48,http://www.antiquites-brocante-95.fr,"[[u'Social', u'Arts', u'Art Dealers and Galleries']]"
0,Bedou Daniel,Franconville,95130,6 rue Louise Michel,Val-d'Oise,fr,,09 51 74 29 43,,"[[u'Social', u'Arts', u'Art Dealers and Galleries']]"
0,Mardfeld Samuel,Franconville,95130,68 rue du Plessis-Bouchard,Val-d'Oise,fr,,01 34 13 60 62,,"[[u'Social', u'Arts', u'Art Dealers and Galleries']]"
0,Arts et Antiquités d'Alisson,Montmorency,95160,36 Bis rue de Groslay,Val-d'Oise,fr,,01 39 83 20 85,,"[[u'Social', u'Arts', u'Art Dealers and Galleries']]"
0,Art Vertical,Deuil La Barre,95170,87 rue Gallieni,Val-d'Oise,fr,,01 34 17 94 17,http://art-vertical.com,"[[u'Social', u'Arts', u'Art Dealers and Galleries']]"
0,Pouille Pierre,Herblay,95220,19 rue de la Loge,Val-d'Oise,fr,,01 39 97 36 05,,"[[u'Social', u'Arts', u'Art Dealers and Galleries']]"
0,La Fontaine des Arts,Herblay,95220,34 rue du Général de Gaulle,Val-d'Oise,fr,,01 34 50 79 18,,"[[u'Social', u'Arts', u'Art Dealers and Galleries']]"
0,Antiquités Gandon Michèle,Soisy sous Montmorency,95230,3 avenue Descartes,Val-d'Oise,fr,,06 32 15 49 15,,"[[u'Social', u'Arts', u'Art Dealers and Galleries']]"
0,Le Temps Jadis,Soisy sous Montmorency,95230,9 rue Louis Delamarre,Val-d'Oise,fr,,01 34 12 50 29,,"[[u'Social', u'Arts', u'Art Dealers and Galleries']]"
0,Traber Jean-Luc,Cormeilles en Parisis,95240,4 rue Thibault Chabrand,Val-d'Oise,fr,,01 39 82 57 09,,"[[u'Social', u'Arts', u'Art Dealers and Galleries']]"
0,Weinrich Stephane,Cormeilles en Parisis,95240,74 rue de Verdun,Val-d'Oise,fr,,06 07 95 29 84,,"[[u'Social', u'Arts', u'Art Dealers and Galleries']]"
0,Traber Jean-Luc,Cormeilles en Parisis,95240,13 rue Riera et Christy,Val-d'Oise,fr,,01 39 82 57 09,,"[[u'Social', u'Arts', u'Art Dealers and Galleries']]"
0,Lange Jean Claude,Beauchamp,95250,173 Chaussee Jules Cesar,Val-d'Oise,fr,,01 39 60 94 65,,"[[u'Social', u'Arts', u'Art Dealers and Galleries']]"
0,Ayoub Elie,Jouy le Moutier,95280,17 rue des Narcisses,Val-d'Oise,fr,,01 30 30 34 75,,"[[u'Social', u'Arts', u'Art Dealers and Galleries']]"
0,Mace Dominique,L'Isle Adam,95290,24 rue Saint Lazare,Val-d'Oise,fr,,01 34 08 24 76,,"[[u'Social', u'Arts', u'Art Dealers and Galleries']]"
0,Hôtel des Ventes de Pontoise Aponem,Pontoise,95300,3 Bis rue Saint Martin,Val-d'Oise,fr,,01 34 42 14 50,http://www.aponem.com,"[[u'Social', u'Arts', u'Art Dealers and Galleries']]"
0,RM Antiquités,Pontoise,95300,33 rue de l'Hôtel de Ville,Val-d'Oise,fr,,01 34 24 08 68,,"[[u'Social', u'Arts', u'Art Dealers and Galleries']]"
0,The Storage,Saint Ouen l'Aumône,95310,38 avenue du Fond de Vaux,Val-d'Oise,fr,,01 39 09 99 23,http://www.pasquaphilippe.com,"[[u'Social', u'Arts', u'Art Dealers and Galleries']]"
0,Au Passé Présent,Saint Leu la Forêt,95320,7 rue de la Forge,Val-d'Oise,fr,,01 39 60 61 36,,"[[u'Social', u'Arts', u'Art Dealers and Galleries']]"
0,Antiquaire du Village,Saint Leu la Forêt,95320,23 rue du Général Leclerc,Val-d'Oise,fr,,01 39 60 53 16,,"[[u'Social', u'Arts', u'Art Dealers and Galleries']]"
0,Communauté d'Emmaüs,Bernes sur Oise,95340,9 chemin Pavé,Val-d'Oise,fr,,01 30 28 67 20,http://www.emmaus95.fr,"[[u'Social', u'Arts', u'Art Dealers and Galleries']]"
0,C.R.C,Louvres,95380,avenue de la Gare,Val-d'Oise,fr,,01 34 72 49 50,,"[[u'Social', u'Arts', u'Art Dealers and Galleries']]"
0,Antiquites Brocantes de Saint Prix,Saint Prix,95390,2 rue d'Ermont,Val-d'Oise,fr,,01 39 59 55 00,http://www.antiquite-brocante-saint-prix.fr,"[[u'Social', u'Arts', u'Art Dealers and Galleries']]"
0,Marinesse Simone,Groslay,95410,38 rue du Général Leclerc,Val-d'Oise,fr,,01 39 83 52 62,,"[[u'Social', u'Arts', u'Art Dealers and Galleries']]"
0,Le Grenier de Magny,Magny en Vexin,95420,14 route Departeme Zone Artisanale Sortie,Val-d'Oise,fr,,01 34 67 30 32,http://www.greniermagny.com,"[[u'Social', u'Arts', u'Art Dealers and Galleries']]"
0,Un Certain Regard,Auvers Sur Oise,95430,2 rue Montmaur,Val-d'Oise,fr,,06 71 17 06 13,http://www.certain-regard.com,"[[u'Social', u'Arts', u'Art Dealers and Galleries']]"
0,Commune de Auvers sur Oise Mairie,Auvers sur Oise,95430,5 rue du Montcel,Val-d'Oise,fr,,01 30 36 13 46,,"[[u'Social', u'Arts', u'Art Dealers and Galleries']]"
0,Com'N Roll,Auvers sur Oise,95430,2 rue de l'Église,Val-d'Oise,fr,,01 34 42 21 86,,"[[u'Social', u'Arts', u'Art Dealers and Galleries']]"
0,Galerie d'Arts du Vexin,Vigny,95450,8 rue du Général Leclerc,Val-d'Oise,fr,,01 30 39 24 34,http://www.galeriedarts-duvexin.fr,"[[u'Social', u'Arts', u'Art Dealers and Galleries']]"
0,La Couleuvrine,Longuesse,95450,49 Grande rue,Val-d'Oise,fr,,01 30 39 21 31,,"[[u'Social', u'Arts', u'Art Dealers and Galleries']]"
0,Decramp,Vigny,95450,8 rue Géneral Leclerc,Val-d'Oise,fr,,09 75 61 88 12,http://www.galeriedarts-duvexin.fr,"[[u'Social', u'Arts', u'Art Dealers and Galleries']]"
0,Fleuron,Ableiges,95450,8 rue de l'Eglise Villeneuve Saint Martin,Val-d'Oise,fr,,09 64 04 99 85,,"[[u'Social', u'Arts', u'Art Dealers and Galleries']]"
0,La Maison d'Art,,95450,6 place du Commerce,Val-d'Oise,fr,,01 30 27 93 90,,"[[u'Social', u'Arts', u'Art Dealers and Galleries']]"
0,Marianne Antiquités Brocante,Vauréal,95490,11 rue des Marais,Val-d'Oise,fr,,01 30 38 62 49,,"[[u'Social', u'Arts', u'Art Dealers and Galleries']]"
0,Gravier Philippe,Saint Cyr en Arthies,95510,8 rue de la Grande Vallée,Val-d'Oise,fr,,09 63 29 97 59,http://www.philippegravier.com/,"[[u'Social', u'Arts', u'Art Dealers and Galleries']]"
0,Gardie Pascal,Amenucourt,95510,39 rue des Moulins,Val-d'Oise,fr,,01 34 78 14 28,http://www.gardie-brocante-debarras.fr,"[[u'Social', u'Arts', u'Art Dealers and Galleries']]"
0,Roulet Eric,Eaubonne,95600,16 rue Ernest Renan,Val-d'Oise,fr,,01 34 06 04 39,,"[[u'Social', u'Arts', u'Art Dealers and Galleries']]"
0,Delorme Michel,Eaubonne,95600,10 avenue de la Liberté,Val-d'Oise,fr,,01 39 59 87 76,,"[[u'Social', u'Arts', u'Art Dealers and Galleries']]"
0,Sorin Francis,Champagne sur Oise,95660,25 rue Aire,Val-d'Oise,fr,,01 34 70 31 11,,"[[u'Social', u'Arts', u'Art Dealers and Galleries']]"
0,Artco-France,Ambleville,95710,2 rue de la Mairie,Val-d'Oise,fr,,01 30 27 31 31,http://www.artcofrance.fr,"[[u'Social', u'Arts', u'Art Dealers and Galleries']]"
0,Antiquités Pierre Salles,Ambleville,95710,Grande rue le Vaumion,Val-d'Oise,fr,,01 34 67 91 69,,"[[u'Social', u'Arts', u'Art Dealers and Galleries']]"
0,Galerie d'art Henot,Enghien Les Bains,95880,14 rue de Mora,Val-d'Oise,fr,,01 34 12 69 96,http://www.galeriehenot.com,"[[u'Social', u'Arts', u'Art Dealers and Galleries']]"
0,Armand Philippe,Enghien les Bains,95880,183 avenue de la Division Leclerc,Val-d'Oise,fr,,01 39 64 12 34,,"[[u'Social', u'Arts', u'Art Dealers and Galleries']]"
0,Centre Culturel François Villon,Enghien les Bains,95880,32 avenue de Ceinture,Val-d'Oise,fr,,01 34 17 63 04,,"[[u'Social', u'Arts', u'Art Dealers and Galleries']]"
0,Antiquites Gandon Michele,Enghien Les Bains,95880,8 avenue Carlier,Val-d'Oise,fr,,06 32 15 49 15,,"[[u'Social', u'Arts', u'Art Dealers and Galleries']]"
0,Le Grenier d'Enghien,Enghien les Bains,95880,32 boulevard Ormesson,Val-d'Oise,fr,,06 61 14 77 15,,"[[u'Social', u'Arts', u'Art Dealers and Galleries']]"
0,Tilche Jean Marc,Carcassonne,11000,37 Bis rue Trivalle,Aude,fr,,04 68 47 36 36,,"[[u'Social', u'Arts', u'Art Dealers and Galleries']]"
0,La Cuverie,Carcassonne,11000,208 Bis avenue du Général Leclerc,Aude,fr,,04 68 71 89 71,,"[[u'Social', u'Arts', u'Art Dealers and Galleries']]"
0,Hoarau Christophe,Carcassonne,11000,97 rue Aimé Ramond,Aude,fr,,04 34 58 91 10,,"[[u'Social', u'Arts', u'Art Dealers and Galleries']]"
0,Patines Déco,Carcassonne,11000,73 rue de Verdun,Aude,fr,,06 88 38 40 94,,"[[u'Social', u'Arts', u'Art Dealers and Galleries']]"
0,Rouch Yves,Carcassonne,11000,73 rue de Verdun,Aude,fr,,04 68 25 44 48,,"[[u'Social', u'Arts', u'Art Dealers and Galleries']]"
0,Ferrié Raymond,Carcassonne,11000,13 rue Masséna,Aude,fr,,04 68 25 71 56,,"[[u'Social', u'Arts', u'Art Dealers and Galleries']]"
0,S.A.F.I.,Carcassonne,11000,54 rue de Verdun,Aude,fr,,04 68 25 60 51,,"[[u'Social', u'Arts', u'Art Dealers and Galleries']]"
0,Je Reviens Dans Un Quart d'Heure,Carcassonne,11000,11 rue Cros Mayrevieille,Aude,fr,,04 68 25 39 80,http://www.zandart.com,"[[u'Social', u'Arts', u'Art Dealers and Galleries']]"
0,Perrotton Serge,Narbonne,11100,10 rue Emile Zola,Aude,fr,,04 68 32 40 49,,"[[u'Social', u'Arts', u'Art Dealers and Galleries']]"
0,Antiquité Galerie Lutèce,Narbonne,11100,27 rue de l'Ancien Courrier,Aude,fr,,04 68 32 55 68,,"[[u'Social', u'Arts', u'Art Dealers and Galleries']]"
0,Mairie la Poudrière Salle d'expositions,Narbonne,11100,rue Anc Porte Neuve,Aude,fr,,04 68 32 64 82,http://www.mairie-narbonne.fr,"[[u'Social', u'Arts', u'Art Dealers and Galleries']]"
0,L'Etangd'art,Bages,11100,8 rue de l' Ancien Puits,Aude,fr,,04 68 42 81 11,http://www.letangdart.com,"[[u'Social', u'Arts', u'Art Dealers and Galleries']]"
0,Le Philippard,Narbonne,11100,27 rue Calixte Camelle,Aude,fr,,04 68 90 47 41,,"[[u'Social', u'Arts', u'Art Dealers and Galleries']]"
0,Commune de Narbonne,Narbonne,11100,Hotel de Ville place de l'Hotel de Ville,Aude,fr,,04 68 90 30 30,http://www.mairie-narbonne.fr,"[[u'Social', u'Arts', u'Art Dealers and Galleries']]"
0,Le Pont des Arts,Narbonne,11100,12 rue Baudin,Aude,fr,,04 68 49 19 55,,"[[u'Social', u'Arts', u'Art Dealers and Galleries']]"
0,Antiquité Gaudi,Argeliers,11120,14 rue de Jurio,Aude,fr,,04 68 33 34 86,,"[[u'Social', u'Arts', u'Art Dealers and Galleries']]"
0,Antiquité le Castel à Villepinte,Villepinte,11150,route Nationale 113,,fr,,04 68 94 24 96,http://www.le-castel.fr,"[[u'Social', u'Arts', u'Art Dealers and Galleries']]"
0,Rencontre et Création Contemporain,Montolieu,11170,route Alzonne,Aude,fr,,04 68 78 96 29,,"[[u'Social', u'Arts', u'Art Dealers and Galleries']]"
0,Trauque Betty,Lézignan Corbières,11200,route Carcassonne,Aude,fr,,04 68 27 05 93,,"[[u'Social', u'Arts', u'Art Dealers and Galleries']]"
0,Trauque Betty,Lézignan Corbières,11200,la Bouissonne,Aude,fr,,04 68 27 15 29,,"[[u'Social', u'Arts', u'Art Dealers and Galleries']]"
0,Les Vieux Clous,Lézignan Corbières,11200,route de Narbonne,Aude,fr,,06 85 86 31 36,,"[[u'Social', u'Arts', u'Art Dealers and Galleries']]"
0,Le Relais des Oliviers,Cailhau,11240,Résidence le Relais route Belvèze,Aude,fr,,04 68 69 06 51,,"[[u'Social', u'Arts', u'Art Dealers and Galleries']]"
0,Batel Bruno,Fanjeaux,11270,Domaine de Saint Roch,Aude,fr,,04 68 24 60 66,,"[[u'Social', u'Arts', u'Art Dealers and Galleries']]"
0,Gorgues,Fanjeaux,11270,rue du Lavoir,Aude,fr,,09 79 64 76 43,,"[[u'Social', u'Arts', u'Art Dealers and Galleries']]"
0,Brocante d'Antan,Fanjeaux,11270,rue du Lavoir,Aude,fr,,04 68 24 79 07,,"[[u'Social', u'Arts', u'Art Dealers and Galleries']]"
0,L'Histoire Au Present,Pieusse,11300,3 place du Concile Cathare,Aude,fr,,04 68 31 80 84,,"[[u'Social', u'Arts', u'Art Dealers and Galleries']]"
0,Devynck Jean-Louis,Bouriege,11300,route de Festes,Aude,fr,,04 68 74 08 87,,"[[u'Social', u'Arts', u'Art Dealers and Galleries']]"
0,Galerie Catherine Coustal,Villesèque des Corbières,11360,Grand'rue,Aude,fr,,04 68 45 81 92,,"[[u'Social', u'Arts', u'Art Dealers and Galleries']]"
0,Granier Didier,Castelnaudary,11400,70 rue Mauléon,Aude,fr,,04 68 94 10 87,,"[[u'Social', u'Arts', u'Art Dealers and Galleries']]"
0,Atelier Barberousse Jeanlin,Gruissan,11430,20 rue Espert,Aude,fr,,,,"[[u'Social', u'Arts', u'Art Dealers and Galleries']]"
0,Brocante de la Murelle,Roquefort des Corbières,11540,la Murelle,Aude,fr,,04 68 45 66 59,,"[[u'Social', u'Arts', u'Art Dealers and Galleries']]"
0,Broc'Art,Ouveillan,11590,1 rue du Moulin,Aude,fr,,06 60 36 42 17,,"[[u'Social', u'Arts', u'Art Dealers and Galleries']]"
0,Centre Méditérranéen de l'image,Malves en Minervois,11600,Enclos du Château,Aude,fr,,04 68 77 53 91,http://www.graph-cmi.org,"[[u'Social', u'Arts', u'Art Dealers and Galleries']]"
0,Rubio Ruben,Villemoustaussou,11620,256 chemin de la Brougo,Aude,fr,,09 62 06 33 37,,"[[u'Social', u'Arts', u'Art Dealers and Galleries']]"
0,Sarl du Chateau,Moux,11700,22 rue Jean Jaurès,Aude,fr,,06 07 80 79 59,,"[[u'Social', u'Arts', u'Art Dealers and Galleries']]"
0,Giacomel Jean-Claude,Trèbes,11800,2 route de Narbonne,Aude,fr,,04 68 76 99 32,,"[[u'Social', u'Arts', u'Art Dealers and Galleries']]"
0,Le Zo,Nîmes,30000,18 rue de l'Agau,Gard,fr,,09 73 64 26 81,http://www.zoanima.fr,"[[u'Social', u'Arts', u'Art Dealers and Galleries']]"
0,Broc'Antic,Nîmes,30000,19 rue du Chapitre,Gard,fr,,04 66 29 95 87,,"[[u'Social', u'Arts', u'Art Dealers and Galleries']]"
0,Brocantic,Nîmes,30000,29 rue des Lombards,Gard,fr,,04 66 21 05 85,,"[[u'Social', u'Arts', u'Art Dealers and Galleries']]"
0,Moline Florian,Nîmes,30000,28 Bis rue Saint Rémi,Gard,fr,,04 66 70 02 14,,"[[u'Social', u'Arts', u'Art Dealers and Galleries']]"
0,Rouflay Pierrette,Nîmes,30000,13 rue Emile Jamais,Gard,fr,,04 66 67 91 90,,"[[u'Social', u'Arts', u'Art Dealers and Galleries']]"
0,Bonnet Christiane,Nîmes,30000,1 rue de la Violette,Gard,fr,,04 66 21 73 14,,"[[u'Social', u'Arts', u'Art Dealers and Galleries']]"
0,Quintana Georges,Nîmes,30000,76 rue de la République,Gard,fr,,06 89 89 60 48,,"[[u'Social', u'Arts', u'Art Dealers and Galleries']]"
0,La Vigie,Nîmes,30000,32 rue Clérisseau,Gard,fr,,04 66 21 76 37,,"[[u'Social', u'Arts', u'Art Dealers and Galleries']]"
0,Antiquités Blanchard,Nîmes,30000,6 rue Régale,Gard,fr,,04 66 21 84 46,,"[[u'Social', u'Arts', u'Art Dealers and Galleries']]"
0,Chez moi Chez toi,Nîmes,30000,9 rue Gauthier,Gard,fr,,06 22 34 76 05,http://www.chezmoicheztoi.net,"[[u'Social', u'Arts', u'Art Dealers and Galleries']]"
0,Via Antica,Nîmes,30000,3 rue Saint Castor,Gard,fr,,06 62 25 24 65,,"[[u'Social', u'Arts', u'Art Dealers and Galleries']]"
0,Gervais Incentive,Nîmes,30000,6 rue de la Fresque,Gard,fr,,04 66 23 55 58,,"[[u'Social', u'Arts', u'Art Dealers and Galleries']]"
0,Galerie Chapelle de la Salamandre,Nîmes,30000,3 place de la Salamandre,Gard,fr,,04 66 76 23 90,,"[[u'Social', u'Arts', u'Art Dealers and Galleries']]"
0,Antiquites Jocelyne Meurier,Nîmes,30000,61 rue Pierre Semard,Gard,fr,,04 66 76 13 60,,"[[u'Social', u'Arts', u'Art Dealers and Galleries']]"
0,Antiquités Delor,Nîmes,30000,26 rue Pierre Semard,Gard,fr,,04 66 21 27 72,,"[[u'Social', u'Arts', u'Art Dealers and Galleries']]"
0,Galerie de l'Aspic,Nîmes,30000,25 rue de l'Aspic,Gard,fr,,04 66 21 52 59,,"[[u'Social', u'Arts', u'Art Dealers and Galleries']]"
0,Gervais Materiaux,Nîmes,30000,6 rue Fresque,Gard,fr,,04 66 36 05 18,,"[[u'Social', u'Arts', u'Art Dealers and Galleries']]"
0,Les Années de l'Or à Nîmes,Nîmes,30000,161 Impasse de Calvas,Gard,fr,,04 66 67 72 04,http://www.atelier-deco-industriel-nimes.fr,"[[u'Social', u'Arts', u'Art Dealers and Galleries']]"
0,Galerie Ombres,Nîmes,30000,1 rue de Bernis,Gard,fr,,04 66 64 76 24,,"[[u'Social', u'Arts', u'Art Dealers and Galleries']]"
0,Comme Un Lac Gele,Nîmes,30000,14 rue des Marchands,Gard,fr,,04 66 36 76 49,,"[[u'Social', u'Arts', u'Art Dealers and Galleries']]"
0,Bazin Jean-Michel,Nîmes,30000,8 rue de Condé,Gard,fr,,04 66 21 04 19,,"[[u'Social', u'Arts', u'Art Dealers and Galleries']]"
0,Lopez Antiquités à Nîmes,Nîmes,30000,9 place Chateau,Gard,fr,,06 12 27 07 98,,"[[u'Social', u'Arts', u'Art Dealers and Galleries']]"
0,Andevert Christian,Nîmes,30000,17 B rue de la Tour Magne,Gard,fr,,09 52 65 15 52,,"[[u'Social', u'Arts', u'Art Dealers and Galleries']]"
0,Déco-broc à Nîmes,Nîmes,30000,292 chemin Reservoir,Gard,fr,,04 66 27 13 96,,"[[u'Social', u'Arts', u'Art Dealers and Galleries']]"
0,Objets d'Hier Ambiance d'Aujoud'hui à Nîmes,Nîmes,30000,6 rue Tedenat,Gard,fr,,06 30 40 81 10,,"[[u'Social', u'Arts', u'Art Dealers and Galleries']]"
0,Galerie Testard Letetu,Nîmes,30000,42 boulevard Gambetta,Gard,fr,,,,"[[u'Social', u'Arts', u'Art Dealers and Galleries']]"
0,La Belle Epoque,Alès,30100,33 avenue Carnot,Gard,fr,,04 66 86 73 89,,"[[u'Social', u'Arts', u'Art Dealers and Galleries']]"
0,Galerie 15,Alès,30100,15 rue Edgar Quinet,Gard,fr,,04 66 30 39 74,,"[[u'Social', u'Arts', u'Art Dealers and Galleries']]"
0,Chapon Philippe,Alès,30100,10 rue Michelet,Gard,fr,,09 61 69 09 17,,"[[u'Social', u'Arts', u'Art Dealers and Galleries']]"
0,Ad Lib,Alès,30100,14 boulevard Louis Blanc,Gard,fr,,04 66 30 28 75,,"[[u'Social', u'Arts', u'Art Dealers and Galleries']]"
0,Galerie Terre et Toiles,Alès,30100,19 rue du Dix Neuf Mars 1962,Gard,fr,,04 66 52 33 15,,"[[u'Social', u'Arts', u'Art Dealers and Galleries']]"
0,Gard'robe Association de Créateurs,Alès,30100,32 rue de Beauteville,Gard,fr,,06 20 34 67 06,,"[[u'Social', u'Arts', u'Art Dealers and Galleries']]"
0,Galerie d'Art Contemporain l'Arche,Alès,30100,9 rue Albert 1 Er,Gard,fr,,04 66 52 82 36,,"[[u'Social', u'Arts', u'Art Dealers and Galleries']]"
0,L'Atelier de l'Ebeniste,Le Vigan,30120,route du Pont de la Croix,Gard,fr,,04 67 81 82 85,,"[[u'Social', u'Arts', u'Art Dealers and Galleries']]"
0,Mèze Yoland,Tavel,30126,rue de la Condamine,Gard,fr,,04 66 50 21 71,,"[[u'Social', u'Arts', u'Art Dealers and Galleries']]"
0,Pont Dépôt Ventes,Pont Saint Esprit,30130,18 avenue Kennedy,Gard,fr,,04 66 39 03 55,,"[[u'Social', u'Arts', u'Art Dealers and Galleries']]"
0,Antiquités Suau,Saint Paulet de Caisson,30130,320 chem Bretau,Gard,fr,,06 89 82 33 07,,"[[u'Social', u'Arts', u'Art Dealers and Galleries']]"
0,La Brocante de Provence,Saint Paulet De Caisson,30130,Cantarelle,Gard,fr,,04 66 39 17 21,,"[[u'Social', u'Arts', u'Art Dealers and Galleries']]"
0,Laugier Pascal Brocante,Pujaut,30131,chemin des Plaines,Gard,fr,,04 90 26 36 08,,"[[u'Social', u'Arts', u'Art Dealers and Galleries']]"
0,Paparin Jean-Paul,Caissargues,30132,13 rue du Galoubet,Gard,fr,,04 66 64 31 68,,"[[u'Social', u'Arts', u'Art Dealers and Galleries']]"
0,Alméras Jacky,Anduze,30140,630 chemin de Veyrac,Gard,fr,,04 66 60 66 84,http://www.grandcheneantic.com,"[[u'Social', u'Arts', u'Art Dealers and Galleries']]"
0,Genolhac Olivier,Massillargues Attuech,30140,5 Lotissement les Vignes,Gard,fr,,04 66 60 82 38,,"[[u'Social', u'Arts', u'Art Dealers and Galleries']]"
0,Arietti Antiquités,Massillargues Attuech,30140,1 rue Canonge,Gard,fr,,06 13 16 09 79,,"[[u'Social', u'Arts', u'Art Dealers and Galleries']]"
0,Sulis Christian,Bagard,30140,38 bis chemin de la Rouviérette,Gard,fr,,04 66 83 84 97,,"[[u'Social', u'Arts', u'Art Dealers and Galleries']]"
0,Kesaco,Bagard,30140,241 route d'Anduze,Gard,fr,,04 66 60 66 33,,"[[u'Social', u'Arts', u'Art Dealers and Galleries']]"
0,Atelier du Châpitre à Roquemaure,Roquemaure,30150,16 rue Guise le Balafré,Gard,fr,,04 66 82 83 41,,"[[u'Social', u'Arts', u'Art Dealers and Galleries']]"
0,Montanari Claude,Saint Hippolyte du Fort,30170,rue Blanquerie,Gard,fr,,04 66 77 22 41,,"[[u'Social', u'Arts', u'Art Dealers and Galleries']]"
0,Art Castillon,Castillon Du Gard,30210,45 chemin de la Berrette,Gard,fr,,06 70 01 47 92,http://www.art-castillon.fr,"[[u'Social', u'Arts', u'Art Dealers and Galleries']]"
0,Serret Frederic,Cabrières,30210,141 rue du Général de Gaulle,Gard,fr,,04 66 75 04 99,,"[[u'Social', u'Arts', u'Art Dealers and Galleries']]"
0,Tuech Magali,Castillon du Gard,30210,chemin des Oliviers,Gard,fr,,04 66 37 29 65,,"[[u'Social', u'Arts', u'Art Dealers and Galleries']]"
0,Moulin Daniel,Sernhac,30210,125 route du Puits d'Agathe,Gard,fr,,04 66 68 29 90,,"[[u'Social', u'Arts', u'Art Dealers and Galleries']]"
0,Calame Lelievre Michele,Argilliers,30210,quartier chateau,Gard,fr,,04 66 22 95 32,,"[[u'Social', u'Arts', u'Art Dealers and Galleries']]"
0,Antiquites Brocante à Remoulins,Remoulins,30210,61 avenue Geoffroy Perret,Gard,fr,,04 66 37 34 50,,"[[u'Social', u'Arts', u'Art Dealers and Galleries']]"
0,Galerie Europ'Art,Aigues Mortes,30220,6 rue Marceau,Gard,fr,,04 66 53 88 92,http://www.galerie-europart.com,"[[u'Social', u'Arts', u'Art Dealers and Galleries']]"
0,Galerie Nicole Gogat,Aigues Mortes,30220,11 rue Pasteur,Gard,fr,,04 66 51 67 91,http://www.galerie-nicolegogat.com/,"[[u'Social', u'Arts', u'Art Dealers and Galleries']]"
0,Az Arts Espace,Aigues Mortes,30220,4 place Saint Louis,Gard,fr,,04 66 53 61 98,,"[[u'Social', u'Arts', u'Art Dealers and Galleries']]"
0,Galerie Flo,Aigues Mortes,30220,5 rue de l'Amiral Courbet,Gard,fr,,04 66 35 15 96,,"[[u'Social', u'Arts', u'Art Dealers and Galleries']]"
0,Galerie Flo,Aigues Mortes,30220,4 rue Emile Jamais,Gard,fr,,04 66 35 15 96,,"[[u'Social', u'Arts', u'Art Dealers and Galleries']]"
0,Galerie Michelaine,Aigues Mortes,30220,4 rue République,Gard,fr,,,,"[[u'Social', u'Arts', u'Art Dealers and Galleries']]"
0,Galerie Nicole Gogat,Aigues Mortes,30220,5 rue Am Courbet,Gard,fr,,04 66 35 28 19,,"[[u'Social', u'Arts', u'Art Dealers and Galleries']]"
0,Galerie Nicole Gogat à Aigues-Mortes,Aigues Mortes,30220,15 rue Victor Hugo,Gard,fr,,04 66 93 08 35,,"[[u'Social', u'Arts', u'Art Dealers and Galleries']]"
0,JANSEN à Aigues-Mortes,Aigues Mortes,30220,6 rue Marceau,Gard,fr,,09 61 20 06 77,,"[[u'Social', u'Arts', u'Art Dealers and Galleries']]"
0,Galerie Z,Aigues Mortes,30220,4 place Saint Louis,Gard,fr,,04 66 53 86 68,,"[[u'Social', u'Arts', u'Art Dealers and Galleries']]"
0,Galerie H et d Nick,Aubais,30250,324 chemin du Mas de la Vieille,Gard,fr,,04 66 80 23 63,,"[[u'Social', u'Arts', u'Art Dealers and Galleries']]"
0,Brocante de Baillargues,Sommières,30250,4 rue Antonin Paris,Gard,fr,,06 08 58 40 20,,"[[u'Social', u'Arts', u'Art Dealers and Galleries']]"
0,Puces et brocante,Sommières,30250,4 rue Pavillon,Gard,fr,,06 76 82 11 21,,"[[u'Social', u'Arts', u'Art Dealers and Galleries']]"
0,Queyrichon Daniel,Vic Le Fesq,30260,Grande rue,Gard,fr,,04 66 53 40 09,,"[[u'Social', u'Arts', u'Art Dealers and Galleries']]"
0,Subts Olivier,Saint Jean du Gard,30270,8 rue des Bourgades,Gard,fr,,04 66 30 77 24,,"[[u'Social', u'Arts', u'Art Dealers and Galleries']]"
0,Art O Chat'o,Saint Jean du Gard,30270,Chateau de Cabrieres,Gard,fr,,06 30 21 74 51,,"[[u'Social', u'Arts', u'Art Dealers and Galleries']]"
0,Passe Laurent,Comps,30300,8 rue de l'Enclos,Gard,fr,,04 66 22 17 03,,"[[u'Social', u'Arts', u'Art Dealers and Galleries']]"
0,Paoli David,Beaucaire,30300,114 chemin Beauvoir,Gard,fr,,04 66 02 41 01,,"[[u'Social', u'Arts', u'Art Dealers and Galleries']]"
0,Bertrand Michèle,Cardet,30350,chemin Arnasseaux,Gard,fr,,06 88 87 46 17,,"[[u'Social', u'Arts', u'Art Dealers and Galleries']]"
0,Artverre,Vézénobres,30360,place de la Mairie,Gard,fr,,04 66 85 93 76,http://www.artverre.com,"[[u'Social', u'Arts', u'Art Dealers and Galleries']]"
0,Galerie Coup d'Oeil,Saint Christol Lès Alès,30380,544 avenue du Général Charles de Gaulle,Gard,fr,,04 66 60 80 45,http://www.antiquites.moreau.sitew.com,"[[u'Social', u'Arts', u'Art Dealers and Galleries']]"
0,Grandchamps Jean Louis,Aramon,30390,511 chemin du Rhône,Gard,fr,,06 29 62 23 95,,"[[u'Social', u'Arts', u'Art Dealers and Galleries']]"
0,Aramon Torrefaction,Aramon,30390,3 rue Paul Bert,Gard,fr,,04 66 57 51 37,,"[[u'Social', u'Arts', u'Art Dealers and Galleries']]"
0,Broc' Bazar,Meyrannes,30410,5 rue des Prunus,Gard,fr,,04 66 25 74 81,,"[[u'Social', u'Arts', u'Art Dealers and Galleries']]"
0,Ortiz Pierre,Calvisson,30420,3 place Halles,Gard,fr,,04 66 01 24 97,,"[[u'Social', u'Arts', u'Art Dealers and Galleries']]"
0,Galerie Meridienne,Méjannes le Clap,30430,20 place aux Herbes,Gard,fr,,06 64 31 35 72,http://www.galeriemeridienne.com/,"[[u'Social', u'Arts', u'Art Dealers and Galleries']]"
0,Antiquites Mas de Jurandes,Barjac,30430,rue Basse,Gard,fr,,04 66 24 50 65,,"[[u'Social', u'Arts', u'Art Dealers and Galleries']]"
0,Figuière Geneviève et Maurice,Lasalle,30460,le Campas,Gard,fr,,04 66 85 25 43,http://antiquitesbrocantelasalle.jimdo.com/,"[[u'Social', u'Arts', u'Art Dealers and Galleries']]"
0,Liron Jean-Louis,Saint Victor de Malcap,30500,5 rue de la Coste,Gard,fr,,04 66 24 33 28,,"[[u'Social', u'Arts', u'Art Dealers and Galleries']]"
0,L'Authentique,Saint Julien de Cassagnas,30500,43 allée des Mas,Gard,fr,,04 66 30 08 82,,"[[u'Social', u'Arts', u'Art Dealers and Galleries']]"
0,Liron Jean-Louis,Saint Martin de Valgalgues,30520,9 Traverse de Gévaudan,Gard,fr,,04 66 24 93 08,,"[[u'Social', u'Arts', u'Art Dealers and Galleries']]"
0,France Cash,Saint Hilaire de Brethmas,30560,1467 route de Nîmes,Gard,fr,,04 66 61 37 02,,"[[u'Social', u'Arts', u'Art Dealers and Galleries']]"
0,La Floriane,Sauve,30610,6 rue de la Curaterie,Gard,fr,,04 66 51 48 96,,"[[u'Social', u'Arts', u'Art Dealers and Galleries']]"
0,Katan Yuli,Sauve,30610,4 rue des Bourgades,Gard,fr,,04 66 88 76 33,,"[[u'Social', u'Arts', u'Art Dealers and Galleries']]"
0,H.I.C Antiquités,Saze,30650,la Begude de Saze route Nationale 100,Gard,fr,,04 90 31 85 13,,"[[u'Social', u'Arts', u'Art Dealers and Galleries']]"
0,Terra Viva,Saint Quentin la Poterie,30700,14 rue de la Fontaine,Gard,fr,,04 66 22 48 78,http://www.terraviva.fr,"[[u'Social', u'Arts', u'Art Dealers and Galleries']]"
0,Servans,Uzès,30700,20 rue de la Petite Bourgade,Gard,fr,,09 71 44 32 46,,"[[u'Social', u'Arts', u'Art Dealers and Galleries']]"
0,Bear Galerie,Uzès,30700,12 rue Paul Foussat,Gard,fr,,09 81 00 60 00,,"[[u'Social', u'Arts', u'Art Dealers and Galleries']]"
0,Tout Autre Chose,Uzès,30700,6 rue Saint Etienne,Gard,fr,,04 66 22 76 16,,"[[u'Social', u'Arts', u'Art Dealers and Galleries']]"
0,Ollier Gérard,Uzès,30700,7 boulevard Alliés,Gard,fr,,04 66 68 07 35,,"[[u'Social', u'Arts', u'Art Dealers and Galleries']]"
0,Antiquités du Duché d' Uzès à Uzès,Uzès,30700,5 boulevard Charles Gide,Gard,fr,,04 66 62 38 99,,"[[u'Social', u'Arts', u'Art Dealers and Galleries']]"
0,Charmasson Danielle,Uzès,30700,7 rue Saint Etienne,Gard,fr,,06 08 54 07 31,,"[[u'Social', u'Arts', u'Art Dealers and Galleries']]"
0,Tribouillois Brigitte,Saint Quentin la Poterie,30700,14 rue Fontaine,Gard,fr,,09 72 91 25 68,,"[[u'Social', u'Arts', u'Art Dealers and Galleries']]"
0,Antiquites peron,Saint Gilles,30800,5 rue des Templiers,Gard,fr,,06 80 18 89 21,,"[[u'Social', u'Arts', u'Art Dealers and Galleries']]"
0,Moreau Brocante,Clarensac,30870,337 rue 19 Mars 1962,Gard,fr,,04 66 02 47 75,,"[[u'Social', u'Arts', u'Art Dealers and Galleries']]"
0,Corps et Ame Gallery,Nîmes,30900,1 bis rue Émile Jamais,Gard,fr,,09 81 89 52 38,http://www.corpsetamegallery.com,"[[u'Social', u'Arts', u'Art Dealers and Galleries']]"
0,Troc A Nimes,Nîmes,30900,205 boulevard Francais Libres Rd Pt Kenned,Gard,fr,,04 66 62 00 77,https://www.kiala.fr/,"[[u'Social', u'Arts', u'Art Dealers and Galleries']]"
0,Galerie Audrey Carbo,Nîmes,30900,4 place d'Assas,Gard,fr,,04 11 83 20 45,http://www.audreycarbo.fr,"[[u'Social', u'Arts', u'Art Dealers and Galleries']]"
0,Artothèque Sud,Nîmes,30900,9 rue Emile Jamais,Gard,fr,,04 66 76 02 01,,"[[u'Social', u'Arts', u'Art Dealers and Galleries']]"
0,Gribinski Philippe,Nîmes,30900,5 rue Bigot,Gard,fr,,06 07 30 33 16,,"[[u'Social', u'Arts', u'Art Dealers and Galleries']]"
0,Cash Express,Nîmes,30900,134 cours Jean Monnet,Gard,fr,,04 66 38 02 02,,"[[u'Social', u'Arts', u'Art Dealers and Galleries']]"
0,Stetbay,Nîmes,30900,6 rue Molière,Gard,fr,,04 30 67 88 24,,"[[u'Social', u'Arts', u'Art Dealers and Galleries']]"
0,Galerie des Arts,Nîmes,30900,7 rue Jean Baptiste Godin,Gard,fr,,04 66 21 76 63,,"[[u'Social', u'Arts', u'Art Dealers and Galleries']]"
0,Alexandre Antiquités Brocante à Nîmes,Nîmes,30900,1154 A avenue Maréchal Juin,Gard,fr,,06 26 97 71 51,http://alexandre.nimes.free.fr/,"[[u'Social', u'Arts', u'Art Dealers and Galleries']]"
0,Troc Fouille,Les Mages,30960,Larnac Est,Gard,fr,,04 66 52 36 05,http://www.trocfouille-brocante.com,"[[u'Social', u'Arts', u'Art Dealers and Galleries']]"
0,Brocante de la Vaunage,Langlade,30980,255 chemin de Saint Dionisy,Gard,fr,,04 66 81 56 26,,"[[u'Social', u'Arts', u'Art Dealers and Galleries']]"
0,Montana Shop & Gallery,Montpellier,34000,11 rue d'Alger,Hérault,fr,,04 67 59 56 84,http://www.montana-gallery-montpellier.com,"[[u'Social', u'Arts', u'Art Dealers and Galleries']]"
0,C & F Jacquemart,Montpellier,34000,21 rue de la Loge,Hérault,fr,,04 67 52 98 64,http://www.jacquemart-expertise.fr,"[[u'Social', u'Arts', u'Art Dealers and Galleries']]"
0,Carré Sainte Anne,Montpellier,34000,2 rue Philippy,Hérault,fr,,04 67 60 82 11,http://www.montpellier.fr/505-les-expos-du-carre-sainte-anne.htm,"[[u'Social', u'Arts', u'Art Dealers and Galleries']]"
0,Galerie d'Art Reno,Montpellier,34000,10 rue Saint Firmin,Hérault,fr,,04 67 66 37 30,http://galerie-reno.com,"[[u'Social', u'Arts', u'Art Dealers and Galleries']]"
0,Le Pavillon Populaire,Montpellier,34000,Esplanade Charles de Gaulle,Hérault,fr,,04 67 66 13 46,http://www.montpellier.fr/TPL_CODE/TPL_ANNUAIRE/PAR_TPL_IDENTIFIANT/555/300-salles-d-expo-galeries-d-art-a-montpellier.htm,"[[u'Social', u'Arts', u'Art Dealers and Galleries']]"
0,Galerie de l'Ecusson,Montpellier,34000,11 rue de l'Ancien Courrier,Hérault,fr,,04 67 52 80 14,http://www.galerie-ecusson.com,"[[u'Social', u'Arts', u'Art Dealers and Galleries']]"
0,Galerie Annie Gabrielli,Montpellier,34000,33 avenue François Delmas,Hérault,fr,,06 71 28 53 24,http://www.galerieanniegabrielli.com/,"[[u'Social', u'Arts', u'Art Dealers and Galleries']]"
0,Callu Nicolas,Montpellier,34000,11 rue d'Alger,Hérault,fr,,04 67 59 56 84,http://www.montana-gallery-montpellier.com,"[[u'Social', u'Arts', u'Art Dealers and Galleries']]"
0,Caparros Obdulia,Montpellier,34000,13 boulevard du Jeu de Paume,Hérault,fr,,04 67 02 87 92,http://www.artgalerie13.com,"[[u'Social', u'Arts', u'Art Dealers and Galleries']]"
0,Archéologie Monnaies Médailles,Montpellier,34000,19 rue du Palais des Guilhem,Hérault,fr,,04 67 66 02 92,http://www.antiquites-monnaies-medailles.com,"[[u'Social', u'Arts', u'Art Dealers and Galleries']]"
0,Dolono Ethnik,Montpellier,34000,1 rue Jacques d'Aragon,Hérault,fr,,09 51 37 67 20,http://www.dolonoethnik.com/,"[[u'Social', u'Arts', u'Art Dealers and Galleries']]"
0,Hamboise,Montpellier,34000,15 boulevard du Jeu de Paume,Hérault,fr,,04 67 86 05 33,http://www.galeriehambursinboisante.com,"[[u'Social', u'Arts', u'Art Dealers and Galleries']]"
0,Bonnet Christian,Montpellier,34000,14 rue Jules Latreilhe,Hérault,fr,,04 67 70 29 01,,"[[u'Social', u'Arts', u'Art Dealers and Galleries']]"
0,Soulier Marc,Montpellier,34000,6 rue du Palais des Guilhem,Hérault,fr,,04 67 60 46 81,,"[[u'Social', u'Arts', u'Art Dealers and Galleries']]"
0,Galerie Saint Ravy,Montpellier,34000,place Saint Ravy,Hérault,fr,,04 67 60 61 66,,"[[u'Social', u'Arts', u'Art Dealers and Galleries']]"
0,Judan,Montpellier,34000,4 rue Sainte Anne,Hérault,fr,,04 67 54 04 33,,"[[u'Social', u'Arts', u'Art Dealers and Galleries']]"
0,Galerie Hélène Trintignan,Montpellier,34000,21 rue Saint Guilhem,Hérault,fr,,04 67 60 57 18,http://www.galerietrintignan.com,"[[u'Social', u'Arts', u'Art Dealers and Galleries']]"
0,Art'Maniac,Montpellier,34000,6 rue Bonnier d'Alco,Hérault,fr,,04 67 92 22 18,,"[[u'Social', u'Arts', u'Art Dealers and Galleries']]"
0,Cubik la Galerie-Boutique,Montpellier,34000,6 rue des Teissiers,Hérault,fr,,04 11 75 05 77,http://www.cubik-lagalerieboutique.com,"[[u'Social', u'Arts', u'Art Dealers and Galleries']]"
0,AD Galerie,Montpellier,34000,40 all Alberto Giacometti,Hérault,fr,,09 67 23 61 93,http://adgalerie.com,"[[u'Social', u'Arts', u'Art Dealers and Galleries']]"
0,Boite Noire,Montpellier,34000,1 rue de la Carbonnerie,Hérault,fr,,04 67 66 25 87,http://www.leschantiersboitenoire.com,"[[u'Social', u'Arts', u'Art Dealers and Galleries']]"
0,Bertrand Ludivine,Montpellier,34000,5 rue Sainte Anne,Hérault,fr,,09 81 05 39 75,,"[[u'Social', u'Arts', u'Art Dealers and Galleries']]"
0,Antiquite Martin,Montpellier,34000,2 Impasse Saint Martial,Hérault,fr,,04 67 66 38 85,,"[[u'Social', u'Arts', u'Art Dealers and Galleries']]"
0,Espace Créativa,Montpellier,34000,50 rue Saint Guilhem,Hérault,fr,,04 67 60 21 08,,"[[u'Social', u'Arts', u'Art Dealers and Galleries']]"
0,Mongin,Montpellier,34000,3 rue de l'Ancien Courrier,Hérault,fr,,09 62 21 35 76,,"[[u'Social', u'Arts', u'Art Dealers and Galleries']]"
0,Garric Michel,Montpellier,34000,8 rue Foch,Hérault,fr,,04 67 66 25 51,,"[[u'Social', u'Arts', u'Art Dealers and Galleries']]"
0,Serge Fischer Antiquités,Montpellier,34000,5 rue du Plan du Palais,Hérault,fr,,04 67 60 42 10,,"[[u'Social', u'Arts', u'Art Dealers and Galleries']]"
0,Galerie du Galion,Montpellier,34000,12 rue Durand,Hérault,fr,,04 67 92 44 06,http://www.galion-import.com/,"[[u'Social', u'Arts', u'Art Dealers and Galleries']]"
0,Le Joubioux Yannick,Montpellier,34000,24 rue de la Méditerranée,Hérault,fr,,09 64 03 03 89,,"[[u'Social', u'Arts', u'Art Dealers and Galleries']]"
0,Therond Jean-Pierre,Montpellier,34000,38 boulevard Renouvier,Hérault,fr,,04 67 92 37 80,,"[[u'Social', u'Arts', u'Art Dealers and Galleries']]"
0,A comme Art,Montpellier,34000,4 rue Glaize,Hérault,fr,,04 34 26 01 24,,"[[u'Social', u'Arts', u'Art Dealers and Galleries']]"
0,Le Salon des Arts,Montpellier,34000,place du Marché aux Fleurs,Hérault,fr,,04 67 66 15 43,,"[[u'Social', u'Arts', u'Art Dealers and Galleries']]"
0,Galerie Hambursin-Boisanté,Montpellier,34000,15 boulevard du Jeu de Paume,Hérault,fr,,04 67 84 43 17,,"[[u'Social', u'Arts', u'Art Dealers and Galleries']]"
0,N 5 Galerie,Montpellier,34000,5 rue Sainte-Anne,Hérault,fr,,09 81 05 39 75,,"[[u'Social', u'Arts', u'Art Dealers and Galleries']]"
0,Garric Michel,Montpellier,34000,boulevard des Arceaux,Hérault,fr,,06 07 79 96 08,,"[[u'Social', u'Arts', u'Art Dealers and Galleries']]"
0,Galerie Mario Di Masso,Montpellier,34000,27 rue du Palais des Guilhem,Hérault,fr,,04 99 06 94 09,,"[[u'Social', u'Arts', u'Art Dealers and Galleries']]"
0,Jacques Coeur,Montpellier,34000,11 rue Jacques Coeur,Hérault,fr,,04 67 60 69 73,,"[[u'Social', u'Arts', u'Art Dealers and Galleries']]"
0,Arts Index Galerie N,Montpellier,34000,21 rue des Balances,Hérault,fr,,09 52 78 15 79,,"[[u'Social', u'Arts', u'Art Dealers and Galleries']]"
0,Espace Photo Angle Corum,Montpellier,34000,Esplanade Charles de Gaulle,Hérault,fr,,04 67 66 05 48,,"[[u'Social', u'Arts', u'Art Dealers and Galleries']]"
0,Hôtel des Ventes Montpellier Languedoc,Montpellier,34070,194 chemin de Poutingon,Hérault,fr,,04 67 47 28 00,http://www.hoteldesventesmontpellier.com,"[[u'Social', u'Arts', u'Art Dealers and Galleries']]"
0,Antiquite Art-Deconcept,Montpellier,34070,81 Impasse Baton Rouge,Hérault,fr,,06 66 31 65 89,,"[[u'Social', u'Arts', u'Art Dealers and Galleries']]"
0,Vasistas Galerie,Montpellier,34090,37 avenue Bouisson Bertrand,Hérault,fr,,06 75 49 19 58,http://www.vasistas.org,"[[u'Social', u'Arts', u'Art Dealers and Galleries']]"
0,Vasistas,Montpellier,34090,4 rue Chamayou,Hérault,fr,,04 99 61 17 20,http://www.vasistas.org/,"[[u'Social', u'Arts', u'Art Dealers and Galleries']]"
0,Artnew,Montpellier,34090,359 avenue des Frères Buhler,Hérault,fr,,06 12 20 27 50,,"[[u'Social', u'Arts', u'Art Dealers and Galleries']]"
0,Galerie de l'Hôtel de Wicque,Pézenas,34120,9 rue de la Foire,Hérault,fr,,04 67 98 83 28,,"[[u'Social', u'Arts', u'Art Dealers and Galleries']]"
0,Koenig Antiquité Brocante,Pézenas,34120,27 avenue de Verdun,Hérault,fr,,04 67 30 65 86,,"[[u'Social', u'Arts', u'Art Dealers and Galleries']]"
0,Antiquités les Cordeliers,Pézenas,34120,2 avenue de Verdun,Hérault,fr,,04 67 98 12 43,,"[[u'Social', u'Arts', u'Art Dealers and Galleries']]"
0,Galerie Feille,Pézenas,34120,11 rue de la Foire,Hérault,fr,,04 67 98 84 50,,"[[u'Social', u'Arts', u'Art Dealers and Galleries']]"
0,Fanfreluche,Pézenas,34120,10 avenue de Verdun,Hérault,fr,,04 67 98 93 05,,"[[u'Social', u'Arts', u'Art Dealers and Galleries']]"
0,Maison des Métiers d'art de l'Agglomération Hérault Méditerranée,Pézenas,34120,6 place Gambetta,Hérault,fr,,04 67 98 16 12,http://metiersdart.cahm.net,"[[u'Social', u'Arts', u'Art Dealers and Galleries']]"
0,Galerie de Pézenas,Pézenas,34120,17 avenue de Verdun,Hérault,fr,,06 10 66 89 80,,"[[u'Social', u'Arts', u'Art Dealers and Galleries']]"
0,De Latude Julien,Nézignan l'Évêque,34120,19 bis avenue de Pézenas,Hérault,fr,,04 67 09 48 45,,"[[u'Social', u'Arts', u'Art Dealers and Galleries']]"
0,Clermont Antiquités,Pézenas,34120,31 avenue de Verdun,Hérault,fr,,04 67 98 47 37,,"[[u'Social', u'Arts', u'Art Dealers and Galleries']]"
0,Labau Jean François,Pézenas,34120,12 rue du Faubourg Joseph André,Hérault,fr,,04 67 98 98 23,,"[[u'Social', u'Arts', u'Art Dealers and Galleries']]"
0,Galerie d'Art And Craft,Pézenas,34120,3 rue des Orfèvres,Hérault,fr,,06 83 82 74 93,,"[[u'Social', u'Arts', u'Art Dealers and Galleries']]"
0,La Brocante du siège,Pézenas,34120,9 avenue Verdun,Hérault,fr,,04 99 41 23 68,,"[[u'Social', u'Arts', u'Art Dealers and Galleries']]"
0,Verhoeven Bruno Dominique,Pézenas,34120,7 rue Plauche,Hérault,fr,,04 67 26 62 80,,"[[u'Social', u'Arts', u'Art Dealers and Galleries']]"
0,Galerie Anne Cros,Pézenas,34120,8 rue Francois Oustrin,Hérault,fr,,04 67 31 78 27,,"[[u'Social', u'Arts', u'Art Dealers and Galleries']]"
0,Moreau,Pézenas,34120,10 avenue de Verdun,Hérault,fr,,09 63 43 01 44,,"[[u'Social', u'Arts', u'Art Dealers and Galleries']]"
0,Antic Deco International,Loupian,34140,les Canisses,Hérault,fr,,04 67 43 90 27,,"[[u'Social', u'Arts', u'Art Dealers and Galleries']]"
0,Tritton,Mèze,34140,chemin du Romany,Hérault,fr,,09 63 43 08 78,,"[[u'Social', u'Arts', u'Art Dealers and Galleries']]"
0,Destand Norbert,Saint Jean de Fos,34150,7 avenue Gaston Brès,Hérault,fr,,04 67 57 47 57,,"[[u'Social', u'Arts', u'Art Dealers and Galleries']]"
0,La Malle de Lyane,Castries,34160,376 rue de la Manade,Hérault,fr,,04 67 04 81 74,,"[[u'Social', u'Arts', u'Art Dealers and Galleries']]"
0,Grusenmeyer Philippe,Boisseron,34160,415 avenue Folco de Baroncelli,Hérault,fr,,04 67 86 55 33,,"[[u'Social', u'Arts', u'Art Dealers and Galleries']]"
0,Francois Desbois,Castelnau le Lez,34170,22 avenue Mélusine,Hérault,fr,,06 11 53 87 90,,"[[u'Social', u'Arts', u'Art Dealers and Galleries']]"
0,Sweety d Galerie à Castelnau-le-Lez,Castelnau le Lez,34170,33 rue Maréchal Massena,Hérault,fr,,06 09 83 62 80,,"[[u'Social', u'Arts', u'Art Dealers and Galleries']]"
0,Centre Régional d'Art Contemporain,Sète,34200,26 quai de l'Aspirant Herber,Hérault,fr,,04 67 74 94 37,http://crac.languedocroussillon.fr/,"[[u'Social', u'Arts', u'Art Dealers and Galleries']]"
0,Dock Sud,Sète,34200,2 quai de l'Aspirant Herber,Hérault,fr,,04 67 74 00 77,http://dock-sud.com,"[[u'Social', u'Arts', u'Art Dealers and Galleries']]"
0,Galerie Plurielle,Sète,34200,65 Grand'rue Mario Roustan,Hérault,fr,,04 67 43 37 71,,"[[u'Social', u'Arts', u'Art Dealers and Galleries']]"
0,Antiquités Brocantes le Phare,Sète,34200,216 avenue Gilbert Martelli,Hérault,fr,,04 67 74 16 40,,"[[u'Social', u'Arts', u'Art Dealers and Galleries']]"
0,Galerie Leonardo Agosti,Sète,34200,3 quai de l'Aspirant Herber,Hérault,fr,,06 83 91 10 63,,"[[u'Social', u'Arts', u'Art Dealers and Galleries']]"
0,La Farandole,Olonzac,34210,8 avenue de Béziers,Hérault,fr,,04 68 91 18 87,,"[[u'Social', u'Arts', u'Art Dealers and Galleries']]"
0,MANGIN à Oupia,Oupia,34210,15 avenue Mairie,Hérault,fr,,09 77 38 13 67,,"[[u'Social', u'Arts', u'Art Dealers and Galleries']]"
0,Vidal Gérard à Campagnan,Campagnan,34230,19 avenue Saint Pargoire,Hérault,fr,,04 67 25 17 24,,"[[u'Social', u'Arts', u'Art Dealers and Galleries']]"
0,Atelier Stephanie B,La Grande Motte,34280,20 avenue Pierre Racine,Hérault,fr,,04 67 12 20 82,,"[[u'Social', u'Arts', u'Art Dealers and Galleries']]"
0,Atelier Stephanie B,La Grande Motte,34280,20 rue Casino,Hérault,fr,,04 67 12 20 82,,"[[u'Social', u'Arts', u'Art Dealers and Galleries']]"
0,Galerie Terre et Toiles,La Grande Motte,34280,509 avenue de Melgueil,Hérault,fr,,04 67 56 02 76,,"[[u'Social', u'Arts', u'Art Dealers and Galleries']]"
0,Granier Olivier,Valros,34290,20 avenue de la Mer,Hérault,fr,,04 67 98 63 07,,"[[u'Social', u'Arts', u'Art Dealers and Galleries']]"
0,Fourment Christian,Montblanc,34290,109 avenue Agde,Hérault,fr,,04 67 98 54 91,,"[[u'Social', u'Arts', u'Art Dealers and Galleries']]"
0,Maison des Métiers d'art de l'Agglomération Hérault Méditerranée,Agde,34300,6 place Molière,Hérault,fr,,04 67 26 94 12,http://metiersdart.cahm.net,"[[u'Social', u'Arts', u'Art Dealers and Galleries']]"
0,Antiquite brocante c flanquart,Agde,34300,63 rue d'Alsace-Lorraine,Hérault,fr,,04 67 94 88 43,,"[[u'Social', u'Arts', u'Art Dealers and Galleries']]"
0,Galerie Regart,Agde,34300,quai Saint Martin,Hérault,fr,,04 67 77 04 79,,"[[u'Social', u'Arts', u'Art Dealers and Galleries']]"
0,Maison des Métiers d'art de l'Agglomération Hérault Méditerranée,Agde,34300,18 rue Jean Roger,Hérault,fr,,04 67 26 94 12,http://metiersdart.cahm.net,"[[u'Social', u'Arts', u'Art Dealers and Galleries']]"
0,Galerie Naja,Agde,34300,70 allée de la Flanerie,Hérault,fr,,04 67 00 00 61,,"[[u'Social', u'Arts', u'Art Dealers and Galleries']]"
0,Communauté Agglomération Hérault Méditerrannée,Agde,34300,18 rue Jean Roger,Hérault,fr,,04 67 26 94 14,http://metiersdart.cahm.net,"[[u'Social', u'Arts', u'Art Dealers and Galleries']]"
0,Galerie 14,Agde,34300,14 rue Louis Bages,Hérault,fr,,04 30 41 18 15,http://galerie14agde.e-monsite.com/,"[[u'Social', u'Arts', u'Art Dealers and Galleries']]"
0,Broc And Co,Agde,34300,3 Plan des Boucaniers,Hérault,fr,,06 64 64 82 36,,"[[u'Social', u'Arts', u'Art Dealers and Galleries']]"
0,Delongvert Bernard,Agde,34300,14 rue Louis Bages,Hérault,fr,,04 30 41 18 15,,"[[u'Social', u'Arts', u'Art Dealers and Galleries']]"
0,L.G.H,Valras Plage,34350,26 rue Charles Thomas,Hérault,fr,,04 67 01 67 61,,"[[u'Social', u'Arts', u'Art Dealers and Galleries']]"
0,Del Arte,Cazouls Lès Béziers,34370,31 Lotissement le Recphares,Hérault,fr,,04 67 26 33 58,,"[[u'Social', u'Arts', u'Art Dealers and Galleries']]"
0,Chet Phboucaud,Maraussan,34370,125 chemin du Stade,Hérault,fr,,04 67 90 32 83,,"[[u'Social', u'Arts', u'Art Dealers and Galleries']]"
0,Vansse Claire,Villeneuve Lès Béziers,34420,54 avenue Pierre Beregovoy,Hérault,fr,,04 67 26 13 72,,"[[u'Social', u'Arts', u'Art Dealers and Galleries']]"
0,Moureau Jean-Francois,Portiragnes,34420,14 rue Roger Alquier,Hérault,fr,,04 67 26 73 35,,"[[u'Social', u'Arts', u'Art Dealers and Galleries']]"
0,Los fomos à Portiragnes,Portiragnes,34420,14 rue Roger Alquier,Hérault,fr,,06 29 38 98 19,,"[[u'Social', u'Arts', u'Art Dealers and Galleries']]"
0,Galerie du Mas de Coulondres,Saint Jean de Védas,34430,41 route de Béziers,Hérault,fr,,04 67 27 25 12,http://www.galerie-mas-coulondres.com,"[[u'Social', u'Arts', u'Art Dealers and Galleries']]"
0,L'Atelier des Compagnons,Magalas,34480,50 avenue de la Gare,Hérault,fr,,04 67 28 54 79,,"[[u'Social', u'Arts', u'Art Dealers and Galleries']]"
0,Ascencio Karine,Murviel Lès Béziers,34490,Ancienne Station route Cazouls les Béziers,Hérault,fr,,06 11 53 78 19,,"[[u'Social', u'Arts', u'Art Dealers and Galleries']]"
0,Sweety pie gallery,Béziers,34500,66 allée Paul Riquet,Hérault,fr,,,,"[[u'Social', u'Arts']]"
0,Gayraud Dominique,Béziers,34500,63 avenue Georges Clemenceau,Hérault,fr,,04 67 28 20 46,http://www.gayrauddominique-antiquaire.com,"[[u'Social', u'Arts', u'Art Dealers and Galleries']]"
0,Brocante et Dépot du Taureau,Béziers,34500,21 avenue Jean Foucault Pae Capiscol,Hérault,fr,,04 67 01 21 21,http://www.brocante-depotdutaureau.com,"[[u'Social', u'Arts', u'Art Dealers and Galleries']]"
0,Antiquité Freitas Bruno,Béziers,34500,58 boulevard Frédéric Mistral,Hérault,fr,,04 67 28 16 47,http://www.antiquite-freitas.com,"[[u'Social', u'Arts', u'Art Dealers and Galleries']]"
0,La Trocante Sarl Maximeubles,Béziers,34500,rue du Picardan,Hérault,fr,,04 67 30 83 83,http://www.maximeubles-beziers.fr/,"[[u'Social', u'Arts', u'Art Dealers and Galleries']]"
0,Guillotin-alphonse Noël,Béziers,34500,10 place des Alliés,Hérault,fr,,04 67 49 13 59,,"[[u'Social', u'Arts', u'Art Dealers and Galleries']]"
0,De Barros José,Béziers,34500,18 Bis rue Debes,Hérault,fr,,04 67 28 26 57,,"[[u'Social', u'Arts', u'Art Dealers and Galleries']]"
0,Vigue Jean Luc,Béziers,34500,48 boulevard Frédéric Mistral,Hérault,fr,,06 82 43 24 77,,"[[u'Social', u'Arts', u'Art Dealers and Galleries']]"
0,Gautier Michel,Béziers,34500,2 boulevard Bertrand du Guesclin,Hérault,fr,,06 09 84 17 29,,"[[u'Social', u'Arts', u'Art Dealers and Galleries']]"
0,J'ose f,Béziers,34500,3 rue Rozier,Hérault,fr,,06 82 06 25 95,,"[[u'Social', u'Arts', u'Art Dealers and Galleries']]"
0,Bodrero Sylvie,Béziers,34500,5 rue du Chapeau Rouge,Hérault,fr,,04 67 36 22 56,,"[[u'Social', u'Arts', u'Art Dealers and Galleries']]"
0,Pastre Pierre,Béziers,34500,13 rue Viennet,Hérault,fr,,04 67 76 25 49,,"[[u'Social', u'Arts', u'Art Dealers and Galleries']]"
0,Blandin Edouard,Béziers,34500,13 rue des Balances,Hérault,fr,,04 34 99 59 79,,"[[u'Social', u'Arts', u'Art Dealers and Galleries']]"
0,Boris Antiquaire,Béziers,34500,10 place des Allies,Hérault,fr,,04 67 49 13 59,,"[[u'Social', u'Arts', u'Art Dealers and Galleries']]"
0,Antiquites Bonnin,Béziers,34500,52 boulevard Frederic Mistral,Hérault,fr,,04 67 28 33 50,,"[[u'Social', u'Arts', u'Art Dealers and Galleries']]"
0,Galerie Mercure,Béziers,34500,3 place des Trois Six,Hérault,fr,,04 30 41 43 43,,"[[u'Social', u'Arts', u'Art Dealers and Galleries']]"
0,Galerie Empreinte,Béziers,34500,48 boulevard Frederic Mistral,Hérault,fr,,04 67 49 99 31,,"[[u'Social', u'Arts', u'Art Dealers and Galleries']]"
0,A.D Galerie,Béziers,34500,7 place Jean Jaurès,Hérault,fr,,04 67 28 26 58,,"[[u'Social', u'Arts', u'Art Dealers and Galleries']]"
0,Art G,Béziers,34500,35 rue Paul Pellisson,Hérault,fr,,04 67 28 03 02,http://www.artg.fr,"[[u'Social', u'Arts', u'Art Dealers and Galleries']]"
0,The Silk Gallery,Montagnac,34530,Domaine de Saint-Hilaire,Hérault,fr,,04 67 24 00 08,http://thesilkgallery.fr,"[[u'Social', u'Arts', u'Museums']]"
0,Atout Broc,Villeveyrac,34560,9 Grand'rue,Hérault,fr,,04 67 78 19 16,,"[[u'Social', u'Arts', u'Art Dealers and Galleries']]"
0,Papin Jean-Paul,Bédarieux,34600,chemin de Villemagne,Hérault,fr,,04 67 95 25 03,,"[[u'Social', u'Arts', u'Art Dealers and Galleries']]"
0,Brocante du Faubourg,Bédarieux,34600,12 avenue Jean Jaurès,Hérault,fr,,04 67 95 43 88,,"[[u'Social', u'Arts', u'Art Dealers and Galleries']]"
0,Brocante du Pont Neuf,Bédarieux,34600,7 rue du Pont Neuf,Hérault,fr,,06 18 44 44 50,,"[[u'Social', u'Arts', u'Art Dealers and Galleries']]"
0,Pitre Annie à Bédarieux,Bédarieux,34600,2 place Général de Gaulle,Hérault,fr,,04 34 34 60 56,,"[[u'Social', u'Arts', u'Art Dealers and Galleries']]"
0,Décoration Brocante du Pont Neuf à Bédarieux,Bédarieux,34600,7 chemin du Pont Neuf,Hérault,fr,,04 67 95 75 98,,"[[u'Social', u'Arts', u'Art Dealers and Galleries']]"
0,Janvier Laurence,Baillargues,34670,8 rue des Amaryllis,Hérault,fr,,04 67 70 68 50,,"[[u'Social', u'Arts', u'Art Dealers and Galleries']]"
0,Brocante Thérond Eric à Baillargues,Baillargues,34670,51 rue de Colombiers,Hérault,fr,,06 63 16 06 61,,"[[u'Social', u'Arts', u'Art Dealers and Galleries']]"
0,Brocante de Baillargues,Baillargues,34670,route Nationale 113,Hérault,fr,,06 08 58 40 20,,"[[u'Social', u'Arts', u'Art Dealers and Galleries']]"
0,Roques Fabrice,Fabrègues,34690,13 avenue Georges Clemenceau,Hérault,fr,,04 67 42 44 48,http://www.brocante-antiquites-roques.com,"[[u'Social', u'Arts', u'Art Dealers and Galleries']]"
0,Roques Fabrice,Fabrègues,34690,39 rue Johann Strauss,Hérault,fr,,04 67 85 54 77,,"[[u'Social', u'Arts', u'Art Dealers and Galleries']]"
0,Aux Marches du Palais,Lodève,34700,2 boulevard Jean Jaurès,Hérault,fr,,04 67 88 54 04,,"[[u'Social', u'Arts', u'Art Dealers and Galleries']]"
0,Karpisek Yves,Jonquières,34725,2 route Saint Saturnin,Hérault,fr,,04 67 96 12 50,,"[[u'Social', u'Arts', u'Art Dealers and Galleries']]"
0,Lagaron Jean,Saint Guiraud,34725,11 chemin Fontanilles,Hérault,fr,,04 67 96 66 80,,"[[u'Social', u'Arts', u'Art Dealers and Galleries']]"
0,Martin Jean-Francois,Brignac,34800,9 route de Clermont,Hérault,fr,,04 67 96 07 67,,"[[u'Social', u'Arts', u'Art Dealers and Galleries']]"
0,Campbell Johnson Gabby,Péret,34800,4 avenue Marcellin Albert,Hérault,fr,,04 67 44 79 86,,"[[u'Social', u'Arts', u'Art Dealers and Galleries']]"
0,Antin Jean-Pierre,Lavérune,34880,5 Impasse de l'Industrie,Hérault,fr,,04 67 07 56 06,,"[[u'Social', u'Arts', u'Art Dealers and Galleries']]"
0,Cambres Dominique,Le Crès,34920,2 rue des Aiguerelles,Hérault,fr,,06 73 25 06 70,,"[[u'Social', u'Arts', u'Art Dealers and Galleries']]"
0,Bonnal Antiquités,Mende,48000,26 rue Notre Dame,Lozère,fr,,04 66 65 01 20,,"[[u'Social', u'Arts', u'Art Dealers and Galleries']]"
0,Bonnal Antiquites,Mende,48000,11 avenue Novembre,Lozère,fr,,04 66 49 13 55,,"[[u'Social', u'Arts', u'Art Dealers and Galleries']]"
0,Bonnal Antiquites,Mende,48000,17 rue Faubourg la Vabre,Lozère,fr,,04 66 49 16 75,,"[[u'Social', u'Arts', u'Art Dealers and Galleries']]"
0,Clemensot Pierre,Servières,48000,,Lozère,fr,,04 66 65 13 24,,"[[u'Social', u'Arts', u'Art Dealers and Galleries']]"
0,La Belle Epoque,Marvejols,48100,38 rue de la République,Lozère,fr,,06 72 77 71 92,,"[[u'Social', u'Arts', u'Art Dealers and Galleries']]"
0,Clémensot Pierre,Aumont Aubrac,48130,2 Voie Romaine,Lozère,fr,,04 66 47 36 06,,"[[u'Social', u'Arts', u'Art Dealers and Galleries']]"
0,Decamps Jean,Le Rozier,48150,route meyrueis,Lozère,fr,,05 65 62 61 42,,"[[u'Social', u'Arts', u'Art Dealers and Galleries']]"
0,Oziol Denis à Ispagnac,Ispagnac,48320,41 rue Barrys,Lozère,fr,,04 66 42 86 49,,"[[u'Social', u'Arts', u'Art Dealers and Galleries']]"
0,Le Troc Cévennol,Florac,48400,1 avenue Jean Monestier,Lozère,fr,,04 66 47 77 23,,"[[u'Social', u'Arts', u'Art Dealers and Galleries']]"
0,Blanc Philippe,La Canourgue,48500,Tour de Ville,Lozère,fr,,04 66 32 94 03,,"[[u'Social', u'Arts', u'Art Dealers and Galleries']]"
0,Valentin Françoise,Serverette,48700,route nationale 106,Lozère,fr,,04 66 48 30 99,,"[[u'Social', u'Arts', u'Art Dealers and Galleries']]"
0,Castangalerie,Perpignan,66000,3 place Léon Gambetta,Pyrénées-Orientales,fr,,04 68 34 03 67,http://www.castangalerie.fr,"[[u'Social', u'Arts', u'Art Dealers and Galleries']]"
0,Guiter Jean-Luc,Perpignan,66000,18 rue du Docteur Pous,Pyrénées-Orientales,fr,,04 68 34 68 61,,"[[u'Social', u'Arts', u'Art Dealers and Galleries']]"
0,Simon Marie-Josée,Perpignan,66000,5 rue Jacques Daguerre,Pyrénées-Orientales,fr,,04 68 63 85 15,,"[[u'Social', u'Arts', u'Art Dealers and Galleries']]"
0,L'Isba,Perpignan,66000,19 avenue des Palmiers,Pyrénées-Orientales,fr,,04 68 59 41 18,,"[[u'Social', u'Arts', u'Art Dealers and Galleries']]"
0,Porceddu Jean-François,Perpignan,66000,2 rue Charles Tellier,Pyrénées-Orientales,fr,,04 68 52 01 97,,"[[u'Social', u'Arts', u'Art Dealers and Galleries']]"
0,Ateliers Sant Vicens,Perpignan,66000,40 rue Sant Vincens,Pyrénées-Orientales,fr,,04 68 50 02 18,http://www.santvicens.fr,"[[u'Social', u'Arts', u'Art Dealers and Galleries']]"
0,Mode d'Expression,Perpignan,66000,3 place Gambetta,Pyrénées-Orientales,fr,,04 68 34 03 67,http://www.castangalerie.com,"[[u'Social', u'Arts', u'Art Dealers and Galleries']]"
0,Groupement des Antiquaire et Brocanteurs du Roussillon,Perpignan,66000,40 rue Georges Courteline,Pyrénées-Orientales,fr,,04 68 51 30 63,,"[[u'Social', u'Arts', u'Art Dealers and Galleries']]"
0,Fain Eliane,Perpignan,66000,27 rue Remparts Villeneuve,Pyrénées-Orientales,fr,,04 68 35 00 99,,"[[u'Social', u'Arts', u'Art Dealers and Galleries']]"
0,Decor Antic,Perpignan,66000,785 avenue Julien Panchot,Pyrénées-Orientales,fr,,04 68 54 79 99,,"[[u'Social', u'Arts', u'Art Dealers and Galleries']]"
0,Berjoan Jean-Louis,Perpignan,66000,13 avenue de la Grande-Bretagne,Pyrénées-Orientales,fr,,04 68 35 30 05,,"[[u'Social', u'Arts', u'Art Dealers and Galleries']]"
0,Bauby,Perpignan,66000,rue Sant Vicens,Pyrénées-Orientales,fr,,09 71 55 18 21,http://www.santvicens.fr,"[[u'Social', u'Arts', u'Art Dealers and Galleries']]"
0,Juli Christiane,Perpignan,66000,3 place Grétry,Pyrénées-Orientales,fr,,04 68 51 89 54,,"[[u'Social', u'Arts', u'Art Dealers and Galleries']]"
0,Galerie Therese Roussel,Perpignan,66000,7 place Despres,Pyrénées-Orientales,fr,,04 68 34 77 93,,"[[u'Social', u'Arts', u'Art Dealers and Galleries']]"
0,Sterenfeld Xavier,Perpignan,66000,5 rue Petite la Real,Pyrénées-Orientales,fr,,06 08 78 07 37,,"[[u'Social', u'Arts', u'Art Dealers and Galleries']]"
0,Lesage Alain,Perpignan,66000,6 place Grétry,Pyrénées-Orientales,fr,,09 62 09 72 84,,"[[u'Social', u'Arts', u'Art Dealers and Galleries']]"
0,Guisset S.A.R.L.,Perpignan,66000,6 rue des Freres Morane,Pyrénées-Orientales,fr,,04 68 54 10 18,,"[[u'Social', u'Arts', u'Art Dealers and Galleries']]"
0,Mugel Thérèse,Perpignan,66000,7 place Despres,Pyrénées-Orientales,fr,,04 68 34 77 93,,"[[u'Social', u'Arts', u'Art Dealers and Galleries']]"
0,Parant Claudine,Perpignan,66000,place Mas Llaro,Pyrénées-Orientales,fr,,04 68 50 29 41,,"[[u'Social', u'Arts', u'Art Dealers and Galleries']]"
0,Galerie de l'Olympe,Perpignan,66000,8 rue de la Cloche d'Or,Pyrénées-Orientales,fr,,04 68 34 65 75,,"[[u'Social', u'Arts', u'Art Dealers and Galleries']]"
0,Soum Pierre,Perpignan,66000,11 rue Pierre Cartelet,Pyrénées-Orientales,fr,,04 68 34 26 80,,"[[u'Social', u'Arts', u'Art Dealers and Galleries']]"
0,Galerie Marion,Perpignan,66000,8 avenue des Palmiers,Pyrénées-Orientales,fr,,,,"[[u'Social', u'Arts', u'Art Dealers and Galleries']]"
0,Galerie Pinet de Gaulade,Perpignan,66000,16 rue du Rempart Villeneuve,Pyrénées-Orientales,fr,,04 68 34 50 36,,"[[u'Social', u'Arts', u'Art Dealers and Galleries']]"
0,Forner Louis à Perpignan,Perpignan,66000,13 rue Rossignols,Pyrénées-Orientales,fr,,04 68 52 32 67,,"[[u'Social', u'Arts', u'Art Dealers and Galleries']]"
0,Rouflay Bernard,Perpignan,66100,154 avenue Georges Guynemer,Pyrénées-Orientales,fr,,04 68 66 04 14,http://www.antiquite-brocante-perpignan-rouflaybernard.fr,"[[u'Social', u'Arts', u'Art Dealers and Galleries']]"
0,Michils Jean Luc,Arles Sur Tech,66150,10 place Amont,Pyrénées-Orientales,fr,,04 68 39 31 65,,"[[u'Social', u'Arts', u'Art Dealers and Galleries']]"
0,Espace des Arts,Le Boulou,66160,2 rue des Ecoles,Pyrénées-Orientales,fr,,04 68 83 36 32,http://espacedesarts.over-blog.fr,"[[u'Social', u'Arts', u'Art Dealers and Galleries']]"
0,Victoria Antiquités,Saint Féliu d'Amont,66170,7 Carrer de la Sardanne,Pyrénées-Orientales,fr,,04 68 57 87 78,http://www.antiquites-linge-ancien.fr,"[[u'Social', u'Arts', u'Art Dealers and Galleries']]"
0,Pascal Claude,Le Soler,66270,41 rue Rosette Blanc,Pyrénées-Orientales,fr,,04 68 92 12 44,,"[[u'Social', u'Arts', u'Art Dealers and Galleries']]"
0,Roca Laurence,Thuir,66300,route de Perpignan,Pyrénées-Orientales,fr,,04 68 53 12 19,,"[[u'Social', u'Arts', u'Art Dealers and Galleries']]"
0,Galerie San Jordy,Rodès,66320,Lieu-Dit le Moulin 6 route 116,Pyrénées-Orientales,fr,,04 68 05 94 11,,"[[u'Social', u'Arts', u'Art Dealers and Galleries']]"
0,Rovira Jacques,Pia,66380,56 bis chemin de l'Étang Long,Pyrénées-Orientales,fr,,04 68 63 00 15,http://ff-boxe.com,"[[u'Social', u'Arts', u'Art Dealers and Galleries']]"
0,Antiquites Rovira Jacques,Pia,66380,56 B chemin de l'Etang Long,Pyrénées-Orientales,fr,,04 68 63 54 36,http://ff-boxe.com,"[[u'Social', u'Arts', u'Art Dealers and Galleries']]"
0,Maria Dos,Céret,66400,2 boulevard du Maréchal Joffre,Pyrénées-Orientales,fr,,04 68 68 90 62,http://www.maria2.com,"[[u'Social', u'Arts', u'Art Dealers and Galleries']]"
0,Atelier William Fenech,Céret,66400,1 avenue Michel Aribaud,Pyrénées-Orientales,fr,,04 68 64 92 32,http://www.william-fenech.com,"[[u'Social', u'Arts', u'Art Dealers and Galleries']]"
0,Sarl Galerie Odile Oms,Céret,66400,12 rue du Commerce,Pyrénées-Orientales,fr,,04 68 87 38 30,http://odileoms.com,"[[u'Social', u'Arts', u'Art Dealers and Galleries']]"
0,Galerie d'Art Africain,Céret,66400,7 boulevard du Maréchal Joffre,Pyrénées-Orientales,fr,,04 68 87 12 78,,"[[u'Social', u'Arts', u'Art Dealers and Galleries']]"
0,Sombra Y Sol,Céret,66400,20 boulevard du Maréchal Joffre,Pyrénées-Orientales,fr,,04 68 88 40 01,,"[[u'Social', u'Arts', u'Art Dealers and Galleries']]"
0,Art et vision optique galerie,Céret,66400,2 boulevard du Maréchal Joffre,Pyrénées-Orientales,fr,,04 68 68 90 62,http://www.maria2.com,"[[u'Social', u'Arts', u'Art Dealers and Galleries']]"
0,Brocante des Thermes,Maureillas Las Illas,66480,route Perthus,Pyrénées-Orientales,fr,,04 68 55 57 61,,"[[u'Social', u'Arts', u'Art Dealers and Galleries']]"
0,Julio Jean,Prades,66500,4 rue des Neuf Fiancees,Pyrénées-Orientales,fr,,04 68 96 42 51,,"[[u'Social', u'Arts', u'Art Dealers and Galleries']]"
0,Broc' Art,Villefranche de Conflent,66500,6 rue Saint Pierre,Pyrénées-Orientales,fr,,06 98 71 46 21,,"[[u'Social', u'Arts', u'Art Dealers and Galleries']]"
0,Durant David,Claira,66530,11 avenue de la Gare,Pyrénées-Orientales,fr,,04 68 62 12 08,,"[[u'Social', u'Arts', u'Art Dealers and Galleries']]"
0,Vinaigrerie,Rivesaltes,66600,10 rue Michelet,Pyrénées-Orientales,fr,,04 68 64 46 87,,"[[u'Social', u'Arts', u'Art Dealers and Galleries']]"
0,Atelier Galerie Serge Danis,Banyuls sur Mer,66650,10 rue Saint Pierre,Pyrénées-Orientales,fr,,06 17 41 70 77,http://www.sergedanis.com,"[[u'Social', u'Arts', u'Art Dealers and Galleries']]"
0,Bric A Brac Brocante,Banyuls Sur Mer,66650,,Pyrénées-Orientales,fr,,04 68 88 33 65,,"[[u'Social', u'Arts', u'Art Dealers and Galleries']]"
0,La Belle Epoque,Port Vendres,66660,7 rue Jules Ferry,Pyrénées-Orientales,fr,,04 68 98 00 84,,"[[u'Social', u'Arts', u'Art Dealers and Galleries']]"
0,Galerie Cadre Image,Saint Cyprien,66750,1 avenue François Desnoyer,Pyrénées-Orientales,fr,,04 68 22 76 60,,"[[u'Social', u'Arts', u'Art Dealers and Galleries']]"
0,Roussel Pascal,Vernet Les Bains,66820,1 rue des Ascarinettes,Pyrénées-Orientales,fr,,04 68 05 62 87,http://www.brocante66.com,"[[u'Social', u'Arts', u'Art Dealers and Galleries']]"
0,Chagot Francis,Tulle,19000,89 rue de la Barrière,Corrèze,fr,,05 55 26 95 65,,"[[u'Social', u'Arts', u'Art Dealers and Galleries']]"
0,Antiquité Boulet,Tulle,19000,Saint Adrian,Corrèze,fr,,06 80 15 50 48,,"[[u'Social', u'Arts', u'Art Dealers and Galleries']]"
0,Pendariès Virginie,Brive la Gaillarde,19100,9 rue de Corrèze,Corrèze,fr,,05 55 17 79 30,,"[[u'Social', u'Arts', u'Art Dealers and Galleries']]"
0,Antiquites Gaboriaux,Brive la Gaillarde,19100,50 Ter avenue Georges Pompidou,Corrèze,fr,,05 55 17 93 02,,"[[u'Social', u'Arts', u'Art Dealers and Galleries']]"
0,Brocante Jadis,Brive la Gaillarde,19100,12 rue des Recollets,Corrèze,fr,,05 55 17 94 48,,"[[u'Social', u'Arts', u'Art Dealers and Galleries']]"
0,Aubertin Christophe,Brive la Gaillarde,19100,9 rue Général Souham,Corrèze,fr,,05 55 87 31 75,,"[[u'Social', u'Arts', u'Art Dealers and Galleries']]"
0,Le Comptoir Saint Martin,Brive la Gaillarde,19100,15 rue Saint Martin,Corrèze,fr,,05 55 24 36 82,,"[[u'Social', u'Arts', u'Art Dealers and Galleries']]"
0,Eurl Sl,Brive La Gaillarde,19100,7 rue Moissan,Corrèze,fr,,06 64 25 36 51,,"[[u'Social', u'Arts', u'Art Dealers and Galleries']]"
0,Leygo,Brive la Gaillarde,19100,7 rue Vincent Chassaing,Corrèze,fr,,05 55 17 57 73,,"[[u'Social', u'Arts', u'Art Dealers and Galleries']]"
0,Pessin Franck à Brive-la-Gaillarde,Brive la Gaillarde,19100,7 rue République,Corrèze,fr,,06 87 23 50 50,,"[[u'Social', u'Arts', u'Art Dealers and Galleries']]"
0,Espace Troc à Brive-la-Gaillarde,Brive La Gaillarde,19100,38 avenue Edmond Michelet,Corrèze,fr,,05 55 17 01 19,,"[[u'Social', u'Arts', u'Art Dealers and Galleries']]"
0,Antiquites Martin Julien,Puy d'Arnac,19120,les Fardines,Corrèze,fr,,06 22 41 07 78,http://brocante-paris-martin-julien.fr,"[[u'Social', u'Arts', u'Art Dealers and Galleries']]"
0,Faugere Elvire,Saint Solve,19130,la Chapelle,Corrèze,fr,,06 32 79 65 40,,"[[u'Social', u'Arts', u'Art Dealers and Galleries']]"
0,Walter Fabrice,Aix,19200,Magasin Croix de Justice Chalons,Corrèze,fr,,05 55 94 41 87,,"[[u'Social', u'Arts', u'Art Dealers and Galleries']]"
0,Giraud Brocante Au Village,Ussel,19200,81 avenue Carnot,Corrèze,fr,,05 55 96 26 54,,"[[u'Social', u'Arts', u'Art Dealers and Galleries']]"
0,La Galerie,Arnac Pompadour,19230,6 avenue du Limousin,Corrèze,fr,,05 55 73 26 25,http://www.la-galerie-pompadour.com/,"[[u'Social', u'Arts', u'Art Dealers and Galleries']]"
0,Treignac Project Gallery,Treignac,19260,2 rue Ignace Dumergue,Corrèze,fr,,05 55 98 46 59,,"[[u'Social', u'Arts', u'Art Dealers and Galleries']]"
0,Vergnon Francis,Sainte Féréole,19270,6 rue du Cordonnier,Corrèze,fr,,05 55 87 45 39,,"[[u'Social', u'Arts', u'Art Dealers and Galleries']]"
0,Gambarini Catherine,Ussac,19270,4 route Millades,Corrèze,fr,,05 55 88 33 73,,"[[u'Social', u'Arts', u'Art Dealers and Galleries']]"
0,La Licorne Saint Antoine,Égletons,19300,79 avenue Charles de Gaulle,Corrèze,fr,,05 55 93 32 49,,"[[u'Social', u'Arts', u'Art Dealers and Galleries']]"
0,La Bonnard'Hier,Champagnac la Noaille,19320,Lebranchu Dominique Nussannes,Corrèze,fr,,06 76 93 61 15,,"[[u'Social', u'Arts', u'Art Dealers and Galleries']]"
0,Miel Claude,Chameyrat,19330,route de Poissac,Corrèze,fr,,06 08 77 48 29,,"[[u'Social', u'Arts', u'Art Dealers and Galleries']]"
0,Au Regard des Anges,Forgès,19380,47 avenue Pasteur,Corrèze,fr,,06 70 07 91 84,http://antiquites-forges.fr,"[[u'Social', u'Arts', u'Art Dealers and Galleries']]"
0,Moulin des Acacias,Monceaux sur Dordogne,19400,la Borie,Corrèze,fr,,05 55 28 26 81,,"[[u'Social', u'Arts', u'Art Dealers and Galleries']]"
0,Chez Nous,Chamboulive,19450,rue le la Mairie,Corrèze,fr,,05 55 27 01 14,,"[[u'Social', u'Arts', u'Art Dealers and Galleries']]"
0,Arts et Voyages,Collonges la Rouge,19500,rue de la Barrière,Corrèze,fr,,05 55 74 24 10,,"[[u'Social', u'Arts', u'Art Dealers and Galleries']]"
0,Sowinski Christiane,Noailhac,19500,Rochepied,Corrèze,fr,,05 55 85 18 76,,"[[u'Social', u'Arts', u'Art Dealers and Galleries']]"
0,Galerie de Vigreyos,Noailhac,19500,Lacoste,Corrèze,fr,,05 55 25 42 03,,"[[u'Social', u'Arts', u'Art Dealers and Galleries']]"
0,Antiquités le Vieux Bahut,Guéret,23000,23 rue d'Arsonval,Creuse,fr,,05 55 52 89 19,,"[[u'Social', u'Arts', u'Art Dealers and Galleries']]"
0,Le Comptoir du Chineur,Guéret,23000,10 avenue Pierre Leroux,Creuse,fr,,05 55 61 19 60,,"[[u'Social', u'Arts', u'Art Dealers and Galleries']]"
0,Lavelli,Guéret,23000,23 rue d'Arsonval,Creuse,fr,,05 55 52 89 19,,"[[u'Social', u'Arts', u'Art Dealers and Galleries']]"
0,Le Paillassou,Vallière,23120,5 route de Banize,Creuse,fr,,05 55 66 07 37,,"[[u'Social', u'Arts', u'Art Dealers and Galleries']]"
0,Mestat Patrice,Ahun,23150,13 rue Brides,Creuse,fr,,05 55 62 24 13,,"[[u'Social', u'Arts', u'Art Dealers and Galleries']]"
0,Brocante Service,Bellegarde en Marche,23190,9 rue Etang,Creuse,fr,,05 55 67 63 12,,"[[u'Social', u'Arts', u'Art Dealers and Galleries']]"
0,L'Art de Rien,Aubusson,23200,61 Grande rue,Creuse,fr,,06 65 37 91 37,http://association-artderien.net,"[[u'Social', u'Arts', u'Art Dealers and Galleries']]"
0,Lacombe Frédéric,La Chaussade,23200,le Meysounioux,Creuse,fr,,05 55 66 87 39,,"[[u'Social', u'Arts', u'Art Dealers and Galleries']]"
0,Station 23,Bénévent l'Abbaye,23210,1 place Saint Barthelemy,Creuse,fr,,05 55 61 00 98,http://station23.free.fr,"[[u'Social', u'Arts', u'Art Dealers and Galleries']]"
0,Collection et Passion d' Antan à la Souterraine,La Souterraine,23300,16 rue Hyacinthe Montaudon,Creuse,fr,,05 55 63 87 90,,"[[u'Social', u'Arts', u'Art Dealers and Galleries']]"
0,Alabroc,Bussière Dunoise,23320,lieu-dit Beauvais,Creuse,fr,,05 55 80 49 65,http://www.alabroc.fr,"[[u'Social', u'Arts', u'Art Dealers and Galleries']]"
0,Les Trouvailles de la Colombine,Glénic,23380,D940 9 Pergola,Creuse,fr,,06 13 04 79 49,,"[[u'Social', u'Arts', u'Art Dealers and Galleries']]"
0,Clemencon-Meillat Martine,Bourganeuf,23400,8 avenue Turgot,Creuse,fr,,06 62 56 75 70,,"[[u'Social', u'Arts', u'Art Dealers and Galleries']]"
0,Grenier Bourgagnaud,Bourganeuf,23400,2 route Limoges la Maison Buisson,Creuse,fr,,05 55 64 11 42,,"[[u'Social', u'Arts', u'Art Dealers and Galleries']]"
0,Beguin Peyrot Dominique,Boussac,23600,9 rue Docteur Maurice Gaumet,Creuse,fr,,05 55 65 00 42,,"[[u'Social', u'Arts', u'Art Dealers and Galleries']]"
0,Robinson Bernadette,Les Mars,23700,Guinebaudeix,Creuse,fr,,05 55 67 15 34,,"[[u'Social', u'Arts', u'Art Dealers and Galleries']]"
0,Desfontaine Marc,Auzances,23700,14 rue Paul Doumer,Creuse,fr,,05 55 67 24 95,,"[[u'Social', u'Arts', u'Art Dealers and Galleries']]"
0,Au Grenier des Anges,Dun Le Palestel,23800,31 le Puy Brevier,Creuse,fr,,06 66 62 85 14,,"[[u'Social', u'Arts', u'Art Dealers and Galleries']]"
0,And Co Gallery à Limoges,Limoges,87000,19 boulevard Louis Blanc,Haute-Vienne,fr,,05 55 33 85 40,,"[[u'Social', u'Arts', u'Art Dealers and Galleries']]"
0,Galerie du Canal,Limoges,87000,15 rue du Canal,Haute-Vienne,fr,,05 55 33 14 11,http://www.galerieducanal.fr/,"[[u'Social', u'Arts', u'Art Dealers and Galleries']]"
0,Art et Passion,Limoges,87000,50 rue François Chénieux,Haute-Vienne,fr,,05 55 77 56 57,http://www.galerie-artpassion.fr,"[[u'Social', u'Arts', u'Art Dealers and Galleries']]"
0,Le Fantassin,Limoges,87000,9 rue Haute Cité,Haute-Vienne,fr,,05 55 32 67 92,http://www.lefantassin.fr,"[[u'Social', u'Arts', u'Art Dealers and Galleries']]"
0,Goudard Laurent,Limoges,87000,12 rue Delescluze,Haute-Vienne,fr,,05 55 33 37 77,http://www.galerie-goudard-limoges-crozant.com,"[[u'Social', u'Arts', u'Art Dealers and Galleries']]"
0,Aleas Recuperation,Limoges,87000,3 place Gustave Philippon,Haute-Vienne,fr,,05 55 34 10 77,http://www.association-aleas.fr,"[[u'Social', u'Arts', u'Art Dealers and Galleries']]"
0,Vénuat Olivier,Limoges,87000,89 rue Théodore Bac,Haute-Vienne,fr,,05 55 79 62 78,http://www.antiquite-or-argent-limoges.fr,"[[u'Social', u'Arts', u'Art Dealers and Galleries']]"
0,Lober Valette Thierry,Limoges,87000,2 rue Cruche d'Or,Haute-Vienne,fr,,05 55 32 15 06,http://www.antiquites-thierry-lober-valette-limoges.fr,"[[u'Social', u'Arts', u'Art Dealers and Galleries']]"
0,Berthier Renée,Limoges,87000,45 rue de la Boucherie,Haute-Vienne,fr,,05 55 33 37 02,,"[[u'Social', u'Arts', u'Art Dealers and Galleries']]"
0,Nicolier Josette,Limoges,87000,22 boulevard Louis Blanc,Haute-Vienne,fr,,05 55 33 63 09,,"[[u'Social', u'Arts', u'Art Dealers and Galleries']]"
0,Artset Sn,Limoges,87000,37 boulevard Carnot,Haute-Vienne,fr,,05 55 77 74 74,http://www.galerieartset.fr,"[[u'Social', u'Arts', u'Art Dealers and Galleries']]"
0,LR Création,Limoges,87000,19 boulevard Louis Blanc,Haute-Vienne,fr,,05 55 33 85 40,http://www.liserathonie.com,"[[u'Social', u'Arts', u'Art Dealers and Galleries']]"
0,Brousseau Antiquités,Limoges,87000,8 rue Brousseau,Haute-Vienne,fr,,05 55 49 44 87,,"[[u'Social', u'Arts', u'Art Dealers and Galleries']]"
0,A Contrario Galerie,Limoges,87000,6 avenue de la Libération,Haute-Vienne,fr,,05 55 79 56 76,,"[[u'Social', u'Arts', u'Art Dealers and Galleries']]"
0,Galerie d'Art 39 A,Limoges,87000,39 rue Adrien Dubouché,Haute-Vienne,fr,,05 55 77 99 08,,"[[u'Social', u'Arts', u'Art Dealers and Galleries']]"
0,Antiquités le Presbytère,Limoges,87000,29 rue Elie Berthet,Haute-Vienne,fr,,05 55 34 20 81,,"[[u'Social', u'Arts', u'Art Dealers and Galleries']]"
0,Antic'Céram,Limoges,87000,34 rue de la Boucherie,Haute-Vienne,fr,,05 55 32 06 33,,"[[u'Social', u'Arts', u'Art Dealers and Galleries']]"
0,Artset,Limoges,87000,37 boulevard Carnot,Haute-Vienne,fr,,05 55 77 74 74,http://www.galerieartset.fr,"[[u'Social', u'Arts', u'Art Dealers and Galleries']]"
0,Rev&culture,Limoges,87000,6 rue Vigne de Fer,Haute-Vienne,fr,,06 08 55 85 51,http://www.rev-et-culture.fr/,"[[u'Social', u'Arts', u'Art Dealers and Galleries']]"
0,Puces de la Cite,Limoges,87000,6 rue Haute Cite,Haute-Vienne,fr,,05 55 32 46 64,,"[[u'Social', u'Arts', u'Art Dealers and Galleries']]"
0,Galerie Saint-Pierre,Limoges,87000,10 rue Rafilhoux,Haute-Vienne,fr,,05 55 32 63 31,,"[[u'Social', u'Arts', u'Art Dealers and Galleries']]"
0,La Galerie,Limoges,87000,12 rue Lansecot,Haute-Vienne,fr,,05 55 32 11 44,,"[[u'Social', u'Arts', u'Art Dealers and Galleries']]"
0,Galerie Champaloux,Limoges,87000,4 rue Monte à Regret,Haute-Vienne,fr,,05 55 34 26 00,,"[[u'Social', u'Arts', u'Art Dealers and Galleries']]"
0,Delta Phot,Limoges,87000,55 avenue des Coutures,Haute-Vienne,fr,,05 55 32 40 81,,"[[u'Social', u'Arts', u'Art Dealers and Galleries']]"
0,Cabinet d'Expertises en Antiquités et Objets d'Art à Limoges,Limoges,87000,6 rue Darnet,Haute-Vienne,fr,,06 66 68 06 29,,"[[u'Social', u'Arts', u'Art Dealers and Galleries']]"
0,Coindeau Francis,Limoges,87000,50 rue Francois Chenieux,Haute-Vienne,fr,,,,"[[u'Social', u'Arts', u'Art Dealers and Galleries']]"
0,Champaloux Emile,Limoges,87000,4 rue Monte A Regret,Haute-Vienne,fr,,05 55 34 26 00,,"[[u'Social', u'Arts', u'Art Dealers and Galleries']]"
0,Limoges Enchères,Limoges,87002,32 rue Gustave Nadaud,Haute-Vienne,fr,,05 55 77 60 00,http://www.interencheres.com/87002,"[[u'Social', u'Arts', u'Art Dealers and Galleries']]"
0,Juliet Jodou,Limoges,87100,41 rue Hoche,Haute-Vienne,fr,,06 78 88 88 97,,"[[u'Social', u'Arts', u'Art Dealers and Galleries']]"
0,Demailly Alain,Bosmie l'Aiguille,87110,1 rue de la Salesse,Haute-Vienne,fr,,05 55 36 63 50,,"[[u'Social', u'Arts', u'Art Dealers and Galleries']]"
0,L'Higuiner Bruno,Châteauneuf la Forêt,87130,place du Colisée,Haute-Vienne,fr,,05 55 69 39 82,,"[[u'Social', u'Arts', u'Art Dealers and Galleries']]"
0,Demailly Alain,Isle,87170,lieu dit pont de l'Aiguille,Haute-Vienne,fr,,05 55 36 14 75,,"[[u'Social', u'Arts', u'Art Dealers and Galleries']]"
0,Eurotrocantic 87,Isle,87170,rue du Caillaud,Haute-Vienne,fr,,06 72 82 63 19,,"[[u'Social', u'Arts', u'Art Dealers and Galleries']]"
0,Barat Jean-Luc,Le Dorat,87210,17 Mas de l'Etang,Haute-Vienne,fr,,05 55 60 66 81,,"[[u'Social', u'Arts', u'Art Dealers and Galleries']]"
0,Salvan Christian,Le Dorat,87210,7 place de la Collégiale,Haute-Vienne,fr,,05 55 68 59 62,,"[[u'Social', u'Arts', u'Art Dealers and Galleries']]"
0,Beaubreuil Guy,Feytiat,87220,le Mas Gauthier,Haute-Vienne,fr,,05 55 30 50 69,,"[[u'Social', u'Arts', u'Art Dealers and Galleries']]"
0,Antiquite Art du Passe,Boisseuil,87220,les Quatre Vents,Haute-Vienne,fr,,06 10 31 79 09,,"[[u'Social', u'Arts', u'Art Dealers and Galleries']]"
0,Babule didier,Ambazac,87240,les Fayes,Haute-Vienne,fr,,06 87 50 07 08,,"[[u'Social', u'Arts', u'Art Dealers and Galleries']]"
0,Dépot Vente du Chataignier,Peyrat De Bellac,87300,1 allée Pierre Ovigny,Haute-Vienne,fr,,05 55 68 81 83,,"[[u'Social', u'Arts', u'Art Dealers and Galleries']]"
0,Ritter Herve,Bellac,87300,5 Bis rue Fernand Fourreau,Haute-Vienne,fr,,05 55 60 88 73,,"[[u'Social', u'Arts', u'Art Dealers and Galleries']]"
0,Caron Jean-Claude,Saint Cyr,87310,Brossas,Haute-Vienne,fr,,05 55 48 17 90,,"[[u'Social', u'Arts', u'Art Dealers and Galleries']]"
0,Le Grenier d'Augustine,Cognac la Forêt,87310,50 rue Jean Moulin,Haute-Vienne,fr,,05 55 03 32 05,http://legrenierdaugustine.com,"[[u'Social', u'Arts', u'Art Dealers and Galleries']]"
0,Senelas Raymond,Mézières sur Issoire,87330,3 place de l'Église,Haute-Vienne,fr,,05 55 68 31 80,,"[[u'Social', u'Arts', u'Art Dealers and Galleries']]"
0,Fourt Jérome à les Billanges,Les Billanges,87340,la Besse,Haute-Vienne,fr,,05 55 56 50 03,,"[[u'Social', u'Arts', u'Art Dealers and Galleries']]"
0,Rey Eric,Laurière,87370,rue Allées,Haute-Vienne,fr,,06 28 83 70 26,,"[[u'Social', u'Arts', u'Art Dealers and Galleries']]"
0,Galerie d'Art Gisele Veyrie à Saint-Yrieix-la-Perche,Saint Yrieix la Perche,87500,62 boulevard de l'Hôtel de Ville,Haute-Vienne,fr,,05 55 58 99 13,,"[[u'Social', u'Arts', u'Art Dealers and Galleries']]"
0,Le Petit Chineur,Rochechouart,87600,1 rue du Pic,Haute-Vienne,fr,,05 55 03 73 10,,"[[u'Social', u'Arts', u'Art Dealers and Galleries']]"
0,Hyafil Herve,Saint Priest Ligoure,87800,le Fraisseix,Haute-Vienne,fr,,05 55 00 50 39,,"[[u'Social', u'Arts', u'Art Dealers and Galleries']]"
0,Olivier Art Gallery,Nancy,54000,14 rue Notre Dame,Meurthe-et-Moselle,fr,,03 83 20 54 27,,"[[u'Social', u'Arts', u'Museums']]"
0,Le Boucl'Art,Nancy,54000,19 bis rue Henri Bazin,Meurthe-et-Moselle,fr,,03 54 12 51 73,,"[[u'Social', u'Arts', u'Art Dealers and Galleries']]"
0,Galerie Raugraff,Nancy,54000,14 rue Raugraff,Meurthe-et-Moselle,fr,,03 83 35 65 95,http://www.galerieraugraff.com,"[[u'Social', u'Arts', u'Art Dealers and Galleries']]"
0,My Monkey,Nancy,54000,15 rue du Faubourg des Trois Maisons,Meurthe-et-Moselle,fr,,03 83 37 54 08,http://www.mymonkey.fr,"[[u'Social', u'Arts', u'Art Dealers and Galleries']]"
0,Les Artistes Temoins,Nancy,54000,96 rue Stanislas,Meurthe-et-Moselle,fr,,03 83 30 54 92,,"[[u'Social', u'Arts', u'Art Dealers and Galleries']]"
0,La Source des Arts,Nancy,54000,41 rue des Quatre Eglises,Meurthe-et-Moselle,fr,,03 83 30 87 50,http://www.source-des-arts.odexpo.com,"[[u'Social', u'Arts', u'Art Dealers and Galleries']]"
0,La Galerie de l'Atelier,Nancy,54000,41 Grande rue,Meurthe-et-Moselle,fr,,03 83 32 72 98,http://www.lagaleriedelatelier.fr,"[[u'Social', u'Arts', u'Art Dealers and Galleries']]"
0,Galerie Bora Baden,Nancy,54000,24 Grande rue,Meurthe-et-Moselle,fr,,06 32 98 05 04,http://www.borabaden.com,"[[u'Social', u'Arts', u'Art Dealers and Galleries']]"
0,Bize Hervé,Nancy,54000,19 rue rue Gambetta,Meurthe-et-Moselle,fr,,03 83 30 17 17,http://hervebize.com,"[[u'Social', u'Arts', u'Art Dealers and Galleries']]"
0,Dans Mon Monde,Nancy,54000,84 Grande rue,Meurthe-et-Moselle,fr,,03 83 30 36 86,http://www.chantalgaliana.com,"[[u'Social', u'Arts', u'Art Dealers and Galleries']]"
0,My Monkey,Nancy,54000,111 rue Charles III,Meurthe-et-Moselle,fr,,09 84 02 02 20,http://mymonkey.fr,"[[u'Social', u'Arts', u'Art Dealers and Galleries']]"
0,Pomme d'Ambre,Nancy,54000,1 rue Saint Dizier,Meurthe-et-Moselle,fr,,03 83 30 35 02,,"[[u'Social', u'Arts', u'Art Dealers and Galleries']]"
0,Antiquités Denis Ruga,Nancy,54000,13 rue Stanislas,Meurthe-et-Moselle,fr,,03 83 35 20 79,,"[[u'Social', u'Arts', u'Art Dealers and Galleries']]"
0,Schlegel Pascal,Nancy,54000,1 Grande rue,Meurthe-et-Moselle,fr,,03 83 32 15 38,,"[[u'Social', u'Arts', u'Art Dealers and Galleries']]"
0,Vanczak François,Nancy,54000,11 avenue du Maréchal Juin,Meurthe-et-Moselle,fr,,03 83 40 03 09,,"[[u'Social', u'Arts', u'Art Dealers and Galleries']]"
0,Lepape Claude,Nancy,54000,99 rue Isabey,Meurthe-et-Moselle,fr,,03 83 98 66 19,,"[[u'Social', u'Arts', u'Art Dealers and Galleries']]"
0,Antiquités 34,Nancy,54000,34 rue Gustave Simon,Meurthe-et-Moselle,fr,,03 83 30 37 65,,"[[u'Social', u'Arts', u'Art Dealers and Galleries']]"
0,Metz-Noblat Bertrand,Nancy,54000,65 rue Gabriel Mouilleron,Meurthe-et-Moselle,fr,,03 83 28 42 90,,"[[u'Social', u'Arts', u'Art Dealers and Galleries']]"
0,Galerie Art Attitude,Nancy,54000,19 rue Gambetta,Meurthe-et-Moselle,fr,,03 83 30 17 31,,"[[u'Social', u'Arts', u'Art Dealers and Galleries']]"
0,Le Relieur du Faubourg,Nancy,54000,45 bis rue Vayringe,Meurthe-et-Moselle,fr,,06 73 27 19 39,,"[[u'Social', u'Arts', u'Art Dealers and Galleries']]"
0,Les Artistes Témoins,Nancy,54000,19 rue Carmes,Meurthe-et-Moselle,fr,,03 83 35 17 78,http://www.lesartistestemoins.com/,"[[u'Social', u'Arts', u'Art Dealers and Galleries']]"
0,Antiquités Durand,Nancy,54000,1 Bis rue Gustave Simon,Meurthe-et-Moselle,fr,,03 83 17 22 98,,"[[u'Social', u'Arts', u'Art Dealers and Galleries']]"
0,Galerie Neuf,Nancy,54000,9 rue Gustave Simon,Meurthe-et-Moselle,fr,,03 83 85 34 84,,"[[u'Social', u'Arts', u'Art Dealers and Galleries']]"
0,Galerie Lillebonne,Nancy,54000,14 rue du Cheval Blanc,Meurthe-et-Moselle,fr,,03 83 36 82 82,,"[[u'Social', u'Arts', u'Art Dealers and Galleries']]"
0,Kaaouche Olivier,Nancy,54000,230 avenue de Strasbourg,Meurthe-et-Moselle,fr,,03 83 33 35 08,,"[[u'Social', u'Arts', u'Art Dealers and Galleries']]"
0,Galerie Ovadia,Nancy,54000,14 Grande rue,Meurthe-et-Moselle,fr,,03 83 37 93 32,,"[[u'Social', u'Arts', u'Art Dealers and Galleries']]"
0,Stanislas,Nancy,54000,38 rue de Médreville,Meurthe-et-Moselle,fr,,06 87 11 71 49,,"[[u'Social', u'Arts', u'Art Dealers and Galleries']]"
0,Schirmann,Nancy,54000,38 rue de Medreville,Meurthe-et-Moselle,fr,,09 75 81 15 98,,"[[u'Social', u'Arts', u'Art Dealers and Galleries']]"
0,Anciennement Votre,Nancy,54000,26 rue de la Foucotte,Meurthe-et-Moselle,fr,,03 83 98 16 46,,"[[u'Social', u'Arts', u'Art Dealers and Galleries']]"
0,Syndicat Lorrain des Professionnels de l'Antiquité,Rosières aux Salines,54110,19 rue Leon Bocheron,Meurthe-et-Moselle,fr,,03 83 46 92 56,,"[[u'Social', u'Arts', u'Art Dealers and Galleries']]"
0,Broc Débarras,Lenoncourt,54110,120 route de Varangeville,Meurthe-et-Moselle,fr,,03 83 22 69 45,http://www.broc-debarras-demenagement.fr,"[[u'Social', u'Arts', u'Art Dealers and Galleries']]"
0,La Compagnie des Verriers,Vannes le Châtel,54112,4 rue de la Liberté,Meurthe-et-Moselle,fr,,03 83 25 44 93,http://compagniedesverriers.com,"[[u'Social', u'Arts', u'Art Dealers and Galleries']]"
0,La Brocante du Batiment,Azerailles,54122,Halle de la Gare,Meurthe-et-Moselle,fr,,06 09 31 90 17,,"[[u'Social', u'Arts', u'Art Dealers and Galleries']]"
0,Antiquites Rousselot,Bouxières aux Dames,54136,1 place de la Goulotte,Meurthe-et-Moselle,fr,,03 83 22 69 21,,"[[u'Social', u'Arts', u'Art Dealers and Galleries']]"
0,Jardin d'Eglantine,Toul,54200,27 rue Jeanne d'Arc,Meurthe-et-Moselle,fr,,03 83 64 53 43,,"[[u'Social', u'Arts', u'Art Dealers and Galleries']]"
0,Fabing Catherine,Ecrouves,54200,272 rue de Paris,Meurthe-et-Moselle,fr,,09 77 76 82 63,,"[[u'Social', u'Arts', u'Art Dealers and Galleries']]"
0,Les Mémoires de Nos Jardins et Châteaux,Essey Lès Nancy,54270,1 rue Catherine Sauvage,Meurthe-et-Moselle,fr,,06 87 21 67 89,http://www.antic-materiaux.fr,"[[u'Social', u'Arts', u'Art Dealers and Galleries']]"
0,Antiquités 89,Essey Lès Nancy,54270,45 avenue du Général Leclerc,Meurthe-et-Moselle,fr,,06 08 33 47 54,,"[[u'Social', u'Arts', u'Art Dealers and Galleries']]"
0,Robert Grandjean Michel à Brin-sur-Seille,Brin sur Seille,54280,1 rue Vic sur Seille,Meurthe-et-Moselle,fr,,06 80 68 56 34,,"[[u'Social', u'Arts', u'Art Dealers and Galleries']]"
0,L'Epicerie d'Art,Lunéville,54300,15 rue de la Charité,Meurthe-et-Moselle,fr,,06 65 58 13 80,http://www.epiceriedart.com,"[[u'Social', u'Arts', u'Art Dealers and Galleries']]"
0,Lainet Eric Pierre Germain,Lunéville,54300,4 rue du Chaufour,Meurthe-et-Moselle,fr,,09 50 01 99 63,http://www.antiquites-saint-nicolas.fr,"[[u'Social', u'Arts', u'Art Dealers and Galleries']]"
0,Acanthe à Lunéville,Lunéville,54300,10 rue Pont Rouge,Meurthe-et-Moselle,fr,,06 21 37 34 31,,"[[u'Social', u'Arts', u'Art Dealers and Galleries']]"
0,Château d'homécourt,Homécourt,54310,rue Basse Soulieu,Meurthe-et-Moselle,fr,,03 82 22 27 30,,"[[u'Social', u'Arts', u'Art Dealers and Galleries']]"
0,Au Vieux Fiacre,Mont Saint Martin,54350,27 rue Pasteur,Meurthe-et-Moselle,fr,,06 07 67 11 07,,"[[u'Social', u'Arts', u'Art Dealers and Galleries']]"
0,Korniak René,Mont Saint Martin,54350,194 boulevard de Metz,Meurthe-et-Moselle,fr,,03 82 23 61 72,,"[[u'Social', u'Arts', u'Art Dealers and Galleries']]"
0,Antiquités la Crouée,Longwy,54400,9 avenue Raymond Poincaré,Meurthe-et-Moselle,fr,,03 82 24 67 71,,"[[u'Social', u'Arts', u'Art Dealers and Galleries']]"
0,Torterat Joel,Saulxures Lès Nancy,54420,avenue du Chateau,Meurthe-et-Moselle,fr,,03 83 29 61 51,,"[[u'Social', u'Arts', u'Art Dealers and Galleries']]"
0,Marcot Yves,Herserange,54440,25 rue du Vauzé,Meurthe-et-Moselle,fr,,06 03 78 85 86,,"[[u'Social', u'Arts', u'Art Dealers and Galleries']]"
0,Rouyer Michel,Liverdun,54460,7 allée de Chambéry,Meurthe-et-Moselle,fr,,03 83 24 53 77,,"[[u'Social', u'Arts', u'Art Dealers and Galleries']]"
0,Magic Bus,Vandoeuvre Lès Nancy,54500,15 rue du Languedoc,Meurthe-et-Moselle,fr,,03 83 44 01 27,,"[[u'Social', u'Arts', u'Art Dealers and Galleries']]"
0,Antiquités d'et H Pargon à Laxou,Laxou,54520,17 rue Ernest Albert,Meurthe-et-Moselle,fr,,03 83 98 30 47,,"[[u'Social', u'Arts', u'Art Dealers and Galleries']]"
0,Ravenel Frédéric,Malavillers,54560,9 Quinquies rue Verdun,Meurthe-et-Moselle,fr,,03 82 46 02 82,,"[[u'Social', u'Arts', u'Art Dealers and Galleries']]"
0,Antiquités Château d'Eulmont à Eulmont,Eulmont,54690,Château d'Eulmont,Meurthe-et-Moselle,fr,,03 83 22 63 92,,"[[u'Social', u'Arts', u'Art Dealers and Galleries']]"
0,Rom'Antic,Pont À Mousson,54700,13 avenue du Général Patton,Meurthe-et-Moselle,fr,,03 83 82 03 90,,"[[u'Social', u'Arts', u'Art Dealers and Galleries']]"
0,Au vieux fiacre,Gorcy,54730,14 rue du 131eme RI,Meurthe-et-Moselle,fr,,03 82 23 79 15,,"[[u'Social', u'Arts', u'Art Dealers and Galleries']]"
0,Labissy Michel,Mars la Tour,54800,3 rue des Jardins,Meurthe-et-Moselle,fr,,03 82 33 90 80,,"[[u'Social', u'Arts', u'Art Dealers and Galleries']]"
0,Remondiere Catherine à Thumeréville,Thumeréville,54800,13 Grand rue,Meurthe-et-Moselle,fr,,03 82 22 62 08,,"[[u'Social', u'Arts', u'Art Dealers and Galleries']]"
0,Labissy Maurin,Puxieux,54800,23 rue Grande rue,Meurthe-et-Moselle,fr,,06 21 75 10 06,,"[[u'Social', u'Arts', u'Art Dealers and Galleries']]"
0,Brocant'ille à Thumeréville,Thumereville,54800,13 Grand rue,Meurthe-et-Moselle,fr,,03 82 22 62 08,,"[[u'Social', u'Arts', u'Art Dealers and Galleries']]"
0,Antiquité Aubert Claudine,Gerbéviller,54830,17 quai des Vosges,Meurthe-et-Moselle,fr,,03 83 42 81 41,,"[[u'Social', u'Arts', u'Art Dealers and Galleries']]"
0,Manoir du Mad,Bayonville Sur Mad,54890,33 rue de Meville,Meurthe-et-Moselle,fr,,03 83 81 80 42,http://ammcentreartistique.wordpress.com/,"[[u'Social', u'Arts', u'Art Dealers and Galleries']]"
0,Antiquites Anny Moes,Bar Le Duc,55000,4 rue du Docteur Nève,Meuse,fr,,03 29 79 03 27,,"[[u'Social', u'Arts', u'Art Dealers and Galleries']]"
0,Hamard Antiquités,Bar Le Duc,55000,13 rue Jean Jacques Rousseau,Meuse,fr,,03 29 45 52 12,,"[[u'Social', u'Arts', u'Art Dealers and Galleries']]"
0,Galerie St Pierre,Bar Le Duc,55000,10 place Saint Pierre,Meuse,fr,,03 29 76 14 58,,"[[u'Social', u'Arts', u'Art Dealers and Galleries']]"
0,Petit Michaux,Bar le Duc,55000,15 rue des Minimes,Meuse,fr,,03 29 45 66 06,,"[[u'Social', u'Arts', u'Art Dealers and Galleries']]"
0,Pellerin Stéphane,Longeville en Barrois,55000,1 rue Saint Hilaire,Meuse,fr,,06 07 52 52 09,,"[[u'Social', u'Arts', u'Art Dealers and Galleries']]"
0,Gassert Philippe,Verdun,55100,62 allée de la Carafiole,Meuse,fr,,06 30 62 97 39,,"[[u'Social', u'Arts', u'Art Dealers and Galleries']]"
0,Mansy Thibault,Dun sur Meuse,55110,6 Ile,Meuse,fr,,09 60 46 98 52,http://passeaupresentunblogfr.unblog.fr,"[[u'Social', u'Arts', u'Art Dealers and Galleries']]"
0,Maugras Robert,Abainville,55130,17 Grande rue,Meuse,fr,,03 29 75 41 71,,"[[u'Social', u'Arts', u'Art Dealers and Galleries']]"
0,Lebert jean-claude,Gondrecourt le Château,55130,2 rue Raymond Poincare,Meuse,fr,,03 29 89 64 33,,"[[u'Social', u'Arts', u'Art Dealers and Galleries']]"
0,Morisot Patrick,Goussaincourt,55140,14 rue Albert Thomas,Meuse,fr,,03 29 89 85 02,,"[[u'Social', u'Arts', u'Art Dealers and Galleries']]"
0,Correggio Lionel Meuse Antique,Vaucouleurs,55140,54 avenue de Domremy,Meuse,fr,,03 29 89 93 74,,"[[u'Social', u'Arts', u'Art Dealers and Galleries']]"
0,Baret Philippe,Tresauvaux,55160,9 rue de la Mairie,Meuse,fr,,03 29 87 39 91,,"[[u'Social', u'Arts', u'Art Dealers and Galleries']]"
0,La Maison de la Brocante,Manheulles,55160,40 rue du Général Margueritte,Meuse,fr,,03 29 88 82 34,,"[[u'Social', u'Arts', u'Art Dealers and Galleries']]"
0,Compagnons du Chemin de Vie,Lérouville,55200,quartier du Rebus,Meuse,fr,,03 29 90 51 17,,"[[u'Social', u'Arts', u'Art Dealers and Galleries']]"
0,Reichling Jean-Marc,Vignot,55200,11 rue Raymond Poincaré,Meuse,fr,,06 03 71 47 42,,"[[u'Social', u'Arts', u'Art Dealers and Galleries']]"
0,Brocantique S.A.R.L.,Vignot,55200,6 rue Thiers,Meuse,fr,,03 29 91 52 75,,"[[u'Social', u'Arts', u'Art Dealers and Galleries']]"
0,Musée d'art Sacré de la Meuse,Saint Mihiel,55300,6 rue Palais de Justice,Meuse,fr,,03 29 89 06 47,http://www.coeurdelorraine-tourisme.fr,"[[u'Social', u'Arts', u'Art Dealers and Galleries']]"
0,Yellow Korner,Metz,57000,13 rue des Clercs,Moselle,fr,,03 87 74 34 90,http://store.yellowkorner.com/galeries/metz/B20,"[[u'Social', u'Arts', u'Art Dealers and Galleries']]"
0,Becq Pierre,Metz,57000,5 rue Gambetta,Moselle,fr,,03 87 63 61 61,http://www.antiquites-becq-metz.fr,"[[u'Social', u'Arts', u'Art Dealers and Galleries']]"
0,Quatre Coins,Metz,57000,25 rue Mazelle,Moselle,fr,,03 87 18 33 39,https://sites.google.com/site/encadrementmetzquatrecoins/,"[[u'Social', u'Arts', u'Art Dealers and Galleries']]"
0,Cridart,Metz,57000,1 rue d'Enfer,Moselle,fr,,06 80 17 80 94,http://www.cridart.com,"[[u'Social', u'Arts', u'Art Dealers and Galleries']]"
0,Antiquites Becq,Metz,57000,5 rue Gambetta,Moselle,fr,,03 87 63 61 61,http://www.antiquites-becq-metz.fr,"[[u'Social', u'Arts', u'Art Dealers and Galleries']]"
0,Barbier Martine,Metz,57000,1 rue Gambetta,Moselle,fr,,03 87 36 62 30,,"[[u'Social', u'Arts', u'Art Dealers and Galleries']]"
0,La Girandole,Metz,57000,1 Bis rue de la Paix,Moselle,fr,,03 87 74 05 50,,"[[u'Social', u'Arts', u'Art Dealers and Galleries']]"
0,Galerie le Toutouchic,Metz,57000,23 ter rue de la Haye,Moselle,fr,,06 82 47 82 87,http://www.letoutouchic.com,"[[u'Social', u'Arts', u'Art Dealers and Galleries']]"
0,Antiquité Ancien F.Treyvy,Metz,57000,10 rue de la Tête d'Or,Moselle,fr,,03 87 76 28 27,,"[[u'Social', u'Arts', u'Art Dealers and Galleries']]"
0,In3 Arts,Metz,57000,13 place Armes,Moselle,fr,,03 87 36 94 99,http://www.in3arts.com,"[[u'Social', u'Arts', u'Art Dealers and Galleries']]"
0,Au Bon Vieux,Metz,57000,1 Bis rue du Champé,Moselle,fr,,03 87 74 03 49,,"[[u'Social', u'Arts', u'Art Dealers and Galleries']]"
0,Chercheur d'Art,Metz,57000,62 en Fournirue,Moselle,fr,,03 87 75 76 15,,"[[u'Social', u'Arts', u'Art Dealers and Galleries']]"
0,Regards,Metz,57000,13 place Armes,Moselle,fr,,03 87 36 94 99,,"[[u'Social', u'Arts', u'Art Dealers and Galleries']]"
0,Au Bric à Brac,Metz,57000,22 rue des Jardins,Moselle,fr,,06 08 62 35 40,,"[[u'Social', u'Arts', u'Art Dealers and Galleries']]"
0,La Queue d'Aronde,Metz,57000,23 rue des Allemands,Moselle,fr,,03 87 20 92 77,,"[[u'Social', u'Arts', u'Art Dealers and Galleries']]"
0,Le Billet Doux,Metz,57000,74 rue Mazelle,Moselle,fr,,03 55 00 03 20,,"[[u'Social', u'Arts', u'Art Dealers and Galleries']]"
0,Intemporelle,Metz,57000,33 place de Chambre,Moselle,fr,,03 87 21 30 23,,"[[u'Social', u'Arts', u'Art Dealers and Galleries']]"
0,Antiquités à l'Estampille,Metz,57000,1 rue Gambetta,Moselle,fr,,03 87 36 96 27,,"[[u'Social', u'Arts', u'Art Dealers and Galleries']]"
0,Artplusmetz,Metz,57000,4 rue Gambetta,Moselle,fr,,03 87 62 45 82,,"[[u'Social', u'Arts', u'Art Dealers and Galleries']]"
0,Palette Messine,Metz,57000,16 place des Charrons,Moselle,fr,,03 87 76 21 11,,"[[u'Social', u'Arts', u'Art Dealers and Galleries']]"
0,Macchioni,Metz,57000,1 rue Gambetta,Moselle,fr,,09 61 20 65 43,,"[[u'Social', u'Arts', u'Art Dealers and Galleries']]"
0,Antiquité Burkatzki Françoise à Metz,Metz,57000,10 rue Petite Boucherie,Moselle,fr,,03 87 76 07 97,,"[[u'Social', u'Arts', u'Art Dealers and Galleries']]"
0,Galerie Arts Multiples,Metz,57000,42 rue Saint Marcel,Moselle,fr,,03 87 30 28 68,,"[[u'Social', u'Arts', u'Art Dealers and Galleries']]"
0,Galerie Thiam,Metz,57000,30 rue des Clercs,Moselle,fr,,03 87 75 28 56,,"[[u'Social', u'Arts', u'Art Dealers and Galleries']]"
0,Galerie Art du Temps,Metz,57000,25 rue des Jardins,Moselle,fr,,03 87 74 75 32,,"[[u'Social', u'Arts', u'Art Dealers and Galleries']]"
0,Art'icule à Metz,Metz,57000,22 rue Taison,Moselle,fr,,03 87 18 13 44,,"[[u'Social', u'Arts', u'Art Dealers and Galleries']]"
0,Viola Andre,Metz,57050,20 route de Lorry,Moselle,fr,,06 08 47 55 32,,"[[u'Social', u'Arts', u'Art Dealers and Galleries']]"
0,Traber Albert Brocanteur,Metz,57070,1 rue Raphael Levy,Moselle,fr,,03 87 37 37 40,,"[[u'Social', u'Arts', u'Art Dealers and Galleries']]"
0,La tour de la brocante et de l'antiquite,Manom,57100,28 route de Luxembourg,Moselle,fr,,03 82 51 36 45,http://www.achat-thionville.com/antiquite-de-la-tour,"[[u'Social', u'Arts', u'Art Dealers and Galleries']]"
0,Au Bahut Lorrain,Woippy,57140,11 rue Ferdinand Sechehaye,Moselle,fr,,03 87 30 80 96,,"[[u'Social', u'Arts', u'Art Dealers and Galleries']]"
0,De Maio Michel,Sarreguemines,57200,6 rue Gutenberg,Moselle,fr,,03 87 02 85 49,,"[[u'Social', u'Arts', u'Art Dealers and Galleries']]"
0,Carré d'Ambre,Sarreguemines,57200,22 rue des Généraux Cremer,Moselle,fr,,03 87 95 01 36,,"[[u'Social', u'Arts', u'Art Dealers and Galleries']]"
0,Assajuco Emmaus,Dieuze,57260,Impasse de la Madeleine,Moselle,fr,,03 87 86 84 98,http://www.assajuco.fr,"[[u'Social', u'Arts', u'Art Dealers and Galleries']]"
0,Inter Achats,Dieuze,57260,511 route de Loudrefing,Moselle,fr,,03 87 05 34 47,,"[[u'Social', u'Arts', u'Art Dealers and Galleries']]"
0,Fensch Antique,Serémange Erzange,57290,21 rue Charles de Gaulle,Moselle,fr,,03 82 58 83 76,,"[[u'Social', u'Arts', u'Art Dealers and Galleries']]"
0,Henri Richard,Ebersviller,57320,22 Boucle André Maginot,Moselle,fr,,03 87 55 90 30,,"[[u'Social', u'Arts', u'Art Dealers and Galleries']]"
0,La Halle aux Antiquites,Buhl Lorraine,57400,34 route de Sarrebourg,Moselle,fr,,03 87 03 16 59,,"[[u'Social', u'Arts', u'Art Dealers and Galleries']]"
0,Titi International,Sarrebourg,57400,Zone Cap Ouest,Moselle,fr,,03 87 24 90 72,http://www.tititroc.fr,"[[u'Social', u'Arts', u'Art Dealers and Galleries']]"
0,Bernard Christine,Cheminot,57420,16 rue Charlemagne,Moselle,fr,,03 87 69 71 55,,"[[u'Social', u'Arts', u'Art Dealers and Galleries']]"
0,Antiquités au Chiabout,Solgne,57420,Zone Artisanale Cheval Blanc,Moselle,fr,,03 87 57 73 52,,"[[u'Social', u'Arts', u'Art Dealers and Galleries']]"
0,Mairie de Saint-Avold,Saint Avold,57500,,Moselle,fr,,03 87 91 10 07,http://www.mairie-saint-avold.fr,"[[u'Social', u'Arts', u'Art Dealers and Galleries']]"
0,Galerie d'Art Boyrié,Saint Quirin,57560,36 rue de l'Eglise,Moselle,fr,,03 87 08 68 65,,"[[u'Social', u'Arts', u'Art Dealers and Galleries']]"
0,Humbert Luc,Gavisse,57570,62 A rue de la Forge,Moselle,fr,,06 50 23 58 35,,"[[u'Social', u'Arts', u'Art Dealers and Galleries']]"
0,Synagogue Delme Espace Art Contemporain,Delme,57590,33 rue Raymond Poincaré,Moselle,fr,,03 87 01 43 42,,"[[u'Social', u'Arts', u'Art Dealers and Galleries']]"
0,Lydia's Bagatelle,Manhoué,57590,39 rue Principale,Moselle,fr,,06 86 56 51 92,,"[[u'Social', u'Arts', u'Art Dealers and Galleries']]"
0,Poye Bernard,Liocourt,57590,5 route de Craincourt,Moselle,fr,,09 53 07 12 95,,"[[u'Social', u'Arts', u'Art Dealers and Galleries']]"
0,Antiquités Muller,Forbach,57600,89 rue Nationale,Moselle,fr,,03 87 85 42 69,,"[[u'Social', u'Arts', u'Art Dealers and Galleries']]"
0,Galerie 125,Argancy,57640,20 rue des roseaux,Moselle,fr,,03 87 73 30 94,http://www.galerie125.fr,"[[u'Social', u'Arts', u'Art Dealers and Galleries']]"
0,Blaisius Patricia,Insming,57670,7 rue de la Fonderie,Moselle,fr,,03 87 01 68 29,,"[[u'Social', u'Arts', u'Art Dealers and Galleries']]"
0,Antiquités Leclercq Olivier,Hayange,57700,9 rue du Maréchal Foch,Moselle,fr,,03 82 85 78 01,,"[[u'Social', u'Arts', u'Art Dealers and Galleries']]"
0,Werle Jean-Jacques,Moussey,57770,55 rue de la Gare,Moselle,fr,,03 87 07 10 33,,"[[u'Social', u'Arts', u'Art Dealers and Galleries']]"
0,Tafforeau Olivier,Freyming Merlebach,57800,148 rue de Sainte Fontaine,Moselle,fr,,06 69 68 72 29,,"[[u'Social', u'Arts', u'Art Dealers and Galleries']]"
0,La Cristallerie du Plan Incliné,Saint Louis,57820,Annexe Hofmuhl,Moselle,fr,,03 87 24 49 92,,"[[u'Social', u'Arts', u'Art Dealers and Galleries']]"
0,Jungmann Eric,Walscheid,57870,21 route Division Leclerc,Moselle,fr,,06 09 81 11 82,http://www.galerie-jungmann.com,"[[u'Social', u'Arts', u'Art Dealers and Galleries']]"
0,Kiener Roland,Fénétrange,57930,8 rue de l'Église,Moselle,fr,,03 87 07 57 44,http://antiquite-debarras-roland.fr,"[[u'Social', u'Arts', u'Art Dealers and Galleries']]"
0,Fourcroy Emmanuelle,Montigny Lès Metz,57950,31 rue du Général Franiatte,Moselle,fr,,06 13 56 67 93,,"[[u'Social', u'Arts', u'Art Dealers and Galleries']]"
0,Arts Gambetta,Montigny Lès Metz,57950,7 rue de Saint Exupery,Moselle,fr,,03 87 38 00 54,,"[[u'Social', u'Arts', u'Art Dealers and Galleries']]"
0,Simoni Hervé,Montigny Lès Metz,57950,7 rue Saint Exupéry,Moselle,fr,,03 87 38 00 54,,"[[u'Social', u'Arts', u'Art Dealers and Galleries']]"
0,Galerie d'Art Espace Creation,Montigny Lès Metz,57950,10 rue des Martyrs de la Résistance,Moselle,fr,,03 87 63 15 91,,"[[u'Social', u'Arts', u'Art Dealers and Galleries']]"
0,Brocs en Stock,Montigny Lès Metz,57950,7 rue Saint Andre,Moselle,fr,,03 87 36 65 31,,"[[u'Social', u'Arts', u'Art Dealers and Galleries']]"
0,Gobert Maria,Meisenthal,57960,4 place Robert Schumann,Moselle,fr,,03 87 96 92 80,,"[[u'Social', u'Arts', u'Art Dealers and Galleries']]"
0,Laura Brocante,Yutz,57970,68 avenue des Nations,Moselle,fr,,06 83 42 61 35,,"[[u'Social', u'Arts', u'Art Dealers and Galleries']]"
0,Haffner Désiré,Nousseviller Saint Nabor,57990,19 rue du Stade,Moselle,fr,,03 87 02 42 24,,"[[u'Social', u'Arts', u'Art Dealers and Galleries']]"
0,La Lune en Parachute,Épinal,88000,46 Bis rue Saint Michel,Vosges,fr,,03 29 35 04 64,http://www.laluneenparachute.com,"[[u'Social', u'Arts', u'Art Dealers and Galleries']]"
0,Spinabroc,Épinal,88000,9 rue de la Marne,Vosges,fr,,03 29 35 47 86,,"[[u'Social', u'Arts', u'Art Dealers and Galleries']]"
0,Grenier des Collectionneurs,Épinal,88000,2 rue Jeanmaire,Vosges,fr,,03 29 82 23 08,,"[[u'Social', u'Arts', u'Art Dealers and Galleries']]"
0,Viant André,Épinal,88000,47 rue de Remiremont,Vosges,fr,,03 29 35 34 85,,"[[u'Social', u'Arts', u'Art Dealers and Galleries']]"
0,Clement Jean Marc,Saint Die des Vosges,88100,2 rue des Travailleurs,Vosges,fr,,03 29 50 71 75,,"[[u'Social', u'Arts', u'Art Dealers and Galleries']]"
0,Cash Brocante,Saint Die des Vosges,88100,38 rue d'Hellieule,Vosges,fr,,03 29 56 18 11,,"[[u'Social', u'Arts', u'Art Dealers and Galleries']]"
0,Kurus Hans,Celles sur Plaine,88110,15 rue de la Tournelle,Vosges,fr,,03 29 41 10 97,,"[[u'Social', u'Arts', u'Art Dealers and Galleries']]"
0,Grange Patrice,Battexey,88130,8 le Village,Vosges,fr,,03 29 38 88 13,,"[[u'Social', u'Arts', u'Art Dealers and Galleries']]"
0,Charmes Antique,Charmes,88130,75 79ieme Américains,Vosges,fr,,06 03 31 63 96,,"[[u'Social', u'Arts', u'Art Dealers and Galleries']]"
0,Lacourt Maurice,Charmes,88130,6 rue du Général Marion,Vosges,fr,,03 29 38 12 41,,"[[u'Social', u'Arts', u'Art Dealers and Galleries']]"
0,Le Hangar,Le Thillot,88160,51 rue Charles de Gaulle Rn 66,Vosges,fr,,06 30 80 41 26,,"[[u'Social', u'Arts', u'Art Dealers and Galleries']]"
0,Colle Eric,Le Thillot,88160,1 bis chemin de la Flaconnière,Vosges,fr,,03 29 25 21 31,,"[[u'Social', u'Arts', u'Art Dealers and Galleries']]"
0,Mougenot Patricia,Le Thillot,88160,11 rue Charles de Gaulle,Vosges,fr,,03 29 25 30 74,,"[[u'Social', u'Arts', u'Art Dealers and Galleries']]"
0,Le Hayo,Châtenois,88170,4 place de la Gare,Vosges,fr,,03 29 94 69 22,,"[[u'Social', u'Arts', u'Art Dealers and Galleries']]"
0,Entreprise Durand,Châtenois,88170,2 Impasse Pierre de Courbertin,Vosges,fr,,03 29 06 59 97,,"[[u'Social', u'Arts', u'Art Dealers and Galleries']]"
0,Andreux Philippe,Saint Étienne Lès Remiremont,88200,10 Grande rue,Vosges,fr,,03 29 22 36 94,,"[[u'Social', u'Arts', u'Art Dealers and Galleries']]"
0,Napo Broc,Raon Aux Bois,88220,5 route d'Arches,Vosges,fr,,03 29 62 49 94,,"[[u'Social', u'Arts', u'Art Dealers and Galleries']]"
0,Antiquités Jean-Claude et Marie-Agnès Grenot,Uriménil,88220,44 place de l'Eglise,Vosges,fr,,03 29 30 81 41,,"[[u'Social', u'Arts', u'Art Dealers and Galleries']]"
0,Antiquités Brocante de la Petite Meurthe,Ban sur Meurthe Clefcy,88230,222 route du Souche,Vosges,fr,,03 29 50 43 98,,"[[u'Social', u'Arts', u'Art Dealers and Galleries']]"
0,Antiquité la Grande Maison à Bains-les-Bains,Bains les Bains,88240,5 rue Marie Poirot,Vosges,fr,,03 29 36 36 82,,"[[u'Social', u'Arts', u'Art Dealers and Galleries']]"
0,Genson Daniel,Bains les Bains,88240,4 avenue André Demazure,Vosges,fr,,06 08 84 24 64,,"[[u'Social', u'Arts', u'Art Dealers and Galleries']]"
0,Liber Tea,La Bresse,88250,2A rue Mougel Bey,Vosges,fr,,03 29 25 59 83,,"[[u'Social', u'Arts', u'Art Dealers and Galleries']]"
0,Les Matériaux d'Autrefois,Neufchâteau,88300,400 route Langres,Vosges,fr,,03 29 06 96 05,http://www.les-materiaux-d-autrefois-neufchateau.com,"[[u'Social', u'Arts', u'Art Dealers and Galleries']]"
0,Rebourg Claude,Neufchâteau,88300,4 place Jeanne d'Arc,Vosges,fr,,03 29 94 01 65,,"[[u'Social', u'Arts', u'Art Dealers and Galleries']]"
0,Adam Philippe,Pompierre,88300,1 rue du Chateau,Vosges,fr,,03 29 06 52 40,,"[[u'Social', u'Arts', u'Art Dealers and Galleries']]"
0,Antiquités Brayer,Damblain,88320,17 rue du Colonel Renard,Vosges,fr,,06 08 09 58 37,,"[[u'Social', u'Arts', u'Art Dealers and Galleries']]"
0,Joseph Nathalie,Rupt sur Moselle,88360,22 route du mont de Fourche,Vosges,fr,,03 29 62 40 44,,"[[u'Social', u'Arts', u'Art Dealers and Galleries']]"
0,Schlauberg Xavier,Rupt Sur Moselle,88360,27 rue Larger,Vosges,fr,,09 53 09 30 75,,"[[u'Social', u'Arts', u'Art Dealers and Galleries']]"
0,Jacquin Pierre,Plombières les Bains,88370,14 rue Liétard,Vosges,fr,,03 29 36 87 72,,"[[u'Social', u'Arts', u'Art Dealers and Galleries']]"
0,Le grenier ruaudais,Plombières les Bains,88370,14 rue du Parc,Vosges,fr,,03 29 34 18 52,,"[[u'Social', u'Arts', u'Art Dealers and Galleries']]"
0,Le Chiffonnier,Gérardmer,88400,679 route d'Epinal le Beillard,Vosges,fr,,03 29 60 91 05,,"[[u'Social', u'Arts', u'Art Dealers and Galleries']]"
0,Roger Andre,Gérardmer,88400,679 route d'Épinal,Vosges,fr,,03 29 60 91 05,,"[[u'Social', u'Arts', u'Art Dealers and Galleries']]"
0,Brocante du Neuné,Corcieux,88430,8 rue d'Alsace,Vosges,fr,,06 07 86 72 71,,"[[u'Social', u'Arts', u'Art Dealers and Galleries']]"
0,Le Bataclan,Tendon,88460,20 route des Cascades,Vosges,fr,,03 29 36 92 24,,"[[u'Social', u'Arts', u'Art Dealers and Galleries']]"
0,Le Grenier du Fossard,Tendon,88460,25 route des Cascades,Vosges,fr,,03 29 66 20 05,,"[[u'Social', u'Arts', u'Art Dealers and Galleries']]"
0,La Brocante des Cascades,Tendon,88460,62 route des Cascades,Vosges,fr,,03 29 66 23 96,,"[[u'Social', u'Arts', u'Art Dealers and Galleries']]"
0,Mathieu Marie-France,Étival Clairefontaine,88480,26 avenue Charles de Gaulle,Vosges,fr,,03 29 41 83 48,,"[[u'Social', u'Arts', u'Art Dealers and Galleries']]"
0,Colin Christophe,Lusse,88490,1 aux Grands Champs,Vosges,fr,,03 29 55 66 07,http://www.mobilierurbainenbois.com,"[[u'Social', u'Arts', u'Art Dealers and Galleries']]"
0,La Belle Epoque,Jarménil,88550,18 rue des Moises,Vosges,fr,,03 29 36 99 60,,"[[u'Social', u'Arts', u'Art Dealers and Galleries']]"
0,Brocante du Neuné,Herpelmont,88600,117 rue du Calvaire,Vosges,fr,,06 07 86 72 71,,"[[u'Social', u'Arts', u'Art Dealers and Galleries']]"
0,Antiquités Dieudonné Laurent,Laveline Devant Bruyères,88600,3 rue de la Mairie,Vosges,fr,,06 76 71 04 37,,"[[u'Social', u'Arts', u'Art Dealers and Galleries']]"
0,Fruch Jean-Marie,Domrémy la Pucelle,88630,1 rue de l'Église,Vosges,fr,,03 29 06 98 38,,"[[u'Social', u'Arts', u'Art Dealers and Galleries']]"
0,Kauffmann Michel,Coussey,88630,1 Impasse Epiceas,Vosges,fr,,03 29 06 94 82,,"[[u'Social', u'Arts', u'Art Dealers and Galleries']]"
0,Francais Jacky,Vittel,88800,27 place du Général de Gaulle,Vosges,fr,,03 29 08 47 91,,"[[u'Social', u'Arts', u'Art Dealers and Galleries']]"
0,Au Fil des Temps,Foix,09000,5 place Georges Duthil,Ariège,fr,,05 61 65 18 34,,"[[u'Social', u'Arts', u'Art Dealers and Galleries']]"
0,Antiquités René Dejean,Saint Jean Du Falga,09100,1 place Semalier avenue Pyrénées,Ariège,fr,,06 87 69 71 53,,"[[u'Social', u'Arts', u'Art Dealers and Galleries']]"
0,Antiquités René Dejean,Saint Jean du Falga,09100,place de Rauly,Ariège,fr,,05 61 60 78 07,,"[[u'Social', u'Arts', u'Art Dealers and Galleries']]"
0,Duarte Antiquites,Pamiers,09100,15 rue Saint Antonin,Ariège,fr,,05 61 69 78 40,,"[[u'Social', u'Arts', u'Art Dealers and Galleries']]"
0,Laffont Jean-Jacques à Gudas,Gudas,09120,Peny Hameau,Ariège,fr,,05 61 68 55 78,,"[[u'Social', u'Arts', u'Art Dealers and Galleries']]"
0,Lamary Bernard,Lorp Sentaraille,09190,10 avenue Aristide Berges,Ariège,fr,,06 76 77 58 01,,"[[u'Social', u'Arts', u'Art Dealers and Galleries']]"
0,Sellares Alain,Lorp Sentaraille,09190,20 avenue Charles de Gaulle,Ariège,fr,,05 61 66 04 78,,"[[u'Social', u'Arts', u'Art Dealers and Galleries']]"
0,Gregoire Michel,Lacourt,09200,5 quartier des Rouquilles,Ariège,fr,,06 42 08 62 64,,"[[u'Social', u'Arts', u'Art Dealers and Galleries']]"
0,Galy Genevieve,Saint Girons,09200,18 rue Jules Desbiaux,Ariège,fr,,05 61 66 06 91,,"[[u'Social', u'Arts', u'Art Dealers and Galleries']]"
0,Brousse Martine,La Bastide de Sérou,09240,rue de la Faurie,Ariège,fr,,06 62 12 70 73,,"[[u'Social', u'Arts', u'Art Dealers and Galleries']]"
0,Rouch Joël,Mazères,09270,lieu-dit Pignes,Ariège,fr,,06 88 70 26 23,,"[[u'Social', u'Arts', u'Art Dealers and Galleries']]"
0,Brocante Del Païs,Saint Jean d'Aigues Vives,09300,route de Belesta,Ariège,fr,,05 61 01 24 48,,"[[u'Social', u'Arts', u'Art Dealers and Galleries']]"
0,Antiquités Curiosités à Tarascon-sur-Ariège,Tarascon sur Ariège,09400,3 chemin Croix de Quie,Ariège,fr,,06 89 27 87 63,,"[[u'Social', u'Arts', u'Art Dealers and Galleries']]"
0,Antiquités Joao Manuel,Rodez,12000,2 rue moutiers avenue de vabres route Conques,Aveyron,fr,,06 66 84 84 47,http://www.antiquites-joao.fr,"[[u'Social', u'Arts', u'Art Dealers and Galleries']]"
0,La Cité des Antiquaires,Rodez,12000,964 avenue Peyrinie,Aveyron,fr,,05 65 42 40 00,,"[[u'Social', u'Arts', u'Art Dealers and Galleries']]"
0,Leyrolles Jean-Marie,Rodez,12000,78 avenue de Paris,Aveyron,fr,,05 65 78 31 69,,"[[u'Social', u'Arts', u'Art Dealers and Galleries']]"
0,Galerie Sainte Catherine,Rodez,12000,place Eugène Raynaldy,Aveyron,fr,,05 65 46 69 63,,"[[u'Social', u'Arts', u'Art Dealers and Galleries']]"
0,Galerie Sainte-Catherine,Rodez,12000,50 route Moyrazès,Aveyron,fr,,05 65 77 18 34,,"[[u'Social', u'Arts', u'Art Dealers and Galleries']]"
0,Mission Départementale Culture,Rodez,12000,rue Louis Oustry,Aveyron,fr,,05 65 46 05 29,,"[[u'Social', u'Arts', u'Art Dealers and Galleries']]"
0,Sucret Lionel,Rodez,12000,1 place du Bourg,Aveyron,fr,,06 80 01 76 87,,"[[u'Social', u'Arts', u'Art Dealers and Galleries']]"
0,Noyrigat Jacques,Millau,12100,avenue de Millau Plage,Aveyron,fr,,05 65 59 15 97,http://www.brocanteajacques.canalblog.com/,"[[u'Social', u'Arts', u'Art Dealers and Galleries']]"
0,Alauzet Yvon,Millau,12100,25 boulevard de l'Ayrolle,Aveyron,fr,,05 65 60 10 39,,"[[u'Social', u'Arts', u'Art Dealers and Galleries']]"
0,Alauzet Yvon,Millau,12100,22 avenue Jean Jaurès,Aveyron,fr,,05 65 60 13 12,,"[[u'Social', u'Arts', u'Art Dealers and Galleries']]"
0,Crouzat Antiquités,Millau,12100,13 boulevard de Bonald,Aveyron,fr,,05 65 60 37 58,,"[[u'Social', u'Arts', u'Art Dealers and Galleries']]"
0,Bernicola Jacky,Millau,12100,85 boulevard de l'Ayrolle,Aveyron,fr,,05 65 60 60 48,,"[[u'Social', u'Arts', u'Art Dealers and Galleries']]"
0,Menine Antiquites,Millau,12100,15 rue Liberté,Aveyron,fr,,05 65 61 24 14,,"[[u'Social', u'Arts', u'Art Dealers and Galleries']]"
0,Antiquités Brocante la Chapellerie,Saint Geniez d'Olt,12130,1 rue du Commerce,Aveyron,fr,,05 65 74 78 18,,"[[u'Social', u'Arts', u'Art Dealers and Galleries']]"
0,Mercier Josiane,Saint Geniez d'Olt,12130,82 rue d'Auronne,Aveyron,fr,,05 65 70 48 92,,"[[u'Social', u'Arts', u'Art Dealers and Galleries']]"
0,Caldamaison Gérard,Golinhac,12140,le Bourg,Aveyron,fr,,05 65 44 58 47,,"[[u'Social', u'Arts', u'Art Dealers and Galleries']]"
0,Au reflet du passe,Sévérac le Château,12150,3 rue des Fleurs,Aveyron,fr,,06 07 31 60 74,,"[[u'Social', u'Arts', u'Art Dealers and Galleries']]"
0,Van Stekelenburg Paulina,Villefranche De Rouergue,12200,3 rue Durand de Montlauzeur,Aveyron,fr,,06 87 70 69 15,,"[[u'Social', u'Arts', u'Art Dealers and Galleries']]"
0,Galerie Sépia,Villefranche de Rouergue,12200,3 rue Urbain Cabrol,Aveyron,fr,,05 65 45 57 68,http://galeriesepia.com,"[[u'Social', u'Arts', u'Art Dealers and Galleries']]"
0,Thuillier Agathe,Villefranche de Rouergue,12200,3 rue Urbain Cabrol,Aveyron,fr,,05 65 45 57 68,http://www.galeriesepia.com,"[[u'Social', u'Arts', u'Art Dealers and Galleries']]"
0,Antiquités Brassac Jean-Louis,Villefranche de Rouergue,12200,3 Impasse des Capucins,Aveyron,fr,,05 65 81 14 59,,"[[u'Social', u'Arts', u'Art Dealers and Galleries']]"
0,Heimatlos Brocante,Villefranche de Rouergue,12200,16 avenue du Quercy,Aveyron,fr,,05 65 45 21 23,,"[[u'Social', u'Arts', u'Art Dealers and Galleries']]"
0,Raynaud Hubert,Villefranche de Rouergue,12200,route Basse de Farrou,Aveyron,fr,,05 65 45 15 51,,"[[u'Social', u'Arts', u'Art Dealers and Galleries']]"
0,Antiquités Timeless à Villefranche-de-Rouergue,Villefranche de Rouergue,12200,3 rue Durand de Montlauzer,Aveyron,fr,,06 75 10 29 87,,"[[u'Social', u'Arts', u'Art Dealers and Galleries']]"
0,Autre Temps,Villefranche de Rouergue,12200,26 avenue Ségala,Aveyron,fr,,05 65 81 12 65,,"[[u'Social', u'Arts', u'Art Dealers and Galleries']]"
0,Espinossa Michel,La Couvertoirade,12230,la Baraque des Infruts,Aveyron,fr,,06 71 97 45 73,,"[[u'Social', u'Arts', u'Art Dealers and Galleries']]"
0,Antiquités les Noisetiers,La Cavalerie,12230,route de Saint Affrique,Aveyron,fr,,05 65 59 04 53,,"[[u'Social', u'Arts', u'Art Dealers and Galleries']]"
0,Le Paradis du Chineur,Roquefort sur Soulzon,12250,2 avenue Moussac Lauras,Aveyron,fr,,05 65 58 91 80,,"[[u'Social', u'Arts', u'Art Dealers and Galleries']]"
0,Artsud,Villeneuve,12260,Septfonds,Aveyron,fr,,05 65 81 73 73,http://www.galerieartsud.com,"[[u'Social', u'Arts', u'Art Dealers and Galleries']]"
0,Mella Simone,Najac,12270,24 Gare,Aveyron,fr,,05 65 29 70 98,,"[[u'Social', u'Arts', u'Art Dealers and Galleries']]"
0,Bricabroc,Boisse Penchot,12300,11 rue de la Verrerie,Aveyron,fr,,06 15 35 14 83,http://www.stores.ebay.fr/mamie-gourmande?_trksid=p204767,"[[u'Social', u'Arts', u'Art Dealers and Galleries']]"
0,AVE Débarras à Decazeville,Decazeville,12300,1 Bis rue Camille Douls,Aveyron,fr,,05 65 64 49 26,,"[[u'Social', u'Arts', u'Art Dealers and Galleries']]"
0,Pissot Bernadette,Saint Christophe Vallon,12330,11 route de Cransac,Aveyron,fr,,05 65 72 76 38,,"[[u'Social', u'Arts', u'Art Dealers and Galleries']]"
0,La Chine du Vallon,Clairvaux d'Aveyron,12330,40 avenue de la Tour,Aveyron,fr,,05 65 42 84 19,,"[[u'Social', u'Arts', u'Art Dealers and Galleries']]"
0,Le Manoir de Peyrolles,Bozouls,12340,Peyrolles,Aveyron,fr,,05 65 44 92 24,,"[[u'Social', u'Arts', u'Art Dealers and Galleries']]"
0,Broc'Art,Rignac,12390,14 avenue Ségala,Aveyron,fr,,05 65 64 12 42,,"[[u'Social', u'Arts', u'Art Dealers and Galleries']]"
0,Gimenez André,Saint Affrique,12400,avenue du Docteur Blancard,Aveyron,fr,,05 65 99 18 62,,"[[u'Social', u'Arts', u'Art Dealers and Galleries']]"
0,Roubin Marc,Saint Affrique,12400,10 place de l'Hôtel de Ville,Aveyron,fr,,05 65 99 12 50,,"[[u'Social', u'Arts', u'Art Dealers and Galleries']]"
0,Gabriel Franck,Saint Affrique,12400,le Vern,Aveyron,fr,,05 65 99 19 15,,"[[u'Social', u'Arts', u'Art Dealers and Galleries']]"
0,Brocante du vern,Saint Affrique,12400,le Vern,Aveyron,fr,,06 08 23 10 43,,"[[u'Social', u'Arts', u'Art Dealers and Galleries']]"
0,Palais des curiosités,Luc La Primaube,12450,Parc Artisanal de Naujac,Aveyron,fr,,05 65 69 52 00,http://www.expertise-antiquites-rodez.fr,"[[u'Social', u'Arts', u'Art Dealers and Galleries']]"
0,Antiquité Déco,Espalion,12500,1 rue Croix,Aveyron,fr,,06 84 78 48 87,,"[[u'Social', u'Arts', u'Art Dealers and Galleries']]"
0,Benezet Henri,Aguessac,12520,14 avenue des Causses,Aveyron,fr,,05 65 59 81 05,,"[[u'Social', u'Arts', u'Art Dealers and Galleries']]"
0,Berche Maguy,Capdenac Gare,12700,19 rue Jean Mermoz,Aveyron,fr,,05 65 63 82 92,,"[[u'Social', u'Arts', u'Art Dealers and Galleries']]"
0,Lacombe Jean-Luc,Onet le Château,12850,za la Prade,Aveyron,fr,,06 07 47 58 74,,"[[u'Social', u'Arts', u'Art Dealers and Galleries']]"
0,B.A.M Gallery,Toulouse,31000,52 rue Raymond IV,Haute-Garonne,fr,,05 61 48 76 08,http://www.bam-gallery.com,"[[u'Social', u'Arts', u'Art Dealers and Galleries']]"
0,Le Capitole-Salle des Illustres,Toulouse,31000,place du Capitole,Haute-Garonne,fr,,05 61 22 29 22,http://www.toulouse.fr/,"[[u'Social', u'Arts', u'Art Dealers and Galleries']]"
0,Galerie Sollertis,Toulouse,31000,12 rue Regans,Haute-Garonne,fr,,05 61 55 43 32,http://www.sollertis.com/,"[[u'Social', u'Arts', u'Art Dealers and Galleries']]"
0,Galerie Serventi,Toulouse,31000,7 rue d'Astorg,Haute-Garonne,fr,,05 61 12 22 46,http://www.galerieserventi.com,"[[u'Social', u'Arts', u'Art Dealers and Galleries']]"
0,Palladion,Toulouse,31000,19 rue de la Colombette,Haute-Garonne,fr,,05 61 63 69 65,http://www.colombette.fr/la_colombette/galerie_palladion/,"[[u'Social', u'Arts', u'Art Dealers and Galleries']]"
0,Art et Cadres International,Toulouse,31000,20 avenue Honoré Serres,Haute-Garonne,fr,,05 61 62 99 64,http://www.artetcadres.com,"[[u'Social', u'Arts', u'Art Dealers and Galleries']]"
0,Art 21,Toulouse,31000,21 rue Matabiau,Haute-Garonne,fr,,05 61 62 82 27,http://www.art-21.fr,"[[u'Social', u'Arts', u'Art Dealers and Galleries']]"
0,Girard Jacques,Toulouse,31000,20 rue des Blanchers,Haute-Garonne,fr,,05 61 23 35 95,http://galeriegirard.free.fr/,"[[u'Social', u'Arts', u'Art Dealers and Galleries']]"
0,Daudet Alain,Toulouse,31000,10 rue de la Trinite,Haute-Garonne,fr,,05 34 31 74 84,http://www.galeriealaindaudet.com,"[[u'Social', u'Arts', u'Art Dealers and Galleries']]"
0,Objets et Créatures,Toulouse,31000,27 rue des Paradoux,Haute-Garonne,fr,,06 26 56 70 10,http://stores.ebay.fr/OBJETS-ET-CREATURES,"[[u'Social', u'Arts', u'Art Dealers and Galleries']]"
0,Galerie Fabrice Galvani,Toulouse,31000,2 rue Fermat,Haute-Garonne,fr,,05 62 17 24 92,http://www.galeriefabricegalvani.com,"[[u'Social', u'Arts', u'Art Dealers and Galleries']]"
0,Carré d'artistes,Toulouse,31000,38 rue d'Alsace-Lorraine,Haute-Garonne,fr,,05 61 12 35 32,http://www.carredartistes.com,"[[u'Social', u'Arts', u'Art Dealers and Galleries']]"
0,La Salle des Ventes Libre Occitane,Toulouse,31000,60 quai de Tounis,Haute-Garonne,fr,,06 21 02 54 72,http://lasalledesventes-achat-toulouse.fr,"[[u'Social', u'Arts', u'Art Dealers and Galleries']]"
0,Sourillan International,Toulouse,31000,19 rue Ozenne 31000,Haute-Garonne,fr,,05 61 32 17 17,http://www.galerie-sourillan.com,"[[u'Social', u'Arts', u'Art Dealers and Galleries']]"
0,Galerie Saint Jacques,Toulouse,31000,11 rue Fermat,Haute-Garonne,fr,,05 61 52 40 71,http://www.galeriesaintjacques.com,"[[u'Social', u'Arts', u'Art Dealers and Galleries']]"
0,Galerie Next,Toulouse,31000,15 rue de la Croix Baragnon,Haute-Garonne,fr,,05 61 32 82 24,http://www.nextgalerie.com,"[[u'Social', u'Arts', u'Art Dealers and Galleries']]"
0,Sakah Galerie,Toulouse,31000,7 rue de la Croix Baragnon,Haute-Garonne,fr,,05 62 17 62 23,http://www.sakahgalerie.com,"[[u'Social', u'Arts', u'Art Dealers and Galleries']]"
0,Galerie Graal,Toulouse,31000,39 rue de Metz,Haute-Garonne,fr,,05 61 21 36 61,http://www.galeriegraal.com,"[[u'Social', u'Arts', u'Art Dealers and Galleries'], [u'Landmarks']]"
0,Kandler Galerie d'Art,Toulouse,31000,14 rue de Bayard,Haute-Garonne,fr,,05 61 63 85 11,http://www.galeriekandler.com,"[[u'Social', u'Arts', u'Art Dealers and Galleries']]"
0,Yellowkorner Toulouse,Toulouse,31000,3 rue Saint Antoine du T,Haute-Garonne,fr,,05 61 21 41 63,http://www.yellowkorner.com/,"[[u'Social', u'Arts', u'Art Dealers and Galleries']]"
0,Les Oréades,Toulouse,31000,39 rue Pharaon,Haute-Garonne,fr,,05 61 53 99 89,http://www.oreades.com,"[[u'Social', u'Arts', u'Art Dealers and Galleries']]"
0,Galerie d'art TOKADE,Toulouse,31000,9 rue des Paradoux,Haute-Garonne,fr,,09 52 97 54 27,http://www.tokade.com,"[[u'Social', u'Arts', u'Art Dealers and Galleries']]"
0,Mandy'Art,Toulouse,31000,16 rue Maury,Haute-Garonne,fr,,05 61 99 26 23,http://mandyart.eu,"[[u'Social', u'Arts', u'Art Dealers and Galleries']]"
0,Galerie Aude Guirauden,Toulouse,31000,32 rue des Paradoux,Haute-Garonne,fr,,05 61 32 69 23,http://aude.guirauden.free.fr,"[[u'Social', u'Arts', u'Art Dealers and Galleries']]"
0,Antiquités G Hervy,Toulouse,31000,2 rue Ninau,Haute-Garonne,fr,,06 11 59 30 23,http://www.proantic.com/galerie/gilles-hervy/,"[[u'Social', u'Arts', u'Art Dealers and Galleries']]"
0,Salon des Antiquaires,Toulouse,31000,résid Cap Wilson 81 boulevard Lazare Carnot,Haute-Garonne,fr,,05 61 21 93 25,http://www.sforman.fr,"[[u'Social', u'Arts', u'Art Dealers and Galleries']]"
0,Galerie Claude Morellon Bulle dArt,Toulouse,31000,23 rue Perchepinte,Haute-Garonne,fr,,05 81 33 11 80,http://galerie-morellon.fr,"[[u'Social', u'Arts', u'Art Dealers and Galleries']]"
0,Tokade,Toulouse,31000,9 rue des Paradoux,Haute-Garonne,fr,,09 52 97 54 27,http://www.tokade.com,"[[u'Social', u'Arts', u'Art Dealers and Galleries']]"
0,Galerie Agama,Toulouse,31000,8 rue des Bouquières,Haute-Garonne,fr,,06 63 82 31 46,http://www.galerieagama.com,"[[u'Social', u'Arts', u'Art Dealers and Galleries']]"
0,Galerie des Carmes,Toulouse,31000,33 rue des Polinaires,Haute-Garonne,fr,,05 61 47 38 16,http://www.galeriedescarmes.com,"[[u'Social', u'Arts', u'Art Dealers and Galleries']]"
0,Sollertis,Toulouse,31000,12 rue des Regans,Haute-Garonne,fr,,06 45 92 29 81,http://www.solertis.com,"[[u'Social', u'Arts', u'Art Dealers and Galleries']]"
0,Galerie de la Daurade,Toulouse,31000,4 quai de la Daurade,Haute-Garonne,fr,,05 61 21 71 48,http://www.galeriedaudet.com/,"[[u'Social', u'Arts', u'Art Dealers and Galleries']]"
0,Fondation d'Entreprise Espace Ecureuil,Toulouse,31000,42 rue du Languedoc,Haute-Garonne,fr,,05 62 30 23 30,http://www.caisseepargne-art-contemporain.fr,"[[u'Social', u'Arts', u'Art Dealers and Galleries']]"
0,Acanthe,Toulouse,31000,28 rue des Polinaires,Haute-Garonne,fr,,05 61 53 13 08,http://www.agence-lesautres.com,"[[u'Social', u'Arts', u'Art Dealers and Galleries']]"
0,Galerie Bulles d'art,Toulouse,31000,Siege Social sur Rdv 16 rue May,Haute-Garonne,fr,,06 70 60 68 24,http://bullesdart.com,"[[u'Social', u'Arts', u'Art Dealers and Galleries']]"
0,Rhizome,Toulouse,31000,18 rue de la Bourse,Haute-Garonne,fr,,05 62 27 26 92,http://www.exprmntl.fr,"[[u'Social', u'Arts', u'Art Dealers and Galleries']]"
0,Galerie des Portraitistes,Toulouse,31000,20 rue Potiers,Haute-Garonne,fr,,,http://www.galeriedescarmes.com,"[[u'Social', u'Arts', u'Art Dealers and Galleries']]"
0,Galerie l'atelier,Toulouse,31000,17 rue Saint Aubin,Haute-Garonne,fr,,05 81 34 07 13,http://www.galerie-latelier.com,"[[u'Social', u'Arts', u'Art Dealers and Galleries']]"
0,Galerie des Portraitistes Galerie des Carmes,Toulouse,31000,Atelier Langloys 31 rue Polinaires,Haute-Garonne,fr,,05 61 47 38 16,http://www.galeriedescarmes.com,"[[u'Social', u'Arts', u'Art Dealers and Galleries']]"
0,Green Galerie,Toulouse,31000,4 rue du Coq d'Inde,Haute-Garonne,fr,,09 51 43 45 45,,"[[u'Social', u'Arts', u'Art Dealers and Galleries']]"
0,La Galerie 5,Toulouse,31000,26 rue de Metz,Haute-Garonne,fr,,05 61 14 23 27,,"[[u'Social', u'Arts', u'Art Dealers and Galleries']]"
0,Galerie Concha de Nazelle,Toulouse,31000,5 rue du Puits Vert,Haute-Garonne,fr,,05 62 27 11 37,,"[[u'Social', u'Arts', u'Art Dealers and Galleries']]"
0,Galerie Roger Betti,Toulouse,31000,9 rue Fermat,Haute-Garonne,fr,,05 61 55 00 77,,"[[u'Social', u'Arts', u'Art Dealers and Galleries']]"
0,Galerie Moulins,Toulouse,31000,4 rue du Rempart Saint-Étienne,Haute-Garonne,fr,,05 61 12 34 96,,"[[u'Social', u'Arts', u'Art Dealers and Galleries']]"
0,Art Sud,Toulouse,31000,28 rue des Couteliers,Haute-Garonne,fr,,05 61 52 30 06,,"[[u'Social', u'Arts', u'Art Dealers and Galleries']]"
0,Abstrait,Toulouse,31000,35 rue Gambetta,Haute-Garonne,fr,,05 61 99 12 11,,"[[u'Social', u'Arts', u'Art Dealers and Galleries']]"
0,Espace Bouquiere,Toulouse,31000,29 rue des Bouquières,Haute-Garonne,fr,,06 77 76 75 23,,"[[u'Social', u'Arts', u'Art Dealers and Galleries']]"
0,Labbé Henri,Toulouse,31000,31 allée de Brienne,Haute-Garonne,fr,,06 15 73 54 00,,"[[u'Social', u'Arts', u'Art Dealers and Galleries']]"
0,Les Chartreux,Toulouse,31000,31 allée de Brienne,Haute-Garonne,fr,,06 80 30 17 61,,"[[u'Social', u'Arts', u'Art Dealers and Galleries']]"
0,Comeprima,Toulouse,31000,4 rue Caminade,Haute-Garonne,fr,,05 61 32 15 75,,"[[u'Social', u'Arts', u'Art Dealers and Galleries']]"
0,Galerie Auriel,Toulouse,31000,54 rue Pharaon,Haute-Garonne,fr,,05 61 52 91 21,,"[[u'Social', u'Arts', u'Art Dealers and Galleries']]"
0,Gondebeaud Michele,Toulouse,31000,17 rue Saint Aubin,Haute-Garonne,fr,,05 81 34 07 13,,"[[u'Social', u'Arts', u'Art Dealers and Galleries']]"
0,Parade,Toulouse,31000,47 Grande rue de Nazareth,Haute-Garonne,fr,,05 61 52 28 34,,"[[u'Social', u'Arts', u'Art Dealers and Galleries']]"
0,Galerie le Biblion,Toulouse,31000,29 rue de la Croix Baragnon,Haute-Garonne,fr,,05 61 52 79 28,,"[[u'Social', u'Arts', u'Art Dealers and Galleries']]"
0,Carpe Diem,Toulouse,31000,3 rue Merlane,Haute-Garonne,fr,,05 62 26 38 69,,"[[u'Social', u'Arts', u'Art Dealers and Galleries']]"
0,Klein Isabelle,Toulouse,31000,7 rue Boulbonne,Haute-Garonne,fr,,09 77 83 04 15,,"[[u'Social', u'Arts', u'Art Dealers and Galleries']]"
0,Antic et Thé,Toulouse,31000,79 rue de la Colombette,Haute-Garonne,fr,,05 61 99 26 84,,"[[u'Social', u'Arts', u'Art Dealers and Galleries']]"
0,Galerie d'Art,Toulouse,31000,17 rue Saint Aubin,Haute-Garonne,fr,,05 81 34 07 13,,"[[u'Social', u'Arts', u'Art Dealers and Galleries']]"
0,Les Oréades,Toulouse,31000,8 rue de la Brasserie,Haute-Garonne,fr,,05 61 53 99 89,,"[[u'Social', u'Arts', u'Art Dealers and Galleries']]"
0,Saint Ange Toussaints,Toulouse,31000,35 rue de la Concorde,Haute-Garonne,fr,,05 61 47 59 37,,"[[u'Social', u'Arts', u'Art Dealers and Galleries']]"
0,Galerie Privilege,Toulouse,31000,16 rue Maurice Fonvieille,Haute-Garonne,fr,,05 61 12 16 24,,"[[u'Social', u'Arts', u'Art Dealers and Galleries']]"
0,Galerie d'Art Fabien Mathieu,Toulouse,31000,31 rue des Bouquières,Haute-Garonne,fr,,05 62 26 66 30,,"[[u'Social', u'Arts', u'Art Dealers and Galleries']]"
0,Galerie Daniel Vignal,Toulouse,31000,5 rue Perchepinte,Haute-Garonne,fr,,06 59 40 62 01,,"[[u'Social', u'Arts', u'Art Dealers and Galleries']]"
0,galerie d'art à Toulouse,Toulouse,31000,6 rue du Rempart Saint-Etienne,Haute-Garonne,fr,,06 20 41 40 78,,"[[u'Social', u'Arts', u'Art Dealers and Galleries']]"
0,Espace GHP (Galerie de la Halle aux Poissons à Toulouse,Toulouse,31000,11 Descente de la Halle aux Poissons,Haute-Garonne,fr,,05 61 52 67 08,,"[[u'Social', u'Arts', u'Art Dealers and Galleries']]"
0,Exuvie,Toulouse,31000,31 rue des Polinaires,Haute-Garonne,fr,,06 61 41 84 34,,"[[u'Social', u'Arts', u'Art Dealers and Galleries']]"
0,Saint-Paul Eric,Toulouse,31000,8 rue Fermat,Haute-Garonne,fr,,05 61 53 49 64,,"[[u'Social', u'Arts', u'Art Dealers and Galleries']]"
0,Dhers,Toulouse,31000,5 rue de la Colombette,Haute-Garonne,fr,,09 62 14 51 62,,"[[u'Social', u'Arts', u'Art Dealers and Galleries']]"
0,Galerie Fusion,Toulouse,31000,6 rue des Bouquières,Haute-Garonne,fr,,05 62 26 78 61,,"[[u'Social', u'Arts', u'Art Dealers and Galleries']]"
0,Galerie Bayard,Toulouse,31000,33 rue de Bayard,Haute-Garonne,fr,,05 61 99 00 83,,"[[u'Social', u'Arts', u'Art Dealers and Galleries']]"
0,Le Confort des Etranges,Toulouse,31000,3 rue de Mirepoix,Haute-Garonne,fr,,06 63 69 29 52,,"[[u'Social', u'Arts', u'Art Dealers and Galleries']]"
0,Tajan Philippe,Toulouse,31000,51 boulevard Lazare Carnot,Haute-Garonne,fr,,05 61 23 73 37,,"[[u'Social', u'Arts', u'Art Dealers and Galleries']]"
0,Galerie Amacla,Toulouse,31000,2 rue des Paradoux,Haute-Garonne,fr,,05 62 26 44 86,,"[[u'Social', u'Arts', u'Art Dealers and Galleries']]"
0,Antiquites P Chabbert à Toulouse,Toulouse,31000,2 rue Ninau,Haute-Garonne,fr,,06 17 01 05 84,,"[[u'Social', u'Arts', u'Art Dealers and Galleries']]"
0,Tracker d'Art,Toulouse,31000,11 place de la Trinite,Haute-Garonne,fr,,05 62 26 49 61,,"[[u'Social', u'Arts', u'Art Dealers and Galleries']]"
0,Galaup Stephanie,Toulouse,31000,3 rue Zacharie,Haute-Garonne,fr,,06 29 80 18 55,,"[[u'Social', u'Arts', u'Art Dealers and Galleries']]"
0,Estadieu Antiquites,Toulouse,31000,388 route de Paris,Haute-Garonne,fr,,06 82 33 60 81,,"[[u'Social', u'Arts', u'Art Dealers and Galleries']]"
0,Galerie du Coq d'Inde,Toulouse,31000,10 rue Cujas,Haute-Garonne,fr,,05 62 30 91 84,,"[[u'Social', u'Arts', u'Art Dealers and Galleries']]"
0,Galerie Fonderie,Toulouse,31000,4 rue de la Fonderie,Haute-Garonne,fr,,05 61 14 10 32,,"[[u'Social', u'Arts', u'Art Dealers and Galleries']]"
0,Galerie Lloret B,Toulouse,31000,23 rue Sainte Ursule,Haute-Garonne,fr,,05 61 12 03 07,,"[[u'Social', u'Arts', u'Art Dealers and Galleries']]"
0,Caunes Jean Paul,Toulouse,31100,106 rue Fieux,Haute-Garonne,fr,,05 61 44 29 48,,"[[u'Social', u'Arts', u'Art Dealers and Galleries']]"
0,Les Oréades,Bagnères de Luchon,31110,69 Allees d'Etigny,Haute-Garonne,fr,,05 61 79 06 66,http://www.oreades.com,"[[u'Social', u'Arts', u'Art Dealers and Galleries']]"
0,Azum Antiquites,Bagnères de Luchon,31110,24 allée des Bains,Haute-Garonne,fr,,06 07 09 20 25,http://www.antiquites-azum.com,"[[u'Social', u'Arts', u'Art Dealers and Galleries']]"
0,Sarl les Oreades,Bagnères de Luchon,31110,4 place Mengue,Haute-Garonne,fr,,05 61 79 38 30,,"[[u'Social', u'Arts', u'Art Dealers and Galleries']]"
0,Au Grenier de Saint Jean,Bagnères de Luchon,31110,24 allée Bains,Haute-Garonne,fr,,05 61 79 02 17,,"[[u'Social', u'Arts', u'Art Dealers and Galleries']]"
0,Daban Stéphane,Portet Sur Garonne,31120,5 rue Berlioz,Haute-Garonne,fr,,06 16 48 51 04,,"[[u'Social', u'Arts', u'Art Dealers and Galleries']]"
0,Le Reflet des Temps,Portet sur Garonne,31120,route de Lacroix Falgarde,Haute-Garonne,fr,,05 61 76 90 55,,"[[u'Social', u'Arts', u'Art Dealers and Galleries']]"
0,legrenierdesartistes.fr à Galargues,Portet sur Garonne,31120,8 chemin des Genets,Haute-Garonne,fr,,05 62 20 11 70,,"[[u'Social', u'Arts', u'Art Dealers and Galleries']]"
0,Iniesta Gloria,Aucamville,31140,38 avenue Parc,Haute-Garonne,fr,,06 07 63 59 93,,"[[u'Social', u'Arts', u'Art Dealers and Galleries']]"
0,Cash Troc,Aucamville,31140,"39 route de Paris 22, rue Clément Ader",Haute-Garonne,fr,,05 61 70 28 28,,"[[u'Social', u'Arts', u'Art Dealers and Galleries']]"
0,Antiquités-Brocante le 201,Fenouillet,31150,201 route de Paris,Haute-Garonne,fr,,05 62 22 88 17,,"[[u'Social', u'Arts', u'Art Dealers and Galleries']]"
0,Spettel Alain,Bruguières,31150,2 bis avenue Bruguet,Haute-Garonne,fr,,05 61 82 36 81,,"[[u'Social', u'Arts', u'Art Dealers and Galleries']]"
0,Ciry Gérard,Auribail,31190,Ld Gachoutet,Haute-Garonne,fr,,05 61 50 58 72,,"[[u'Social', u'Arts', u'Art Dealers and Galleries']]"
0,Christophe Raymond,Auterive,31190,route de Toulouse,Haute-Garonne,fr,,05 61 50 65 12,,"[[u'Social', u'Arts', u'Art Dealers and Galleries']]"
0,Irmay,Toulouse,31200,114 boulevard de Suisse,Haute-Garonne,fr,,05 61 43 02 82,,"[[u'Social', u'Arts', u'Art Dealers and Galleries']]"
0,Akwarel Parcenier,Toulouse,31200,48 avenue Frederic Estebe,Haute-Garonne,fr,,05 34 40 26 10,,"[[u'Social', u'Arts', u'Art Dealers and Galleries']]"
0,Pujo Alain,Pointis de Rivière,31210,53 route du Brocas,Haute-Garonne,fr,,05 61 95 67 12,,"[[u'Social', u'Arts', u'Art Dealers and Galleries']]"
0,L'Elixir du Collectionneur,Pointis de Rivière,31210,17 route Cier,Haute-Garonne,fr,,06 13 60 16 88,,"[[u'Social', u'Arts', u'Art Dealers and Galleries']]"
0,Fucho Patrick,Cazères,31220,14 avenue Gabriel Péri,Haute-Garonne,fr,,05 61 97 21 18,http://enlevement-ferraille-cazeres.fr,"[[u'Social', u'Arts', u'Art Dealers and Galleries']]"
0,Canut Pierre,Lavelanet de Comminges,31220,quartier du tolit,Haute-Garonne,fr,,05 61 87 16 77,,"[[u'Social', u'Arts', u'Art Dealers and Galleries']]"
0,Redecker Francois,Cazères,31220,10 bis avenue Hector d'Espouy,Haute-Garonne,fr,,05 61 97 19 81,,"[[u'Social', u'Arts', u'Art Dealers and Galleries']]"
0,Lopez Raphaël,Revel,31250,40 avenue de Toulouse,Haute-Garonne,fr,,06 85 22 41 79,,"[[u'Social', u'Arts', u'Art Dealers and Galleries']]"
0,Monoury André,Revel,31250,13 avenue de Toulouse,Haute-Garonne,fr,,05 61 83 50 77,,"[[u'Social', u'Arts', u'Art Dealers and Galleries']]"
0,Lortal Didier,Revel,31250,15 rue Jean Moulin,Haute-Garonne,fr,,09 53 80 31 32,,"[[u'Social', u'Arts', u'Art Dealers and Galleries']]"
0,Brocante des Flottes,Revel,31250,chemin de l'Albarel,Haute-Garonne,fr,,06 24 62 26 67,,"[[u'Social', u'Arts', u'Art Dealers and Galleries']]"
0,Courants d'Arts Galerie,Revel,31250,15 rue Jean Moulin,Haute-Garonne,fr,,06 14 61 91 56,,"[[u'Social', u'Arts', u'Art Dealers and Galleries']]"
0,Gimenez,Revel,31250,route Saint Ferreol,Haute-Garonne,fr,,09 63 55 83 15,,"[[u'Social', u'Arts', u'Art Dealers and Galleries']]"
0,Elusio,Villenouvelle,31290,2 rue Franciman,Haute-Garonne,fr,,05 62 71 09 94,,"[[u'Social', u'Arts', u'Art Dealers and Galleries']]"
0,Le Château d'Eau,Toulouse,31300,1 place Laganne,Haute-Garonne,fr,,05 61 77 09 40,http://www.galeriechateaudeau.org,"[[u'Social', u'Arts', u'Art Dealers and Galleries'], [u'Landmarks']]"
0,Galerie Municipale du Château d'Eau,Toulouse,31300,1 place Laganne,Haute-Garonne,fr,,05 61 77 09 40,http://www.galeriechateaudeau.org,"[[u'Social', u'Arts', u'Art Dealers and Galleries']]"
0,Muré Robert,Toulouse,31300,19 rue Bénézet,Haute-Garonne,fr,,05 61 42 12 87,http://www.meubles-anciens.com,"[[u'Social', u'Arts', u'Art Dealers and Galleries']]"
0,Passage à l'art,Toulouse,31300,5 grande rue Saint Nicolas,Haute-Garonne,fr,,06 64 21 26 80,http://www.passagealart.com,"[[u'Social', u'Arts', u'Art Dealers and Galleries'], [u'Landmarks']]"
0,Puces d'Oc,Toulouse,31300,98 Bis rue des Fontaines,Haute-Garonne,fr,,05 61 59 34 33,http://www.brocante-antiquite.fr,"[[u'Social', u'Arts', u'Art Dealers and Galleries']]"
0,Antic'Shop,Toulouse,31300,2 place Olivier,Haute-Garonne,fr,,05 61 51 39 68,http://www.anticshop31.com,"[[u'Social', u'Arts', u'Art Dealers and Galleries']]"
0,Meubles-AnciensCom,Toulouse,31300,3 Impasse Broca,Haute-Garonne,fr,,06 71 61 07 17,,"[[u'Social', u'Arts', u'Art Dealers and Galleries']]"
0,Un Salon en Plus,Castanet Tolosan,31320,30 avenue de Toulouse,Haute-Garonne,fr,,05 62 47 18 69,,"[[u'Social', u'Arts', u'Art Dealers and Galleries']]"
0,La Licorne Saint Antoine,Castanet Tolosan,31320,81 avenue du Lauragais,Haute-Garonne,fr,,05 62 71 13 21,,"[[u'Social', u'Arts', u'Art Dealers and Galleries']]"
0,Galerie Serventi,Grenade,31330,35 rue Gambetta,Haute-Garonne,fr,,05 61 82 86 72,,"[[u'Social', u'Arts', u'Art Dealers and Galleries']]"
0,Carrère Joseph,Villemur sur Tarn,31340,43 allées Charles de Gaulle,Haute-Garonne,fr,,05 61 09 00 05,,"[[u'Social', u'Arts', u'Art Dealers and Galleries']]"
0,A l'Inquet,Carbonne,31390,27 route de l'Arize,Haute-Garonne,fr,,05 61 87 07 50,,"[[u'Social', u'Arts', u'Art Dealers and Galleries']]"
0,Hernicot Marc à Carbonne,Carbonne,31390,6 route Longages,Haute-Garonne,fr,,06 21 94 55 61,http://www.alibaba2009.canalblog.com,"[[u'Social', u'Arts', u'Art Dealers and Galleries']]"
0,Brocante André,Carbonne,31390,15 avenue Etienne Prosjean,Haute-Garonne,fr,,05 61 87 93 10,,"[[u'Social', u'Arts', u'Art Dealers and Galleries']]"
0,Brocante saint exupéry,Toulouse,31400,70 avenue de Saint-Exupéry,Haute-Garonne,fr,,05 61 80 35 73,http://www.brocantetoulouse.fr,"[[u'Social', u'Arts', u'Art Dealers and Galleries']]"
0,Association Catart,Toulouse,31400,8 rue Lucien Mirouse,Haute-Garonne,fr,,06 07 98 39 23,,"[[u'Social', u'Arts', u'Art Dealers and Galleries']]"
0,Courrent Henri à Toulouse,Toulouse,31400,70 avenue Saint Exupery,Haute-Garonne,fr,,05 81 34 00 19,,"[[u'Social', u'Arts', u'Art Dealers and Galleries']]"
0,Docks Lauragais,Noueilles,31450,4 Cote du Chateau,Haute-Garonne,fr,,05 62 47 18 10,http://dockslauragais.fr,"[[u'Social', u'Arts', u'Art Dealers and Galleries']]"
0,Zordan Pierre,Belberaud,31450,2 route de Toulouse,Haute-Garonne,fr,,06 07 74 46 19,,"[[u'Social', u'Arts', u'Art Dealers and Galleries']]"
0,Les Volets Bleus,Caraman,31460,15 rue du Faubourg Lalande,Haute-Garonne,fr,,05 61 83 34 43,http://www.brocante-volets-bleus.fr,"[[u'Social', u'Arts', u'Art Dealers and Galleries']]"
0,Le Grenier de l'Autan,Caraman,31460,9 boulevard Gallieni,Haute-Garonne,fr,,05 62 18 09 57,http://www.legrenierdelautan.fr,"[[u'Social', u'Arts', u'Art Dealers and Galleries']]"
0,Le Grenier Animé,Sainte Foy de Peyrolières,31470,75 route de Lombez,Haute-Garonne,fr,,05 61 91 49 49,http://www.legrenieranime.com/,"[[u'Social', u'Arts', u'Art Dealers and Galleries']]"
0,Rougalle Jean-Marie,Saint Lys,31470,15 rue de la Bigorre,Haute-Garonne,fr,,05 62 14 12 64,,"[[u'Social', u'Arts', u'Art Dealers and Galleries']]"
0,Piovesan Frédéric à Saint-Lys,Saint Lys,31470,11 rue Pasteur,Haute-Garonne,fr,,09 61 54 41 75,,"[[u'Social', u'Arts', u'Art Dealers and Galleries']]"
0,Lassave Cuxac Valéry,Toulouse,31500,1 rue Frédéric Petit,Haute-Garonne,fr,,05 61 11 99 49,,"[[u'Social', u'Arts', u'Art Dealers and Galleries']]"
0,Chassagne Jean-Pierre,Toulouse,31500,259 avenue de Castres,Haute-Garonne,fr,,06 80 66 48 71,,"[[u'Social', u'Arts', u'Art Dealers and Galleries']]"
0,Cazes Louis,Montaigut Sur Save,31530,17 rue Ecoles,Haute-Garonne,fr,,06 86 70 47 95,,"[[u'Social', u'Arts', u'Art Dealers and Galleries']]"
0,Dumas Philippe,Saint Félix Lauragais,31540,la Prade,Haute-Garonne,fr,,05 61 83 35 82,,"[[u'Social', u'Arts', u'Art Dealers and Galleries']]"
0,Le Chateau de St Felix,Saint Félix Lauragais,31540,la Ville,Haute-Garonne,fr,,05 61 83 07 08,http://www.sarlcsf.com,"[[u'Social', u'Arts', u'Art Dealers and Galleries']]"
0,Garrigue Kate,Gibel,31560,rue de l'Eglise,Haute-Garonne,fr,,05 61 08 10 47,,"[[u'Social', u'Arts', u'Art Dealers and Galleries']]"
0,Nyer Bernard,Saint Léon,31560,Ferme le Verger,Haute-Garonne,fr,,06 27 67 20 80,,"[[u'Social', u'Arts', u'Art Dealers and Galleries']]"
0,Bureau Anne,Gauré,31590,Ld en Carquet,Haute-Garonne,fr,,05 61 83 33 41,,"[[u'Social', u'Arts', u'Art Dealers and Galleries']]"
0,Bureau Anne,Gauré,31590,la Ferme du Pastel lieu-dit Carquet,Haute-Garonne,fr,,05 61 83 33 41,,"[[u'Social', u'Arts', u'Art Dealers and Galleries']]"
0,Moudens Christophe,Lherm,31600,63 Bis avenue Toulouse,Haute-Garonne,fr,,06 12 58 35 82,http://livres-et-brocante.fr,"[[u'Social', u'Arts', u'Art Dealers and Galleries']]"
0,Richon Christian,Muret,31600,41 avenue du Pic du Ger,Haute-Garonne,fr,,06 81 87 74 53,,"[[u'Social', u'Arts', u'Art Dealers and Galleries']]"
0,Augery Bruno,Muret,31600,34 avenue Maréchal de Lattre de Tassigny,Haute-Garonne,fr,,09 50 61 76 30,,"[[u'Social', u'Arts', u'Art Dealers and Galleries']]"
0,Puy Patrick,Bessières,31660,107 chemin de la Nauze,Haute-Garonne,fr,,05 61 84 11 54,,"[[u'Social', u'Arts', u'Art Dealers and Galleries']]"
0,Art Espace Galerie,Blagnac,31700,Hall 1 Aéroport 2,Haute-Garonne,fr,,05 61 30 02 00,http://www.toulouseart.com/,"[[u'Social', u'Arts', u'Art Dealers and Galleries']]"
0,Peiro Georges,Beauzelle,31700,230 rue de Juncassa,Haute-Garonne,fr,,05 61 48 22 92,,"[[u'Social', u'Arts', u'Art Dealers and Galleries']]"
0,Dufau Jean Antoine,Saint Gaudens,31800,9 avenue de l'Isle,Haute-Garonne,fr,,06 81 37 93 94,,"[[u'Social', u'Arts', u'Art Dealers and Galleries']]"
0,Maison des Ventes,Saint Gaudens,31800,9 avenue de l'Isle,Haute-Garonne,fr,,05 61 89 19 23,,"[[u'Social', u'Arts', u'Art Dealers and Galleries']]"
0,Du Cote de Chez Sophie,Saint Gaudens,31800,71 rue de la République,Haute-Garonne,fr,,05 61 95 54 67,,"[[u'Social', u'Arts', u'Art Dealers and Galleries']]"
0,Pinies Patrick,Pointis Inard,31800,rue en Bas,Haute-Garonne,fr,,05 61 89 20 06,,"[[u'Social', u'Arts', u'Art Dealers and Galleries']]"
0,Corcoral Guy,Pibrac,31820,18 Ancien chemin de Lasserre,Haute-Garonne,fr,,05 61 86 68 61,,"[[u'Social', u'Arts', u'Art Dealers and Galleries']]"
0,Cassagnaud Joël,Auch,32000,Trouettes Embats,Gers,fr,,06 87 12 76 75,,"[[u'Social', u'Arts', u'Art Dealers and Galleries']]"
0,Christophe Yverneau,Auch,32000,Monplaisir Landon,Gers,fr,,05 62 05 09 73,,"[[u'Social', u'Arts', u'Art Dealers and Galleries']]"
0,Antiquites Bohard,Auch,32000,6 rue de l'Amiral Pephau,Gers,fr,,06 72 85 19 50,,"[[u'Social', u'Arts', u'Art Dealers and Galleries']]"
0,Antiquités Salis,Condom,32100,allée du Canal,Gers,fr,,06 08 86 20 24,,"[[u'Social', u'Arts', u'Art Dealers and Galleries']]"
0,Musin Genevieve,Larressingle,32100,,Gers,fr,,05 62 68 39 84,,"[[u'Social', u'Arts', u'Art Dealers and Galleries']]"
0,Renaissance de l'interieur à Condom,Condom,32100,7 place Lucien Lamarque,Gers,fr,,06 30 46 15 87,,"[[u'Social', u'Arts', u'Art Dealers and Galleries']]"
0,Wiles Philippe,Bellegarde,32140,lieu-dit Mirandole,Gers,fr,,05 62 58 23 48,,"[[u'Social', u'Arts', u'Art Dealers and Galleries']]"
0,Come Henri,Plaisance,32160,25 rue Granier de Cassagnac,Gers,fr,,05 62 69 10 53,,"[[u'Social', u'Arts', u'Art Dealers and Galleries']]"
0,Des Choses Insoupçonnables,Beaumarchés,32160,,Gers,fr,,05 62 69 35 29,,"[[u'Social', u'Arts', u'Art Dealers and Galleries']]"
0,Fauroux Philippe,Vic Fezensac,32190,1 avenue de Lorraine route d'Auch,Gers,fr,,05 62 06 56 46,http://www.antiquites-en-france.com/user/fauroux/,"[[u'Social', u'Arts', u'Art Dealers and Galleries']]"
0,Art et Innovation,Vic Fezensac,32190,2 avenue Chateau Fleuri,Gers,fr,,06 12 94 09 04,,"[[u'Social', u'Arts', u'Art Dealers and Galleries']]"
0,Autrefois en Gascogne,Vic Fezensac,32190,124 route Nationale,Gers,fr,,05 62 64 45 82,,"[[u'Social', u'Arts', u'Art Dealers and Galleries']]"
0,Autrefois en Gascogne,Vic Fezensac,32190,124 Lagraulas,Gers,fr,,06 82 93 87 69,,"[[u'Social', u'Arts', u'Art Dealers and Galleries']]"
0,Blum Norbert,Marambat,32190,,Gers,fr,,05 62 06 46 78,,"[[u'Social', u'Arts', u'Art Dealers and Galleries']]"
0,Le Trouv'Tout,Gimont,32200,3 route de Mauvezin,Gers,fr,,05 62 67 94 29,http://le-trouv-tout-brocante-depot-vente.fr,"[[u'Social', u'Arts', u'Art Dealers and Galleries']]"
0,Magné Pierre,Catonvielle,32200,lieu-dit Planteras,Gers,fr,,05 62 70 90 63,http://www.pierremagnegalerie.com,"[[u'Social', u'Arts', u'Art Dealers and Galleries']]"
0,Brocante du Paslatino,Gimont,32200,3 place Saint Eloi,Gers,fr,,05 62 07 20 01,,"[[u'Social', u'Arts', u'Art Dealers and Galleries']]"
0,Eqart,Marciac,32230,21 rue Henri Laignoux,Gers,fr,,05 62 09 36 83,http://www.eqart.fr,"[[u'Social', u'Arts', u'Art Dealers and Galleries']]"
0,Galerie l'Ane Bleu,Marciac,32230,19 Bis rue Saint Pierre,Gers,fr,,06 87 54 70 17,http://anebleu.over-blog.com,"[[u'Social', u'Arts', u'Art Dealers and Galleries']]"
0,Paschal Nicole,Estang,32240,place Roger Bon,Gers,fr,,05 62 09 61 79,,"[[u'Social', u'Arts', u'Art Dealers and Galleries']]"
0,Braem Philippe,Fourcès,32250,,Gers,fr,,05 62 29 50 91,http://www.galerie-d-antiquites.com/,"[[u'Social', u'Arts', u'Art Dealers and Galleries']]"
0,Galerie Antiquité Brocante Raigné,Fourcès,32250,,Gers,fr,,06 82 27 24 06,http://www.galerie-antiquite-brocante-raymond-raigne.fr,"[[u'Social', u'Arts', u'Art Dealers and Galleries']]"
0,La Colline aux Fees,Biran,32350,Lieu-dit les Perdilles,Gers,fr,,06 83 79 17 55,,"[[u'Social', u'Arts', u'Art Dealers and Galleries']]"
0,Albert Thierry,Sainte Christie,32390,Au Cardenau,Gers,fr,,06 72 25 90 89,http://www.albert-antiquite.com,"[[u'Social', u'Arts', u'Art Dealers and Galleries']]"
0,Un Coin du Passé,Castéra Verduzan,32410,13 avenue Claude Bordenave,Gers,fr,,05 62 68 10 73,http://www.uncoindupasse.fr,"[[u'Social', u'Arts', u'Art Dealers and Galleries']]"
0,Hugues Bernard,Simorre,32420,rue Bourgeoise,Gers,fr,,05 62 65 35 69,,"[[u'Social', u'Arts', u'Art Dealers and Galleries']]"
0,Boyer Jean-Louis,Fleurance,32500,37 avenue de la Côte d'Argent,Gers,fr,,05 62 06 10 96,,"[[u'Social', u'Arts', u'Art Dealers and Galleries']]"
0,Huguet Michelle,Fleurance,32500,route d' auch a hourtane,Gers,fr,,05 62 06 12 15,,"[[u'Social', u'Arts', u'Art Dealers and Galleries']]"
0,Teyssendier de la Serve Luc,Fleurance,32500,Lieu Dit Esparbes,Gers,fr,,05 62 06 67 71,,"[[u'Social', u'Arts', u'Art Dealers and Galleries']]"
0,Brocante du Lac,L'Isle Jourdain,32600,avenue de Toulouse,Gers,fr,,05 62 07 01 71,,"[[u'Social', u'Arts', u'Art Dealers and Galleries']]"
0,Brocante de Barcelonne du Gers,Barcelonne Du Gers,32720,13 rue des Pénitents,Gers,fr,,06 85 31 30 35,,"[[u'Social', u'Arts', u'Art Dealers and Galleries']]"
0,Sanguinetti Isabelle à Eauze,Eauze,32800,5 rue Robert Daury,Gers,fr,,05 62 08 47 54,,"[[u'Social', u'Arts', u'Art Dealers and Galleries']]"
0,Broc et Troc,Preignan,32810,zone artisanale Malartics,Gers,fr,,05 62 65 57 12,,"[[u'Social', u'Arts', u'Art Dealers and Galleries']]"
0,Passé et Présent,Cahors,46000,33 place Claude Rousseau,Lot,fr,,05 65 23 03 31,http://brocantepassepresent.fr,"[[u'Social', u'Arts', u'Art Dealers and Galleries']]"
0,Carre d'art,Cahors,46000,46 rue Pelegry,Lot,fr,,06 77 81 99 97,http://www.carre-dart.fr/,"[[u'Social', u'Arts', u'Art Dealers and Galleries']]"
0,Galerie le Cadre,Cahors,46000,116 rue du Portail Alban,Lot,fr,,05 65 35 35 88,http://www.galerielecadrecahors46.blogspot.fr,"[[u'Social', u'Arts', u'Art Dealers and Galleries']]"
0,Sarrazy Jean-Marc,Cahors,46000,210 Combe Del Trel,Lot,fr,,06 72 21 55 20,,"[[u'Social', u'Arts', u'Art Dealers and Galleries']]"
0,Espace Bel Arte,Cahors,46000,192 quai de Regourd,Lot,fr,,06 82 57 29 85,,"[[u'Social', u'Arts', u'Art Dealers and Galleries']]"
0,Molinari Jacques,Figeac,46100,47 rue Gambetta,Lot,fr,,06 07 14 70 04,,"[[u'Social', u'Arts', u'Art Dealers and Galleries']]"
0,Serra Christian,Figeac,46100,8 Bis rue Clermont,Lot,fr,,05 65 34 77 72,,"[[u'Social', u'Arts', u'Art Dealers and Galleries']]"
0,Cimaise Art Contemporain,Figeac,46100,47 rue Emile Zola,Lot,fr,,05 65 38 56 69,,"[[u'Social', u'Arts', u'Art Dealers and Galleries']]"
0,Galerie des Griffons,Figeac,46100,3 bis rue Gambetta,Lot,fr,,05 65 14 12 28,,"[[u'Social', u'Arts', u'Art Dealers and Galleries']]"
0,Berlizon Didier,Figeac,46100,12 rue Seguier,Lot,fr,,05 65 38 32 87,,"[[u'Social', u'Arts', u'Art Dealers and Galleries']]"
0,SERRA Christian,Cardaillac,46100,Metairie de Marcy,Lot,fr,,05 65 40 12 06,,"[[u'Social', u'Arts', u'Art Dealers and Galleries']]"
0,Galerie Sensations,Figeac,46100,16 rue Caviale,Lot,fr,,05 65 40 89 44,,"[[u'Social', u'Arts', u'Art Dealers and Galleries']]"
0,Galerie du Prieuré,Carennac,46110,le Bourg,Lot,fr,,05 65 10 94 63,,"[[u'Social', u'Arts', u'Art Dealers and Galleries']]"
0,Braga José-Antonio à Martel,Bétaille,46110,avenue Dordogne,Lot,fr,,06 80 25 35 19,,"[[u'Social', u'Arts', u'Art Dealers and Galleries']]"
0,Rétro-Actif,Thémines,46120,route Figeac,Lot,fr,,05 65 40 92 19,,"[[u'Social', u'Arts', u'Art Dealers and Galleries']]"
0,Sireyzol Serge,Belmont Bretenoux,46130,Granval,Lot,fr,,05 65 38 14 54,,"[[u'Social', u'Arts', u'Art Dealers and Galleries']]"
0,Antiquité Brocante Octavia à Saint-Michel-Loubéjou,Saint Michel Loubéjou,46130,Larouquette,Lot,fr,,06 08 26 04 07,,"[[u'Social', u'Arts', u'Art Dealers and Galleries']]"
0,Albespy Jacques,Sauzet,46140,le Bourg,Lot,fr,,05 65 36 94 82,,"[[u'Social', u'Arts', u'Art Dealers and Galleries']]"
0,Lebesgue Vincent,Catus,46150,rue du Pont,Lot,fr,,05 65 22 62 03,,"[[u'Social', u'Arts', u'Art Dealers and Galleries']]"
0,Nguyen Helga à Lacave,Lacave,46200,Bourg,Lot,fr,,05 65 41 01 39,,"[[u'Social', u'Arts', u'Art Dealers and Galleries']]"
0,Pouget Philippe,Lalbenque,46230,place de la bascule,Lot,fr,,06 87 48 49 76,,"[[u'Social', u'Arts', u'Art Dealers and Galleries']]"
0,Ducos Marc,Saint Jean Mirabel,46270,la Roques,Lot,fr,,05 65 50 10 20,,"[[u'Social', u'Arts', u'Art Dealers and Galleries']]"
0,Dalet Lucienne,Soucirac,46300,le Bourg,Lot,fr,,05 65 31 03 21,,"[[u'Social', u'Arts', u'Art Dealers and Galleries']]"
0,Jadis Brocante,Gourdon,46300,boulevard Mainiol,Lot,fr,,06 86 14 36 26,,"[[u'Social', u'Arts', u'Art Dealers and Galleries']]"
0,Espace Pinocchio,Le Vigan,46300,Zone,,fr,,05 65 32 27 67,,"[[u'Social', u'Arts', u'Art Dealers and Galleries']]"
0,Sourzat Jean-Louis,Saint Céré,46400,22 avenue du Docteur Roux,Lot,fr,,05 65 38 13 84,,"[[u'Social', u'Arts', u'Art Dealers and Galleries']]"
0,Brocantique,Saint Céré,46400,70 avenue Général Charles de Gaulle,Lot,fr,,06 80 33 16 07,,"[[u'Social', u'Arts', u'Art Dealers and Galleries']]"
0,Casino,Saint Céré,46400,avenue Jean Mouliérat,Lot,fr,,05 65 38 19 60,,"[[u'Social', u'Arts', u'Art Dealers and Galleries']]"
0,Galerie du Vieux Pressoir,Rocamadour,46500,Vieux Moulin rue Roland le Preux,Lot,fr,,05 65 33 67 94,,"[[u'Social', u'Arts', u'Art Dealers and Galleries']]"
0,Vert Tilleul,Gramat,46500,19 avenue du Onze Novembre 1918,Lot,fr,,06 80 12 26 28,,"[[u'Social', u'Arts', u'Art Dealers and Galleries']]"
0,Le brocanticonpuce,Gramat,46500,6 avenue Georges Pompidou,Lot,fr,,06 19 66 23 47,,"[[u'Social', u'Arts', u'Art Dealers and Galleries']]"
0,Fraux Patrice,Lavergne,46500,Ld Mirabel,Lot,fr,,05 65 38 76 04,,"[[u'Social', u'Arts', u'Art Dealers and Galleries']]"
0,BOU Marie-Hélène,Rignac,46500,Vergnoles,Lot,fr,,09 83 38 79 50,,"[[u'Social', u'Arts', u'Art Dealers and Galleries']]"
0,La Grange d'Antonia,Miers,46500,Fialy,Lot,fr,,06 08 70 12 91,,"[[u'Social', u'Arts', u'Art Dealers and Galleries']]"
0,Dauphin Irmine,Cressensac,46600,lieu-dit Bourg,Lot,fr,,05 65 37 74 33,,"[[u'Social', u'Arts', u'Art Dealers and Galleries']]"
0,Antiquité Brocante St Maur,Martel,46600,rue Droite,Lot,fr,,05 65 37 40 37,,"[[u'Social', u'Arts', u'Art Dealers and Galleries']]"
0,De Lepinay Luce,Martel,46600,place des Consuls,Lot,fr,,05 65 37 39 47,,"[[u'Social', u'Arts', u'Art Dealers and Galleries']]"
0,Francois Pierre,Martel,46600,avenue du Général de Gaulle,Lot,fr,,05 65 32 50 18,,"[[u'Social', u'Arts', u'Art Dealers and Galleries']]"
0,Jauberthie Alain,Baladou,46600,le Pigeon,Lot,fr,,06 08 68 46 37,,"[[u'Social', u'Arts', u'Art Dealers and Galleries']]"
0,Le Grenier du Voyageur,Grézels,46700,le Bourg,Lot,fr,,05 65 36 40 48,,"[[u'Social', u'Arts', u'Art Dealers and Galleries']]"
0,Le grenier de marie,Puy l'Évêque,46700,45 Grand rue,Lot,fr,,06 13 20 36 91,,"[[u'Social', u'Arts', u'Art Dealers and Galleries']]"
0,Capelot Eugène,Montcuq,46800,8 place du Faubourg de Narces,Lot,fr,,05 65 31 81 31,,"[[u'Social', u'Arts', u'Art Dealers and Galleries']]"
0,Mazet-Pradère Jeanine,Montcuq,46800,Gayrac,Lot,fr,,05 65 31 82 06,,"[[u'Social', u'Arts', u'Art Dealers and Galleries']]"
0,Cruchon Jean,Tarbes,65000,23 rue Honoré Laporte,Hautes-Pyrénées,fr,,06 12 53 21 61,,"[[u'Social', u'Arts', u'Art Dealers and Galleries']]"
0,Alsafrana Bernard,Tarbes,65000,57 C boulevard Henri Iv,Hautes-Pyrénées,fr,,06 07 11 49 68,,"[[u'Social', u'Arts', u'Art Dealers and Galleries']]"
0,Cressever Ariane,Tarbes,65000,10 rue Massey,Hautes-Pyrénées,fr,,05 62 34 64 34,,"[[u'Social', u'Arts', u'Art Dealers and Galleries']]"
0,Vignaux Stephanie,Tarbes,65000,5 rue Marie Saint Frai,Hautes-Pyrénées,fr,,06 70 58 44 96,http://www.stephanie-vignaux.com,"[[u'Social', u'Arts', u'Art Dealers and Galleries']]"
0,Valera François,Tarbes,65000,2 rue du Foirail,Hautes-Pyrénées,fr,,05 81 75 31 69,http://www.galerievalera.fr,"[[u'Social', u'Arts', u'Art Dealers and Galleries']]"
0,Galerie d'Art Valera,Tarbes,65000,2 rue du Foirail,Hautes-Pyrénées,fr,,05 62 51 98 91,,"[[u'Social', u'Arts', u'Art Dealers and Galleries']]"
0,Mouliet Olivier,Jarret,65100,38 route d'Artigues,Hautes-Pyrénées,fr,,05 62 42 96 54,,"[[u'Social', u'Arts', u'Art Dealers and Galleries']]"
0,D'Hier et d'Aujourd Hui,Lourdes,65100,5 rue du Bourg,Hautes-Pyrénées,fr,,06 16 55 58 97,,"[[u'Social', u'Arts', u'Art Dealers and Galleries']]"
0,Rey Roland,Bagnères de Bigorre,65200,avenue du Tour Malet,Hautes-Pyrénées,fr,,06 89 54 48 48,http://www.debarras-brocante-sud-ouest-rolandrey.fr,"[[u'Social', u'Arts', u'Art Dealers and Galleries']]"
0,Lalanne Jean-Michel,Visker,65200,29 Carrera de Marca Dessus,Hautes-Pyrénées,fr,,05 62 45 35 75,,"[[u'Social', u'Arts', u'Art Dealers and Galleries']]"
0,Schmidt Suzanne,Castelnau Magnoac,65230,place de l'Eglise Collégiale,Hautes-Pyrénées,fr,,05 62 40 00 17,,"[[u'Social', u'Arts', u'Art Dealers and Galleries']]"
0,Clemente Andre,La Barthe De Neste,65250,25 rue de l'Ancienne Mairie,Hautes-Pyrénées,fr,,05 62 49 16 23,,"[[u'Social', u'Arts', u'Art Dealers and Galleries']]"
0,Brocante le Buffet,Lannemezan,65300,663 rue Alsace Lorraine,Hautes-Pyrénées,fr,,05 62 98 59 37,,"[[u'Social', u'Arts', u'Art Dealers and Galleries']]"
0,Brocant'oc,Laloubère,65310,4 rue du Moulin,Hautes-Pyrénées,fr,,05 62 45 28 12,,"[[u'Social', u'Arts', u'Art Dealers and Galleries']]"
0,Aillaud Robert,Libaros,65330,,Hautes-Pyrénées,fr,,05 62 99 73 62,,"[[u'Social', u'Arts', u'Art Dealers and Galleries']]"
0,Mena Jean Claude,Andrest,65390,4 Impasse Paul Cézanne,Hautes-Pyrénées,fr,,05 62 31 10 27,,"[[u'Social', u'Arts', u'Art Dealers and Galleries']]"
0,L'île aux Trésors,Préchac,65400,26 Cami Dera Lana,Hautes-Pyrénées,fr,,05 62 97 26 33,,"[[u'Social', u'Arts', u'Art Dealers and Galleries']]"
0,Stop Affaires,Ibos,65420,57 bis avenue du Pouey,Hautes-Pyrénées,fr,,05 62 93 43 95,,"[[u'Social', u'Arts', u'Art Dealers and Galleries']]"
0,Bourrut Lucienne,Vic en Bigorre,65500,2 avenue de Tarbes,Hautes-Pyrénées,fr,,05 62 96 80 90,,"[[u'Social', u'Arts', u'Art Dealers and Galleries']]"
0,Lagleize Christian,Arné,65670,,Hautes-Pyrénées,fr,,05 62 99 42 88,,"[[u'Social', u'Arts', u'Art Dealers and Galleries']]"
0,Suberbie Jean Paul,Maubourguet,65700,156 rue Maréchal Foch,Hautes-Pyrénées,fr,,05 62 96 05 36,,"[[u'Social', u'Arts', u'Art Dealers and Galleries']]"
0,Le Repere du Chineur,Madiran,65700,Parisis pierre,Hautes-Pyrénées,fr,,06 88 18 73 47,,"[[u'Social', u'Arts', u'Art Dealers and Galleries']]"
0,Samh,Orleix,65800,route de Rabastens,Hautes-Pyrénées,fr,,05 62 36 15 56,,"[[u'Social', u'Arts', u'Art Dealers and Galleries']]"
0,Centre d'Art le Lait,Albi,81000,41 rue Porta,Tarn,fr,,05 63 38 35 91,,"[[u'Social', u'Arts', u'Art Dealers and Galleries']]"
0,Boulev Arts,Albi,81000,12 Lices Georges Pompidou,Tarn,fr,,05 63 54 83 33,http://www.boulevard-arts.com,"[[u'Social', u'Arts', u'Art Dealers and Galleries']]"
0,Galerie Mémoires,Albi,81000,19 rue Henri de Toulouse Lautrec,Tarn,fr,,05 63 38 77 93,http://www.galeriememoires.fr/?page_id=427,"[[u'Social', u'Arts', u'Art Dealers and Galleries']]"
0,Dutilleul,Albi,81000,25 place Sainte Cecile,Tarn,fr,,05 63 54 48 64,http://www.dutilleul-art.com,"[[u'Social', u'Arts', u'Art Dealers and Galleries']]"
0,Multi Troc,Albi,81000,29 rue Lavedan,Tarn,fr,,05 63 54 01 61,,"[[u'Social', u'Arts', u'Art Dealers and Galleries']]"
0,Galerie Nadine Granier,Albi,81000,13 rue Puech Bérenguier,Tarn,fr,,05 63 38 98 76,,"[[u'Social', u'Arts', u'Art Dealers and Galleries']]"
0,Brocante du Lude,Albi,81000,94 rue de Lavazière,Tarn,fr,,05 63 54 49 91,http://www.brocantedulude.fr,"[[u'Social', u'Arts', u'Art Dealers and Galleries']]"
0,Brocante Willy Hahn,Albi,81000,58 route de Castres,Tarn,fr,,06 12 73 52 42,,"[[u'Social', u'Arts', u'Art Dealers and Galleries']]"
0,Cimaise et Portique,Albi,81000,8 rue Jules Verne,Tarn,fr,,,http://www.d-c-art.org,"[[u'Social', u'Arts', u'Art Dealers and Galleries']]"
0,Au Gré du Temps,Albi,81000,66 rue Edouard Branly,Tarn,fr,,06 86 98 52 15,,"[[u'Social', u'Arts', u'Art Dealers and Galleries']]"
0,Galerie B,Albi,81000,5 rue des Foissants,Tarn,fr,,06 12 48 55 06,,"[[u'Social', u'Arts', u'Art Dealers and Galleries']]"
0,Alapetite Epoque à Albi,Albi,81000,136 route de Cordes,Tarn,fr,,06 88 80 25 10,,"[[u'Social', u'Arts', u'Art Dealers and Galleries']]"
0,Centre d'Art le Lait,Albi,81000,6 rue Jules Rolland,Tarn,fr,,,,"[[u'Social', u'Arts', u'Art Dealers and Galleries']]"
0,Marcar'art,Albi,81000,12 rue Saint Julien,Tarn,fr,,05 63 54 55 79,,"[[u'Social', u'Arts', u'Art Dealers and Galleries']]"
0,Les Temps Meles,Albi,81000,24 rue de l'Hôtel de Ville,Tarn,fr,,05 63 38 46 00,,"[[u'Social', u'Arts', u'Art Dealers and Galleries']]"
0,Forum des Images,Albi,81000,12 Lices Georges Pompidou,Tarn,fr,,05 63 54 83 33,,"[[u'Social', u'Arts', u'Art Dealers and Galleries']]"
0,La Croisee des Arts,Albi,81000,12 rue Hotel de Ville,Tarn,fr,,05 63 38 78 86,,"[[u'Social', u'Arts', u'Art Dealers and Galleries']]"
0,Alapetite Guillaume Francois,Albi,81000,59 rue du Capitaine Julia,Tarn,fr,,05 63 43 50 52,,"[[u'Social', u'Arts', u'Art Dealers and Galleries']]"
0,Assié Pierre à Albi,Albi,81000,16 avenue Colonel Teyssier,Tarn,fr,,05 63 53 28 99,,"[[u'Social', u'Arts', u'Art Dealers and Galleries']]"
0,Verdier Jean-François à Albi,Albi,81000,18 rue Auguste Vidal,Tarn,fr,,05 63 38 09 50,,"[[u'Social', u'Arts', u'Art Dealers and Galleries']]"
0,Antiquités Brocante Sainte Anne,Albi,81000,23 route de Terssac,Tarn,fr,,06 19 85 86 10,,"[[u'Social', u'Arts', u'Art Dealers and Galleries']]"
0,Atelier Galerie le Rouge qui bouge à Albi,Albi,81000,15 rue de la Porte Neuve,Tarn,fr,,05 63 36 80 43,,"[[u'Social', u'Arts', u'Art Dealers and Galleries']]"
0,Antiquites du Palais,Albi,81000,59 rue Plaine Saint Martin,Tarn,fr,,06 82 83 72 01,,"[[u'Social', u'Arts', u'Art Dealers and Galleries']]"
0,Galerie du Forum,Albi,81000,12 Lices Georges Pompidou,Tarn,fr,,05 63 54 83 00,,"[[u'Social', u'Arts', u'Art Dealers and Galleries']]"
0,Brique et Brock,Albi,81000,15 rue Souque,Tarn,fr,,06 22 75 76 64,,"[[u'Social', u'Arts', u'Art Dealers and Galleries']]"
0,Maison Victor,Castres,81100,14 rue Victor Hugo,Tarn,fr,,09 84 33 02 79,,"[[u'Social', u'Arts', u'Art Dealers and Galleries']]"
0,Brocante de l'Albinque,Castres,81100,27 place de l'Albinque,Tarn,fr,,05 63 59 28 76,http://antiquitesfrance.fr,"[[u'Social', u'Arts', u'Art Dealers and Galleries']]"
0,Arabesques,Castres,81100,7 rue Camille Rabaud,Tarn,fr,,05 63 72 15 60,,"[[u'Social', u'Arts', u'Art Dealers and Galleries']]"
0,Brocante de l'Avenue,Castres,81100,181 avenue Charles de Gaulle,Tarn,fr,,05 63 35 28 61,,"[[u'Social', u'Arts', u'Art Dealers and Galleries']]"
0,Attelets Corrozo et Noix de Coco,Castres,81100,10 rue Fuzies,Tarn,fr,,09 51 66 06 96,,"[[u'Social', u'Arts', u'Art Dealers and Galleries']]"
0,Lamon Cathy,Castres,81100,route de Campans,Tarn,fr,,05 63 72 03 25,,"[[u'Social', u'Arts', u'Art Dealers and Galleries']]"
0,Antiquites Comdor Aldebert,Castres,81100,243 avenue Charles de Gaulle,Tarn,fr,,05 63 35 54 42,,"[[u'Social', u'Arts', u'Art Dealers and Galleries']]"
0,Bévilacqua Raphaël,Burlats,81100,la Massalarié,Tarn,fr,,05 63 35 56 66,,"[[u'Social', u'Arts', u'Art Dealers and Galleries']]"
0,J.A,Castres,81100,ZI Melou rue Industrie,Tarn,fr,,06 80 42 73 81,,"[[u'Social', u'Arts', u'Art Dealers and Galleries']]"
0,Garcia Victorio,Castres,81100,221 avenue Charles de Gaulle,Tarn,fr,,06 80 33 05 01,,"[[u'Social', u'Arts', u'Art Dealers and Galleries']]"
0,Gallerie Sens Uniques à Castres,Castres,81100,2 rue Beaujeu,Tarn,fr,,05 81 43 56 43,,"[[u'Social', u'Arts', u'Art Dealers and Galleries']]"
0,Blanc Bertrand,Marssac sur Tarn,81150,17 avenue Albi,Tarn,fr,,05 63 53 22 82,,"[[u'Social', u'Arts', u'Art Dealers and Galleries']]"
0,Bruyeres Serge,Marssac sur Tarn,81150,16 avenue Albi,Tarn,fr,,05 63 55 24 37,,"[[u'Social', u'Arts', u'Art Dealers and Galleries']]"
0,Schutt Louis,Marssac sur Tarn,81150,88 route Nationale,Tarn,fr,,06 86 00 96 60,,"[[u'Social', u'Arts', u'Art Dealers and Galleries']]"
0,Belin Martine à Cordes-sur-Ciel,Cordes sur Ciel,81170,8 avenue 11 Novembre 1918,Tarn,fr,,05 63 49 92 29,,"[[u'Social', u'Arts', u'Art Dealers and Galleries']]"
0,Le Grenier du Village,Frausseilles,81170,Bourg,Tarn,fr,,06 15 93 50 38,,"[[u'Social', u'Arts', u'Art Dealers and Galleries']]"
0,Baurens Anna,Cordes sur Ciel,81170,5 rue Fontournie,Tarn,fr,,05 67 42 08 12,,"[[u'Social', u'Arts', u'Art Dealers and Galleries']]"
0,Brocante 112,Aussillon,81200,169 avenue du Maréchal Foch,Tarn,fr,,05 63 61 99 83,,"[[u'Social', u'Arts', u'Art Dealers and Galleries']]"
0,La Brocante d'Autan,Mazamet,81200,2 rue des Cordes,Tarn,fr,,06 81 61 88 32,http://antiquite-brocante-tarn.fr,"[[u'Social', u'Arts', u'Art Dealers and Galleries']]"
0,Brochart Jean-Paul et Brigitte,Mazamet,81200,33 rue de Lagoutine,Tarn,fr,,05 63 97 04 78,,"[[u'Social', u'Arts', u'Art Dealers and Galleries']]"
0,Au Temps Jadis,Mazamet,81200,42 rue de la République,Tarn,fr,,05 63 61 58 20,,"[[u'Social', u'Arts', u'Art Dealers and Galleries']]"
0,Arts et Cultures,Aussillon,81200,Château de la Falgalarié,Tarn,fr,,05 63 61 44 16,,"[[u'Social', u'Arts', u'Art Dealers and Galleries']]"
0,Ribot Michel,Anglès,81260,place de la Mairie,Tarn,fr,,05 63 70 97 15,,"[[u'Social', u'Arts', u'Art Dealers and Galleries']]"
0,Les Années Folles,Espérausses,81260,le Bourg,Tarn,fr,,06 83 17 93 02,,"[[u'Social', u'Arts', u'Art Dealers and Galleries']]"
0,Amilien Frédéric,Labastide Rouairoux,81270,33 Bis boulevard Carnot,Tarn,fr,,06 81 10 59 52,,"[[u'Social', u'Arts', u'Art Dealers and Galleries']]"
0,Llamas Daniel,Graulhet,81300,rue Saint Jean,Tarn,fr,,06 10 30 91 23,,"[[u'Social', u'Arts', u'Art Dealers and Galleries']]"
0,Ziegler Dominique,Lisle sur Tarn,81310,Saint Gérard,Tarn,fr,,06 73 94 63 10,http://www.brocante-ziegler.com,"[[u'Social', u'Arts', u'Art Dealers and Galleries']]"
0,Caussignac Jean-Claude,Saint Sulpice La Pointe,81370,,Tarn,fr,,06 07 68 68 89,,"[[u'Social', u'Arts', u'Art Dealers and Galleries']]"
0,Le Centaure,Carmaux,81400,10 avenue Albert Thomas,Tarn,fr,,05 63 36 13 34,,"[[u'Social', u'Arts', u'Art Dealers and Galleries']]"
0,Bortolotti Pierre,Blaye les Mines,81400,65 avenue Albi,Tarn,fr,,05 63 54 45 33,,"[[u'Social', u'Arts', u'Art Dealers and Galleries']]"
0,Vieu Philippe,Bellegarde,81430,lieu-dit Montels,Tarn,fr,,07 63 13 82 82,,"[[u'Social', u'Arts', u'Art Dealers and Galleries']]"
0,Antiquités Farenc,Le Garric,81450,84 route Nationale,Tarn,fr,,05 63 36 74 37,,"[[u'Social', u'Arts', u'Art Dealers and Galleries']]"
0,Grozdea Sophie,Cambon les Lavaur,81470,en Marty,Tarn,fr,,05 63 70 42 48,,"[[u'Social', u'Arts', u'Art Dealers and Galleries']]"
0,Antik Makina,Lavaur,81500,21 avenue Georges Pompidou,Tarn,fr,,05 63 58 66 10,,"[[u'Social', u'Arts', u'Art Dealers and Galleries']]"
0,Communauté de Communes du pays de Rabastens à Giroussens,Giroussens,81500,place Lucie Bounhiol,Tarn,fr,,05 63 41 68 22,,"[[u'Social', u'Arts', u'Art Dealers and Galleries']]"
0,Santos Jean,Vielmur sur Agout,81570,la Moulinarie,Tarn,fr,,05 63 75 31 18,,"[[u'Social', u'Arts', u'Art Dealers and Galleries']]"
0,La Brocante de Pouille,Gaillac,81600,81 rue de Pouille,Tarn,fr,,05 63 81 42 71,,"[[u'Social', u'Arts', u'Art Dealers and Galleries']]"
0,Brocante Saint-Pierre,Gaillac,81600,21 rue Portal,Tarn,fr,,05 63 40 76 31,,"[[u'Social', u'Arts', u'Art Dealers and Galleries']]"
0,Gerard Evelyne,Salvagnac,81630,Grand rue,Tarn,fr,,05 63 33 99 98,,"[[u'Social', u'Arts', u'Art Dealers and Galleries']]"
0,Andre Brocante,Monestiés,81640,le Vic,Tarn,fr,,05 63 36 54 20,,"[[u'Social', u'Arts', u'Art Dealers and Galleries']]"
0,Gayard Alain,Monestiés,81640,rue Jean Jaurès,Tarn,fr,,06 80 06 73 22,,"[[u'Social', u'Arts', u'Art Dealers and Galleries']]"
0,Au P'Tit Broc,Le Ségur,81640,route SAINT CHRISTOPHE,Tarn,fr,,06 79 03 57 34,,"[[u'Social', u'Arts', u'Art Dealers and Galleries']]"
0,Couzinier Eric,Puylaurens,81700,la Vacarie,Tarn,fr,,05 63 70 36 64,,"[[u'Social', u'Arts', u'Art Dealers and Galleries']]"
0,Grenier d'Alexandre,Saïx,81710,route de Navés,Tarn,fr,,05 63 71 26 70,http://www.antiquite-decoration-castres.fr/,"[[u'Social', u'Arts', u'Art Dealers and Galleries']]"
0,Cortade'Art,Montauban,82000,15 place Nationale,Tarn-et-Garonne,fr,,05 63 91 44 92,http://www.cortade-art.com,"[[u'Social', u'Arts', u'Art Dealers and Galleries']]"
0,Montauban Numismatique,Montauban,82000,7 rue Hôtel de Ville BP 821,Tarn-et-Garonne,fr,,05 63 91 98 08,http://www.montauban-numismatique.com,"[[u'Social', u'Arts', u'Art Dealers and Galleries']]"
0,Collections et Découvertes,Montauban,82000,15 rue d'Elie,Tarn-et-Garonne,fr,,05 63 63 39 80,,"[[u'Social', u'Arts', u'Art Dealers and Galleries']]"
0,Le Roi David,Montauban,82000,47 boulevard Gustave Garrisson,Tarn-et-Garonne,fr,,05 63 91 41 83,,"[[u'Social', u'Arts', u'Art Dealers and Galleries']]"
0,Galerie le Sphinx,Montauban,82000,31 rue du Général Sarrail,Tarn-et-Garonne,fr,,05 63 91 93 58,,"[[u'Social', u'Arts', u'Art Dealers and Galleries']]"
0,Peries Jean-Claude,Montauban,82000,3 rue d'Elie,Tarn-et-Garonne,fr,,05 63 63 41 51,,"[[u'Social', u'Arts', u'Art Dealers and Galleries']]"
0,Artous Paul,Montauban,82000,100 Impasse des Blancous,Tarn-et-Garonne,fr,,05 63 03 09 36,,"[[u'Social', u'Arts', u'Art Dealers and Galleries']]"
0,Roger,Montauban,82000,47 boulevard Gustave Garrisson,Tarn-et-Garonne,fr,,09 75 91 19 85,,"[[u'Social', u'Arts', u'Art Dealers and Galleries']]"
0,Rouges Jean-Marie,Montauban,82000,97 Grand rue Sapiac,Tarn-et-Garonne,fr,,06 80 68 48 27,,"[[u'Social', u'Arts', u'Art Dealers and Galleries']]"
0,Auzeric Laurent à Montauban,Montauban,82000,17 rue Jean Baptiste Charcot,Tarn-et-Garonne,fr,,06 25 95 78 39,,"[[u'Social', u'Arts', u'Art Dealers and Galleries']]"
0,Mairie Galerie d'art Municipale,Castelsarrasin,82100,46 rue de la Révolution,Tarn-et-Garonne,fr,,05 63 32 51 07,,"[[u'Social', u'Arts', u'Art Dealers and Galleries']]"
0,Mairie à Castelsarrasin,Castelsarrasin,82100,46 rue Révolution,Tarn-et-Garonne,fr,,05 63 32 51 07,http://www.ville-castelsarrasin.fr,"[[u'Social', u'Arts', u'Art Dealers and Galleries']]"
0,Atelier Galerie d'Art Nomikos,Castelsarrasin,82100,54 avenue Courbieu,Tarn-et-Garonne,fr,,05 63 32 19 46,http://nomikos.guidarts.com,"[[u'Social', u'Arts', u'Art Dealers and Galleries']]"
0,Bee'Z Arts,Lauzerte,82110,place des Cornieres,Tarn-et-Garonne,fr,,05 63 94 91 25,,"[[u'Social', u'Arts', u'Art Dealers and Galleries']]"
0,Garcia-Montes Louis,Lafrançaise,82130,place Rémi Cornet,Tarn-et-Garonne,fr,,05 63 65 83 14,,"[[u'Social', u'Arts', u'Art Dealers and Galleries']]"
0,Dédé la Brocante,Villemade,82130,1099 route de Bordeaux,Tarn-et-Garonne,fr,,05 63 03 05 96,,"[[u'Social', u'Arts', u'Art Dealers and Galleries']]"
0,Histoires et Jardins,Saint Antonin Noble Val,82140,22 Bis boulevard des Thermes,Tarn-et-Garonne,fr,,05 63 30 57 99,http://www.histoiresetjardins.com,"[[u'Social', u'Arts', u'Art Dealers and Galleries']]"
0,Maison du Roy,Saint Antonin Noble Val,82140,12 rue de l'Eglise,Tarn-et-Garonne,fr,,05 63 68 29 48,,"[[u'Social', u'Arts', u'Art Dealers and Galleries']]"
0,Larsonnier Pascal,Puylagarde,82160,Bourgade,Tarn-et-Garonne,fr,,06 82 55 79 70,,"[[u'Social', u'Arts', u'Art Dealers and Galleries']]"
0,Salesses Michèle à Parisot,Parisot,82160,Mas Roux,Tarn-et-Garonne,fr,,05 63 24 01 78,,"[[u'Social', u'Arts', u'Art Dealers and Galleries']]"
0,Dauriac Jean-Louis,Dieupentale,82170,13 rue de la Mairie,Tarn-et-Garonne,fr,,05 63 02 50 94,,"[[u'Social', u'Arts', u'Art Dealers and Galleries']]"
0,Galerie Graal,Moissac,82200,2 place Durand de Bredon,Tarn-et-Garonne,fr,,05 63 05 15 73,http://www.galeriegraal.com,"[[u'Social', u'Arts', u'Art Dealers and Galleries']]"
0,Galerie d'art,Moissac,82200,,Tarn-et-Garonne,fr,,05 63 04 57 60,http://www.galeriegraal.com,"[[u'Social', u'Arts', u'Art Dealers and Galleries']]"
0,Décorantic Moissac,Moissac,82200,19 boulevard d'Alsace Lorraine,Tarn-et-Garonne,fr,,05 63 04 85 57,,"[[u'Social', u'Arts', u'Art Dealers and Galleries']]"
0,Chardelin Yves,Moissac,82200,Bissayrolles,Tarn-et-Garonne,fr,,05 63 32 47 59,,"[[u'Social', u'Arts', u'Art Dealers and Galleries']]"
0,Destang Jacques à Saint-Nicolas-de-la-Grave,Saint Nicolas de la Grave,82210,chemin d'Auvillar,Tarn-et-Garonne,fr,,06 75 00 67 31,,"[[u'Social', u'Arts', u'Art Dealers and Galleries']]"
0,Biscarat Christophe,Léojac,82230,264 chemin de la Vallée du Tordre,Tarn-et-Garonne,fr,,05 63 64 61 06,,"[[u'Social', u'Arts', u'Art Dealers and Galleries']]"
0,L'Air du Temps,Septfonds,82240,route de Saint-Cirq,Tarn-et-Garonne,fr,,06 12 71 54 26,,"[[u'Social', u'Arts', u'Art Dealers and Galleries']]"
0,Hirissou William,La Ville Dieu du Temple,82290,465 Bis chemin Peyrat,Tarn-et-Garonne,fr,,06 14 48 87 57,,"[[u'Social', u'Arts', u'Art Dealers and Galleries']]"
0,Azpilegor Claude,Albias,82350,21 rue Flandres Dunkerque 1940,Tarn-et-Garonne,fr,,06 85 49 49 61,,"[[u'Social', u'Arts', u'Art Dealers and Galleries']]"
0,Cristol Jean-Marc,Labastide Saint Pierre,82370,224 avenue Jean Moulin,Tarn-et-Garonne,fr,,05 63 64 02 93,,"[[u'Social', u'Arts', u'Art Dealers and Galleries']]"
0,Galarie Antares,,82400,37 rue du Chevalier Toile,Tarn-et-Garonne,fr,,06 84 98 00 04,http://www.antares-creativ.fr/,"[[u'Social', u'Arts', u'Art Dealers and Galleries']]"
0,Galerie d'Art BLEU REGLISSE,Valence,82400,35 avenue de la Gare,Tarn-et-Garonne,fr,,05 63 94 61 01,http://www.bleu-reglisse.com,"[[u'Social', u'Arts', u'Art Dealers and Galleries']]"
0,Wegmann Patrick,Maubec,82500,le Tuco,Tarn-et-Garonne,fr,,05 63 65 23 22,,"[[u'Social', u'Arts', u'Art Dealers and Galleries']]"
0,Meubl'Occas'Troc,Saint Porquier,82700,la Thoumazette,Tarn-et-Garonne,fr,,05 63 68 72 13,,"[[u'Social', u'Arts', u'Art Dealers and Galleries']]"
0,Borgne,Saint Porquier,82700,la Thourmazette,Tarn-et-Garonne,fr,,09 64 37 26 08,,"[[u'Social', u'Arts', u'Art Dealers and Galleries']]"
0,Soulié Jacqueline,Finhan,82700,71 route Nationale 113,Tarn-et-Garonne,fr,,05 63 27 20 49,,"[[u'Social', u'Arts', u'Art Dealers and Galleries']]"
0,Blanc Jean-Remi,Montech,82700,rue des Balcons,Tarn-et-Garonne,fr,,05 63 26 54 88,,"[[u'Social', u'Arts', u'Art Dealers and Galleries']]"
0,Midi Pyrenees Antiquites,Bressols,82710,41 route de Montauban,Tarn-et-Garonne,fr,,06 84 36 07 48,,"[[u'Social', u'Arts', u'Art Dealers and Galleries']]"
0,Sforzini Pierre,Bressols,82710,41 route de Montauban,Tarn-et-Garonne,fr,,05 63 26 33 02,,"[[u'Social', u'Arts', u'Art Dealers and Galleries']]"
0,Crash Gallery,Lille,59000,6 rue de Maubeuge,Nord,fr,,06 71 88 96 37,,"[[u'Social', u'Arts', u'Art Dealers and Galleries']]"
0,Maison Folie de Wazemmes,Lille,59000,70 rue des Sarrazins,Nord,fr,,03 20 13 73 81,http://mfwazemmes.lille.fr/fr,"[[u'Social', u'Arts', u'Art Dealers and Galleries']]"
0,Dalle Véronique,Lille,59000,15 rue de Seclin,Nord,fr,,03 20 97 70 05,http://www.collegialedesarts.fr,"[[u'Social', u'Arts', u'Art Dealers and Galleries']]"
0,La Cantine du Tripostal,Lille,59000,avenue Willy Brandt,Nord,fr,,03 20 14 47 60,http://lille.fr/cms/accueil/culture-lille/Musees-et-expositions/Lieux_expositions_et_galeries/tri-postal,"[[u'Landmarks'], [u'Social', u'Arts', u'Art Dealers and Galleries']]"
0,Arawak 21,Lille,59000,56 rue Gantois,Nord,fr,,06 77 90 89 98,http://www.arawak21.fr/,"[[u'Social', u'Arts', u'Art Dealers and Galleries']]"
0,Raison d'Art,Lille,59000,153 Bis boulevard de la liberte,Nord,fr,,03 20 31 55 70,http://www.raisondart.com,"[[u'Social', u'Arts', u'Art Dealers and Galleries']]"
0,Galerie Régis Dorval,Lille,59000,27 boulevard de la Liberté,Nord,fr,,03 20 54 90 05,,"[[u'Social', u'Arts', u'Art Dealers and Galleries']]"
0,Galerie Collégiale,Lille,59000,15 rue de Seclin,Nord,fr,,03 20 97 70 05,http://www.collegialedesarts.fr/,"[[u'Social', u'Arts', u'Art Dealers and Galleries']]"
0,Atelier de Fred Depienne,Lille,59000,71 rue Gantois,Nord,fr,,06 84 77 17 17,http://www.freddepienne.com,"[[u'Social', u'Arts', u'Art Dealers and Galleries']]"
0,Godar Genevieve,Lille,59000,15 rue des Bouchers,Nord,fr,,03 20 51 43 13,,"[[u'Social', u'Arts', u'Art Dealers and Galleries']]"
0,Galerie Espace du Dedans,Lille,59000,28 rue de Gand,Nord,fr,,03 20 14 38 89,,"[[u'Social', u'Arts', u'Art Dealers and Galleries']]"
0,New Art City,Lille,59000,67 rue de Saint-André,Nord,fr,,03 20 39 59 31,http://galerie-naclil.fr,"[[u'Social', u'Arts', u'Art Dealers and Galleries']]"
0,Galerie Annie Wable,Lille,59000,4 rue Thiers,Nord,fr,,03 20 57 27 69,,"[[u'Social', u'Arts', u'Art Dealers and Galleries']]"
0,Delobaux Jean,Lille,59000,89 rue Saint André,Nord,fr,,03 20 31 35 63,,"[[u'Social', u'Arts', u'Art Dealers and Galleries']]"
0,Masfrand Denis,Lille,59000,19 Ter rue Inkermann,Nord,fr,,03 20 09 55 35,,"[[u'Social', u'Arts', u'Art Dealers and Galleries']]"
0,Colin Francis,Lille,59000,60 rue Arago,Nord,fr,,03 20 57 30 23,,"[[u'Social', u'Arts', u'Art Dealers and Galleries']]"
0,Atelier Galerie Bleu,Lille,59000,24 rue Georges Clemenceau,Nord,fr,,03 20 54 09 85,,"[[u'Social', u'Arts', u'Art Dealers and Galleries']]"
0,Antiquites Parenthou Pierre,Lille,59000,23 rue Lepelletier,Nord,fr,,03 20 55 70 23,http://www.pierre-parenthou-antiquites.com,"[[u'Social', u'Arts', u'Art Dealers and Galleries']]"
0,Africasiartribal,Lille,59000,76 rue Jean Bart,Nord,fr,,03 20 49 02 42,,"[[u'Social', u'Arts', u'Art Dealers and Galleries']]"
0,La Buanderie,Lille,59000,32 rue de l'Hôpital Saint-Roch,Nord,fr,,06 14 30 74 42,,"[[u'Social', u'Arts', u'Art Dealers and Galleries']]"
0,Objets du Hasard,Lille,59000,43 rue du Marché,Nord,fr,,03 20 48 09 28,,"[[u'Social', u'Arts', u'Art Dealers and Galleries']]"
0,Marbrerie,Lille,59000,61 rue Leonard Danel,Nord,fr,,03 20 42 14 77,,"[[u'Social', u'Arts', u'Art Dealers and Galleries']]"
0,Galerie Corvo-Gabourg,Lille,59000,56 rue Gand,Nord,fr,,03 20 55 55 89,,"[[u'Social', u'Arts', u'Art Dealers and Galleries']]"
0,Objets du Hasard,Roubaix,59100,139 rue Arts,Nord,fr,,06 22 50 04 56,http://www.objetsduhasard.fr/spip.php?rubrique1,"[[u'Social', u'Arts', u'Art Dealers and Galleries']]"
0,Nobile Angelo,Roubaix,59100,18 rue Edouard Vaillant,Nord,fr,,03 20 02 46 32,,"[[u'Social', u'Arts', u'Art Dealers and Galleries']]"
0,Art Sacré,Roubaix,59100,5 Bis Contour Saint Martin,Nord,fr,,03 20 73 54 85,,"[[u'Social', u'Arts', u'Art Dealers and Galleries']]"
0,La plus petite galerie du monde ou PRESQUE,Roubaix,59100,69 rue des Arts,Nord,fr,,03 20 24 35 31,http://www.lapluspetitegalerie.com,"[[u'Social', u'Arts', u'Art Dealers and Galleries']]"
0,Bureau d'Art et de Recherche Lieu de cercle privé,Roubaix,59100,112 avenue Jean Baptiste Lebas,Nord,fr,,03 62 28 13 86,http://www.le-bar.fr,"[[u'Social', u'Arts', u'Art Dealers and Galleries']]"
0,Gooten,Roubaix,59100,5 Bis Contour Saint Martin,Nord,fr,,09 65 20 33 03,,"[[u'Social', u'Arts', u'Art Dealers and Galleries']]"
0,Antiquités Lepoutre et Fils,Roubaix,59100,63 rue du Grand chemin,Nord,fr,,03 20 70 67 94,,"[[u'Social', u'Arts', u'Art Dealers and Galleries']]"
0,Antiquites Lewers,Roubaix,59100,70 rue du Maréchal Foch,Nord,fr,,06 87 02 06 36,,"[[u'Social', u'Arts', u'Art Dealers and Galleries']]"
0,Applerock,La Madeleine,59110,17 rue Kleber,Nord,fr,,06 24 30 50 82,,"[[u'Social', u'Arts', u'Art Dealers and Galleries']]"
