,Name,Locality,Postalcode,Address,Region,Country,Neighborhood,Phone,Email,Website,Category Labels
0,,,,,,,,,,,
0,Verve Fine Arts,Alexander City,35010,88 Fourwinds,AL,us,,(256) 234-9036,,http://vervefinearts.com,"[[u'Social', u'Arts', u'Art Dealers and Galleries']]"
0,Uhlich Steadman Fine Arts,Birmingham,35209,2817 18th St S,AL,us,"[u'Southside', u'Cullom Place', u'Rosedale']",(205) 871-2699,,,"[[u'Social', u'Arts', u'Art Dealers and Galleries']]"
0,Carole Foret Fine Art,Athens,35611,206 W Market St,AL,us,[u'Lakewood'],(256) 232-2521,foretc@caroleforet.com,http://www.caroleforet.com,"[[u'Social', u'Arts', u'Art Dealers and Galleries']]"
0,Cassetta Gallery Fine Art & Framery,Tuscumbia,35674,200 S Main St,AL,us,[u'Trenholm Heights'],(256) 386-5252,,,"[[u'Social', u'Arts', u'Art Dealers and Galleries']]"
0,Carole Foret Fine Art,Huntsville,35801,301 Holmes Ave NE,AL,us,"[u'Canterbury', u'Old Town']",(256) 232-2521,,http://www.caroleforet.com/,"[[u'Social', u'Arts', u'Art Dealers and Galleries']]"
0,Studio 100 Fine Art Gallery,Huntsville,35801,117 Northside Sq,AL,us,"[u'Canterbury', u'English Terrace', u'Downtown']",(256) 539-5845,,,"[[u'Social', u'Arts', u'Art Dealers and Galleries']]"
0,Stonehenge Gallery,Montgomery,36106,1041 E Fairview Ave,AL,us,"[u'Cloverdale', u'South Montgomery City']",(334) 262-8256,stonehenge@sify.com,http://www.stonehengegallery.com/Home.html,"[[u'Social', u'Arts', u'Art Dealers and Galleries']]"
0,Tino's Fine Art & Frames,Gulf Shores,36542,2200 E 2nd St,AL,us,,(251) 971-8466,,http://tinosfineart.com,"[[u'Social', u'Arts', u'Art Dealers and Galleries']]"
0,Affordable Fine Arts,Mobile,36604,354 Regina Ave,AL,us,[u'Washington Square'],(251) 690-9020,,,"[[u'Social', u'Arts', u'Art Dealers and Galleries']]"
0,Milton Lenoir Fine Art GLLRY,Smiths Station,36877,7058 Lee Road 246,AL,us,,(334) 298-1647,,,"[[u'Social', u'Arts', u'Art Dealers and Galleries']]"
0,Aurora Fine Art Gallery,Anchorage,99501,406 G St,AK,us,[u'Downtown'],(907) 274-0235,,,"[[u'Social', u'Arts', u'Art Dealers and Galleries']]"
0,Obeidi's Fine Art Gallery,Anchorage,99503,3502 Arctic Blvd,AK,us,[u'Spenard'],(907) 562-6666,mousaobeidi@artandframesobeidis.com,http://www.obeidifineart.com,"[[u'Social', u'Arts', u'Art Dealers and Galleries']]"
0,Alaska Art & Frame,Anchorage,99503,3502 Arctic Blvd,AK,us,"[u'Midtown', u'Spenard']",(907) 561-5163,,http://www.obeidifineart.com/,"[[u'Social', u'Arts', u'Art Dealers and Galleries']]"
0,Diann Haist Fine Art Gallery,Anchorage,99508,3101 Penland Pkwy,AK,us,"[u'Fort Richardson Military Reservation', u'Mountain View']",(907) 903-9997,haistgallery@gci.net,http://www.diannhaist.com,"[[u'Social', u'Arts', u'Art Dealers and Galleries']]"
0,Eagle River Fine Art & Framing,Eagle River,99577,17050 N Eagle River Loop Rd,AK,us,,(907) 696-4278,,,"[[u'Social', u'Arts', u'Art Dealers and Galleries']]"
0,Kenai Fine Arts Center,Kenai,99611,816 Cook Ave,AK,us,,(907) 283-7040,ourkfac@gmail.com,http://www.kenaifineart.com/,"[[u'Social', u'Arts', u'Art Dealers and Galleries']]"
0,Gallery 49,Fairbanks,99701,535 2nd Ave,AK,us,[u'Slaterville'],(907) 452-2787,info@co,http://www.co-op-arts.com/,"[[u'Social', u'Arts', u'Art Dealers and Galleries']]"
0,Alaska House Of Fine Art,Fairbanks,99709,1850 Hoselton Rd,AK,us,,(907) 456-7958,info@thealaskahouse.com,,"[[u'Social', u'Arts', u'Art Dealers and Galleries']]"
0,Fisherman's Eye,Sitka,99835,239 Lincoln St,AK,us,[u'Mount Edgecombe'],(907) 747-6080,fisheye@acsalaska.net,http://www.fishermenseye.com,"[[u'Social', u'Arts', u'Art Dealers and Galleries']]"
0,Fine Arts Center of Hot Springs,Hot Springs,71901,626 Central Ave,AR,us,,(501) 624-0489,,http://www.hsfac.com,"[[u'Social', u'Arts', u'Art Dealers and Galleries']]"
0,Taylor's Contemporanea Arts,Hot Springs,71901,204 Exchange St,AR,us,,(501) 624-0516,taylor@taylorsarts.com,http://www.taylorsarts.com/cgi-sys/suspendedpage.cgi,"[[u'Social', u'Arts', u'Art Dealers and Galleries']]"
0,Baum Gallery,Conway,72035,201 Donaghey Ave,AR,us,,(501) 450-5793,,http://www.uca.edu/,"[[u'Social', u'Arts', u'Art Dealers and Galleries']]"
0,Greg Thompson Fine Art,North Little Rock,72114,429 Main St,AR,us,"[u'Downtown', u'North Oaks', u'River Market']",(501) 664-2787,greg@gregthompsonfineart.com,http://www.gregthompsonfineart.com,"[[u'Social', u'Arts', u'Art Dealers and Galleries']]"
0,Hearne Fine Art,Little Rock,72201,500 President Clinton Ave,AR,us,"[u'River Market', u'Downtown']",(501) 372-6822,,http://www.hearnefineart.com/,"[[u'Social', u'Arts', u'Art Dealers and Galleries']]"
0,Sandy Hubler Fine Art,Little Rock,72202,2313 Cantrell Rd,AR,us,,(501) 416-0533,,http://www.sandyhublerfineart.com,"[[u'Social', u'Arts', u'Art Dealers and Galleries']]"
0,Greg Thompson Fine Art,Little Rock,72205,3923 Oakwood Rd,AR,us,[u'North Oaks'],(501) 664-2787,,http://www.gregthompsonfineart.com/,"[[u'Social', u'Arts', u'Art Dealers and Galleries']]"
0,Pyramid Art Books & Custom Framing/Hearne Fine Arts,Little Rock,72206,1001 Wright Ave,AR,us,[u'Quapaw Quarter'],(501) 372-5824,hearnefineart@hearnefineart.com,http://www.pyramidbks.net,"[[u'Social', u'Arts', u'Art Dealers and Galleries']]"
0,Hearne Fine Art,Little Rock,72206,1001 Wright Ave,AR,us,,(501) 372-6822,hearnefineart@gmail.com,http://www.hearnefineart.com,"[[u'Social', u'Arts', u'Art Dealers and Galleries']]"
0,Boswell Mourot Fine Art,Little Rock,72207,5815 Kavanaugh Blvd,AR,us,,(501) 664-0030,,http://www.boswellmourot.com,"[[u'Social', u'Arts', u'Art Dealers and Galleries']]"
0,Artifacts Folks & Fine Art,Eureka Springs,72632,37 Spring St,AR,us,,(479) 363-6660,,http://www.artifactseureka.com/,"[[u'Social', u'Arts', u'Art Dealers and Galleries']]"
0,Eureka Fine Art Gallery,Eureka Springs,72632,63 S Main St,AR,us,,(479) 363-6000,,,"[[u'Social', u'Arts', u'Art Dealers and Galleries']]"
0,Pro Arte Studio-Fine Art,Phoenix,85015,6875 N 21st Ave,AZ,us,"[u'West Phoenix', u'Alhambra']",(602) 544-1521,,,"[[u'Social', u'Arts', u'Art Dealers and Galleries']]"
0,Dick Williams Fine Art,Phoenix,85018,4529 N 34th St,AZ,us,,(602) 957-1663,,,"[[u'Social', u'Arts', u'Art Dealers and Galleries']]"
0,Leslie Levy Fine Art,Phoenix,85018,4749 N 53rd St,AZ,us,,(602) 952-2925,,,"[[u'Social', u'Arts', u'Art Dealers and Galleries']]"
0,Fine Art & Custom Finishes,Phoenix,85021,8020 N 9th Ave,AZ,us,[u'Palmas Royale'],(602) 944-6698,,http://artandenvironments.com,"[[u'Social', u'Arts', u'Art Dealers and Galleries']]"
0,Pabst Property Management,Chandler,85225,42 W Boxelder Pl,AZ,us,[u'New Horizons'],(480) 632-0191,,http://beholdyourmother.com,"[[u'Social', u'Arts', u'Art Dealers and Galleries']]"
0,Figarelli Fine Art,Scottsdale,85250,7610 E McDonald Dr,AZ,us,[u'Las Villas'],(480) 609-7077,info@figarellifineart.com,http://figarellifineart.com,"[[u'Social', u'Arts', u'Art Dealers and Galleries']]"
0,Rima Fine Art,Scottsdale,85251,7077 E Main St,AZ,us,"[u'Downtown', u'Las Villas']",(480) 994-8899,art@rimafineart.com,http://www.rimafineart.com,"[[u'Social', u'Arts', u'Art Dealers and Galleries']]"
0,Ostrovsky Fine Art,Scottsdale,85251,7048 E Main St,AZ,us,"[u'Downtown', u'Las Villas']",(480) 941-1600,jane@scottsdalefineart.com,http://www.ostrovskyfineart.com,"[[u'Social', u'Arts', u'Art Dealers and Galleries']]"
0,Scottsdale Fine Art,Scottsdale,85251,7116 E Main St,AZ,us,"[u'Las Villas', u'Downtown']",(480) 990-3100,jane@scottsdalefineart.com,http://www.scottsdalefineart.com,"[[u'Social', u'Arts', u'Art Dealers and Galleries']]"
0,American Fine Art Editions,Scottsdale,85251,3908 N Scottsdale Rd,AZ,us,"[u'Las Villas', u'Downtown']",(480) 990-1200,info@novaro.com,http://www.americanfineartgallery.com,"[[u'Social', u'Arts', u'Art Dealers and Galleries']]"
0,Wee Gallery Of Fine Art,Scottsdale,85251,7010 E Main St,AZ,us,"[u'Las Villas', u'Downtown']",(480) 941-3031,,http://www.weegalleryfineart.com,"[[u'Social', u'Arts', u'Art Dealers and Galleries']]"
0,Leslie Levy Fine Art,Scottsdale,85251,7137 E Main St,AZ,us,"[u'Las Villas', u'Downtown']",(480) 947-2925,leslielevy@leslielevy.com,http://www.leslielevy.com,"[[u'Social', u'Arts', u'Art Dealers and Galleries']]"
0,Alta Mira Fine Art-Arizona,Scottsdale,85251,7038 E Main St,AZ,us,"[u'Las Villas', u'Downtown']",(480) 949-1256,jane@scottsdalefineart.com,http://www.altamiraart.com/,"[[u'Social', u'Arts', u'Art Dealers and Galleries']]"
0,Pejman Fine Arts,Scottsdale,85251,7136 E Main St,AZ,us,"[u'Las Villas', u'Downtown']",(480) 970-1231,,http://www.pejmaneditions.com/,"[[u'Social', u'Arts', u'Art Dealers and Galleries']]"
0,Carsten's Fine Art,Scottsdale,85251,7077 E Main St,AZ,us,"[u'Downtown', u'Las Villas']",(480) 946-3217,,http://www.cyndycarstens.com,"[[u'Social', u'Arts', u'Art Dealers and Galleries']]"
0,Sunmor Fine Art Gallery,Scottsdale,85251,7135 E Main St,AZ,us,"[u'Downtown', u'Las Villas']",(480) 970-3333,,,"[[u'Social', u'Arts', u'Art Dealers and Galleries']]"
0,Mitchell Brown Fine Art,Scottsdale,85251,7144 E Stetson Dr,AZ,us,,(480) 421-9475,,http://www.mitchellbrownfineart.com,"[[u'Social', u'Arts', u'Art Dealers and Galleries']]"
0,Vision Fine Art,Scottsdale,85251,7006 E Main St,AZ,us,"[u'Las Villas', u'Downtown']",(480) 990-1566,,,"[[u'Social', u'Arts', u'Art Dealers and Galleries']]"
0,Cline Fine Art,Scottsdale,85251,4222 N Marshall Way,AZ,us,"[u'Downtown', u'Las Villas']",(480) 941-1811,,http://www.artnet.com/gallery/243/cline-fine-art.html,"[[u'Social', u'Arts', u'Art Dealers and Galleries']]"
0,Trm Fine Art Brokers,Scottsdale,85251,7058 E Main St,AZ,us,"[u'Las Villas', u'Downtown']",(480) 423-1779,,http://www.ostrovskyfineart.com/,"[[u'Social', u'Arts', u'Art Dealers and Galleries']]"
0,Cline Fine Art,Scottsdale,85251,7144 E Stetson Dr,AZ,us,"[u'Downtown', u'Las Villas']",(480) 941-1811,,http://www.artnet.com/cline.html,"[[u'Social', u'Arts', u'Art Dealers and Galleries']]"
0,Ra Fine Art Bijan Bahar,Scottsdale,85251,7133 E Stetson Dr,AZ,us,"[u'Las Villas', u'Downtown']",(480) 421-2010,,http://www.rafinearts.com/,"[[u'Social', u'Arts', u'Art Dealers and Galleries']]"
0,Mystique Fine Art,Scottsdale,85251,7034 E Main St,AZ,us,"[u'Downtown', u'Las Villas']",(480) 994-1967,,,"[[u'Social', u'Arts', u'Art Dealers and Galleries']]"
0,Encompass Fine Arts Newsbooks,Scottsdale,85251,7810 E Coolidge St,AZ,us,,(480) 945-7616,,http://www.askart.com/,"[[u'Social', u'Arts', u'Art Dealers and Galleries']]"
0,Lynne Fine Art,Scottsdale,85251,4223 N Marshall Way,AZ,us,"[u'Downtown', u'Las Villas']",(480) 941-1517,info@lynnefineart.com,http://www.Lynnefineart.com/,"[[u'Social', u'Arts', u'Art Dealers and Galleries']]"
0,5 & 6 Fine Art Space,Scottsdale,85251,4200 N Marshall Way,AZ,us,"[u'Downtown', u'Las Villas']",(602) 332-1054,,,"[[u'Social', u'Arts', u'Art Dealers and Galleries']]"
0,Andre Kohn Fine Art,Scottsdale,85251,7034 E Main St,AZ,us,,(480) 970-4300,,,"[[u'Social', u'Arts', u'Art Dealers and Galleries']]"
0,Ostrovsky Fine Art Gallery,Scottsdale,85251,4200 N Marshall Way,AZ,us,"[u'Las Villas', u'Downtown']",(480) 941-1600,terri@victorostrovsky.com,,"[[u'Social', u'Arts', u'Art Dealers and Galleries']]"
0,Hohn Gallery of Fine Arts,Scottsdale,85251,7140 E Main St,AZ,us,"[u'Las Villas', u'Downtown']",(480) 945-2995,,,"[[u'Social', u'Arts', u'Art Dealers and Galleries']]"
0,Fortune Fine Art Inc.,Scottsdale,85251,7025 E 1st Ave,AZ,us,,(480) 946-1055,,,"[[u'Social', u'Arts', u'Art Dealers and Galleries']]"
0,Jim Klien Fine Art,Scottsdale,85251,7136 E Main St,AZ,us,,(480) 941-3442,,,"[[u'Social', u'Arts', u'Art Dealers and Galleries']]"
0,Fine Art Traditions,Scottsdale,85251,7137 E Main St,AZ,us,,(480) 970-1323,,,"[[u'Social', u'Arts', u'Art Dealers and Galleries']]"
0,Rima Fine Art,Scottsdale,85251,4525 N 66th St,AZ,us,[u'Monterey Arcadia'],(480) 994-1332,,,"[[u'Social', u'Arts', u'Art Dealers and Galleries']]"
0,American Art Collector,Scottsdale,85251,7530 E Main St,AZ,us,"[u'Las Villas', u'Downtown']",(480) 425-0806,service@americanartcollector.com,http://americanartcollector.com,"[[u'Social', u'Arts', u'Art Dealers and Galleries']]"
0,Marshall Arts Gallery,Scottsdale,85251,4168 N Marshall Way,AZ,us,"[u'Las Villas', u'Downtown']",(480) 970-3111,,http://www.marshallartsgallery.com,"[[u'Social', u'Arts', u'Art Dealers and Galleries']]"
0,Marshall Lekae Gallery,Scottsdale,85251,7106 E Main St,AZ,us,,(480) 970-3111,email@marshall-lekaegallery.com,http://www.marshall-lekaegallery.com,"[[u'Social', u'Arts', u'Art Dealers and Galleries']]"
0,Overland Gallery,Scottsdale,85251,7155 E Main St,AZ,us,"[u'Downtown', u'Las Villas']",(480) 947-1934,,http://www.overlandgallery.com,"[[u'Social', u'Arts', u'Art Dealers and Galleries']]"
0,Expressions In Bronze Gallery,Scottsdale,85251,7077 E Main St,AZ,us,"[u'Las Villas', u'Downtown']",(480) 424-7412,scottsdale@expressionsgalleries.com,http://www.expressionsartgalleries.com/go2/arizona-expressions-gallery-scottsdale-western-contemporary-fine-art.cfm,"[[u'Social', u'Arts', u'Art Dealers and Galleries']]"
0,Figarelli Fine Art,Paradise Valley,85253,5534 N Palo Cristi Rd,AZ,us,[u'Village on the Lakes'],(602) 670-8272,,http://figarellifineart.com/,"[[u'Social', u'Arts', u'Art Dealers and Galleries']]"
0,Mitchell Brown Fine Art,Paradise Valley,85253,6314 E Catesby Rd,AZ,us,,(480) 421-9475,,http://www.mitchellbrownfineart.com,"[[u'Social', u'Arts', u'Art Dealers and Galleries']]"
0,Rock Star Gallery,Scottsdale,85254,15220 N Scottsdale Rd,AZ,us,,(480) 275-4501,rockstarinfo@rockstargallery.net,http://www.rockstargallery.net,"[[u'Social', u'Arts', u'Art Dealers and Galleries']]"
0,Arizona Fine Art Expo,Scottsdale,85255,26540 N Scottsdale Rd,AZ,us,[u'Desert Foothills'],(480) 837-7163,judyl@arizonafineartexpo.com,http://www.arizonafineartexpo.com,"[[u'Social', u'Arts', u'Art Dealers and Galleries']]"
0,Costello Childs Contemporary,Scottsdale,85257,2724 N 68th St,AZ,us,[u'Indian Bend'],(480) 949-2701,,http://www.costellochildsart.com,"[[u'Social', u'Arts', u'Art Dealers and Galleries']]"
0,Joan Marcus Fine Art,Scottsdale,85259,11535 N 127th Way,AZ,us,"[u'Shiloh Canyon', u'East Shea']",(480) 451-7892,,http://www.joanmarcusfineart.com,"[[u'Social', u'Arts', u'Art Dealers and Galleries']]"
0,Brio Fine Arts Center,Scottsdale,85260,8340 E Raintree Dr,AZ,us,[u'Sweetwater Ranch'],(480) 941-8310,,http://briofinearts.com/,"[[u'Social', u'Arts', u'Art Dealers and Galleries']]"
0,Fortune Fine Art,Scottsdale,85260,7825 E Redfield Rd,AZ,us,[u'Desert Wind Ii'],(480) 946-1055,inquiry@fortunefa.com,http://www.fortunefa.com/,"[[u'Social', u'Arts', u'Art Dealers and Galleries']]"
0,Estrella Fine Art,Scottsdale,85260,15770 N Greenway Hayden Loop,AZ,us,,(480) 588-5565,,http://www.estrellafineart.com,"[[u'Social', u'Arts', u'Art Dealers and Galleries']]"
0,American Fine Art,Scottsdale,85260,14525 N 79th St,AZ,us,[u'Desert Wind Ii'],(480) 483-0038,,,"[[u'Social', u'Arts', u'Art Dealers and Galleries']]"
0,Niemannhayden Fine Art,Scottsdale,85260,8281 E Evans Rd,AZ,us,[u'Sweetwater Ranch'],(480) 315-1151,,http://www.lissarankin.com/,"[[u'Social', u'Arts', u'Art Dealers and Galleries']]"
0,Zuva Gallery,Scottsdale,85266,34505 N Scottsdale Rd,AZ,us,"[u'Boulders', u'Desert View']",(480) 488-6000,zuva@doitnow.com,http://www.zuvagallery.com,"[[u'Social', u'Arts', u'Art Dealers and Galleries']]"
0,Thunderbird Artists,Fountain Hills,85268,15648 N Eagles Nest Dr,AZ,us,[u'Fountain View'],(480) 837-5637,,http://thunderbirdartists.com/,"[[u'Social', u'Arts', u'Art Dealers and Galleries']]"
0,Niemannhayden Fine Art,Tempe,85281,511 W 6th St,AZ,us,[u'Riverside'],(480) 315-1151,,,"[[u'Social', u'Arts', u'Art Dealers and Galleries']]"
0,Arizona Bronze A Fine Arts Foundry,Tempe,85281,1820 E 3rd St,AZ,us,[u'Alegre Community'],(480) 968-4011,,http://azbronze.com/,"[[u'Social', u'Arts', u'Art Dealers and Galleries']]"
0,Yuma Art Center,Yuma,85364,254 S Main St,AZ,us,[u'Valley View'],(928) 329-6607,director@yumafinearts.org,http://www.yumafinearts.org/,"[[u'Social', u'Arts', u'Art Dealers and Galleries']]"
0,Arbanassi Fine Art Gallery,Carefree,85377,37555 Hum Rd,AZ,us,,(480) 575-7857,,http://www.michaelstoyanovart.com/,"[[u'Social', u'Arts', u'Art Dealers and Galleries']]"
0,John Yaeger Studio Gallery,Carefree,85377,7 Sundial Cir,AZ,us,[u'Desert View'],(480) 970-1111,,http://JOHNYAEGER.COM,"[[u'Social', u'Arts', u'Art Dealers and Galleries']]"
0,West Valley Arts Council,Surprise,85379,13243 N Founders Park Blvd,AZ,us,,(623) 935-6384,,http://www.westvalleyarts.org,"[[u'Social', u'Arts', u'Art Dealers and Galleries']]"
0,Vixen Fine Art Metal Gallery,Bisbee,85603,42 Main St,AZ,us,,(520) 349-9040,vixenmetalartist@gmail.com,http://www.vixenfineartmetalgallery.com/,"[[u'Social', u'Arts', u'Art Dealers and Galleries']]"
0,Wilson Fine Arts,Tumacacori,85640,1970 E Frontage Rd,AZ,us,,(520) 398-0500,,,"[[u'Social', u'Arts', u'Art Dealers and Galleries']]"
0,Purcell Gallery Of Fine Art,Tubac,85646,16 Tubac Rd,AZ,us,,(520) 398-1600,,http://www.purcellgalleries.com,"[[u'Social', u'Arts', u'Art Dealers and Galleries']]"
0,Atlas Fine Art Service,Tucson,85716,2926 E Devon St,AZ,us,[u'El Encanto'],(520) 622-2139,,,"[[u'Social', u'Arts', u'Art Dealers and Galleries']]"
0,Jane Hamilton Fine Art,Tucson,85718,2890 E Skyline Dr,AZ,us,,(520) 529-4886,janehamiltoninfo@comcast.net,http://www.janehamiltonfineart.com,"[[u'Social', u'Arts', u'Art Dealers and Galleries']]"
0,Settlers West Contemporary Fine Art,Tucson,85718,6360 N Campbell Ave,AZ,us,,(520) 323-8838,,http://www.settlerswest.com,"[[u'Social', u'Arts', u'Art Dealers and Galleries']]"
0,Jane Hamilton Fine Art,Tucson,85718,1825 E River Rd,AZ,us,,(520) 529-4886,,http://www.janehamiltonfineart.com,"[[u'Social', u'Arts', u'Art Dealers and Galleries']]"
0,Fine Art Consulting,Tucson,85718,1201 E River Rd,AZ,us,,(520) 327-0213,,,"[[u'Social', u'Arts', u'Art Dealers and Galleries']]"
0,Ena B Jones Fine Art,Tucson,85737,1851 E Pole Star Pl,AZ,us,,(520) 797-0772,,,"[[u'Social', u'Arts', u'Art Dealers and Galleries']]"
0,Allan McIntyre Fine Art,Tucson,85749,8987 E Tanque Verde Rd,AZ,us,,(520) 404-4518,info@allanmcintyrefineart.com,http://www.allanmcintyrefineart.com,"[[u'Social', u'Arts', u'Art Dealers and Galleries']]"
0,Reginald Jones Art,Tucson,85749,2500 N Buttercup Dr,AZ,us,[u'Tanque Verde'],(520) 760-6013,,http://Reginaldjonesart.com,"[[u'Social', u'Arts', u'Art Dealers and Galleries']]"
0,Fine Art by Carol Ann,Tucson,85750,6549 N Calle De La Lluvia,AZ,us,,(520) 299-5983,,,"[[u'Social', u'Arts', u'Art Dealers and Galleries']]"
0,"Flagstaff Piano, Clock & Fine Art Gallery",Flagstaff,86001,304 S Elden St,AZ,us,[u'Cogdill Center'],(928) 526-2900,kevin@themarshallgallery.com,,"[[u'Social', u'Arts', u'Art Dealers and Galleries']]"
0,Ben's Fine Art Gallery,Prescott,86301,212 W Gurley St,AZ,us,[u'Miller Valley'],(928) 420-0704,prescottart@yahoo.com,http://www.bensfineartgallery.com,"[[u'Social', u'Arts', u'Art Dealers and Galleries']]"
0,Ian Russell Gallary-Fine Art,Prescott,86303,218 W Goodwin St,AZ,us,[u'Miller Valley'],(928) 445-7009,,http://ianrussellart.com,"[[u'Social', u'Arts', u'Art Dealers and Galleries']]"
0,Lori Higgins Fine Art Gallery,Prescott,86303,110 S Montezuma St,AZ,us,[u'Miller Valley'],(928) 776-0281,info@lorihiggins.com,http://lhgalleries.com,"[[u'Social', u'Arts', u'Art Dealers and Galleries']]"
0,Ian Russell Gallery of Fine Art,Prescott,86303,130 S Montezuma St,AZ,us,[u'Miller Valley'],(928) 445-7009,gallery@ianrussellart.com,http://ianrussellart.com/,"[[u'Social', u'Arts', u'Art Dealers and Galleries']]"
0,Kaibab Fine Rugs and More,Prescott,86303,218 W Goodwin St,AZ,us,[u'Miller Valley'],(928) 830-0268,,,"[[u'Social', u'Arts', u'Art Dealers and Galleries']]"
0,Javadog Gallery-Fine Art,Cottonwood,86326,1023 N Main St,AZ,us,[u'Clemenceau'],(928) 634-5217,,http://www.javadoggallery.com,"[[u'Social', u'Arts', u'Art Dealers and Galleries']]"
0,Exposures International Gallery of Fine Art,Sedona,86336,561 State Route 179,AZ,us,,(928) 282-1125,sales@exposuresfineart.com,http://www.exposuresfineart.com/,"[[u'Social', u'Arts', u'Art Dealers and Galleries']]"
0,Visions Fine Art,Sedona,86336,101 N State Route,AZ,us,,(928) 203-0022,gallery@visionsfineart.com,http://www.visionsfineart.com,"[[u'Social', u'Arts', u'Art Dealers and Galleries']]"
0,Honshin Fine Art,Sedona,86336,336 State Route 179,AZ,us,,(928) 282-0709,,http://honshin.com,"[[u'Social', u'Arts', u'Art Dealers and Galleries']]"
0,Canyons Gallery,Sedona,86336,120 Alexandria Rd,AZ,us,[u'West Sedona'],(928) 203-0260,,,"[[u'Social', u'Arts', u'Art Dealers and Galleries']]"
0,Gary D's Gllry-Fine Art & Pht,Golden Valley,86413,3659 US Highway 68,AZ,us,,(928) 279-4171,,,"[[u'Social', u'Arts', u'Art Dealers and Galleries']]"
0,Purcell Galleries of Fine Art,Chloride,86431,9827 N 2nd St,AZ,us,,(928) 565-5558,,,"[[u'Social', u'Arts', u'Art Dealers and Galleries']]"
0,Fired Up Clay Studio & Fine Art Gallery,Bullhead City,86442,1595 Mohave Dr,AZ,us,,(855) 311-7423,,,"[[u'Social', u'Arts', u'Art Dealers and Galleries']]"
0,Marble Architect Fine Arts,Los Angeles,90004,137 N Larchmont Blvd,CA,us,"[u'Larchmont', u'Greater Wilshire']",(323) 937-9775,,http://marblearchfinearts.com,"[[u'Social', u'Arts', u'Art Dealers and Galleries']]"
0,Marble Arch Fine Arts,Los Angeles,90004,241 S Rimpau Blvd,CA,us,"[u'Greater Wilshire', u'Larchmont', u'Mid-Wilshire']",(323) 937-9775,,http://www.marblearchfinearts.com,"[[u'Social', u'Arts', u'Art Dealers and Galleries']]"
0,Fine Arts Service,Los Angeles,90004,131 N Arden Blvd,CA,us,"[u'Larchmont', u'Greater Wilshire']",(213) 617-2217,,,"[[u'Social', u'Arts', u'Art Dealers and Galleries']]"
0,Y Lee Fine Arts Gallery,Los Angeles,90005,3440 W 8th St,CA,us,[u'Koreatown'],(213) 388-7277,,,"[[u'Social', u'Arts', u'Art Dealers and Galleries']]"
0,Fine Arts Services,Los Angeles,90012,222 S Figueroa St,CA,us,"[u'Financial District', u'Downtown Los Angeles', u'Historic Core']",(213) 617-2217,,,"[[u'Social', u'Arts', u'Art Dealers and Galleries']]"
0,Pov Evolving,Los Angeles,90012,939 Chung King Rd,CA,us,"[u'Chinatown', u'Historic Core', u'New Chinatown']",(213) 626-0232,info@povevolving.com,http://www.povevolving.com,"[[u'Social', u'Arts', u'Art Dealers and Galleries']]"
0,El Nopal Press Fine Art Publishing,Los Angeles,90013,109 W 5th St,CA,us,"[u'Downtown Los Angeles', u'Historic Core', u'Financial District']",(213) 239-0417,,http://elnopalpress.com,"[[u'Social', u'Arts', u'Art Dealers and Galleries']]"
0,Timothy Yarger Fine Art,Los Angeles,90013,460 S Spring St,CA,us,"[u'Little Tokyo', u'Downtown Los Angeles', u'Historic Core']",,,http://yargerfineart.com,"[[u'Social', u'Arts', u'Art Dealers and Galleries']]"
0,M J Higgins,Los Angeles,90013,244 S Main St,CA,us,"[u'Historic Core', u'Gallery Row', u'Old Bank District']",(213) 617-1700,,http://www.mjhiggins.com/index.html,"[[u'Social', u'Arts', u'Art Dealers and Galleries']]"
0,Edgar Valera Fine Arts,Los Angeles,90014,727 S Spring St,CA,us,"[u'Fashion District', u'Downtown Los Angeles', u'Historic Core']",(213) 604-3634,,http://www.edgarvarela.com,"[[u'Social', u'Arts', u'Art Dealers and Galleries']]"
0,Colosseum Fine Arts,Los Angeles,90014,749 S Broadway,CA,us,"[u'Downtown Los Angeles', u'Fashion District', u'Jewelry District']",(213) 226-6968,,http://colosseumfinearts.com,"[[u'Social', u'Arts', u'Art Dealers and Galleries']]"
0,Cabochon Fine Art Gallery,Los Angeles,90014,818 Wall St,CA,us,,(213) 623-4966,,,"[[u'Social', u'Arts', u'Art Dealers and Galleries']]"
0,Rush Varela Photography,Los Angeles,90014,727 S Spring St,CA,us,"[u'Gallery Row', u'Historic Core', u'Jewelry District']",(310) 210-2746,,,"[[u'Social', u'Arts', u'Art Dealers and Galleries']]"
0,Moore Terrell,Los Angeles,90015,1221 S Hope St,CA,us,"[u'Dowtown Carrier Annex', u'Downtown Los Angeles']",(213) 744-1999,,http://www.terrellmoore.net,"[[u'Social', u'Arts', u'Art Dealers and Galleries']]"
0,Vibrant Fine Art,Los Angeles,90016,3444 Hillcrest Dr,CA,us,,(323) 766-0818,,,"[[u'Social', u'Arts', u'Art Dealers and Galleries']]"
0,Cabochon Fine Art Gallery,Los Angeles,90019,1140 S La Brea Ave,CA,us,"[u'Downtown Los Angeles', u'Fashion District']",(323) 954-9900,,,"[[u'Social', u'Arts', u'Art Dealers and Galleries']]"
0,Fine Art Paintings by Pat,Los Angeles,90019,1144 S Muirfield Rd,CA,us,,(877) 764-9209,info@fineartpaintingsbypat.com,,"[[u'Social', u'Arts', u'Art Dealers and Galleries']]"
0,Fine Art Direct,Los Angeles,90025,2001 S Barrington Ave,CA,us,"[u'West L.A.', u'Sawtelle']",(888) 608-4333,info@fineartdirectonline.com,http://fineartdirectonline.com/index.php,"[[u'Social', u'Arts', u'Art Dealers and Galleries']]"
0,Barry Steinberg Fine Art,Los Angeles,90025,2033 Holmby Ave,CA,us,"[u'Century City', u'Little Persia']",(310) 567-1313,,http://barrysteinbergfineart.com,"[[u'Social', u'Arts', u'Art Dealers and Galleries']]"
0,Odalisque Fine Art,Los Angeles,90025,1532 Armacost Ave,CA,us,,(310) 365-4009,,http://hillarkaplanstudio.com,"[[u'Social', u'Arts', u'Art Dealers and Galleries']]"
0,Fine Arts Conservation,Los Angeles,90027,4949 Hollywood Blvd,CA,us,[u'Little Armenia'],(323) 664-9000,info@fineartsconservationllc.com,http://www.fineartsconservationllc.com/,"[[u'Social', u'Arts', u'Art Dealers and Galleries']]"
0,Mooradian Fine Art,Los Angeles,90027,2617 Hyperion Ave,CA,us,[u'Franklin Hills'],(323) 665-9001,uksupport@shop.com,http://www.mooradianfineart.com,"[[u'Social', u'Arts', u'Art Dealers and Galleries']]"
0,Noah's Ark Fine Art,Los Angeles,90027,2617 Hyperion Ave,CA,us,[u'Franklin Hills'],(323) 665-9001,uksupport@shop.com,http://www.mooradianfineart.com/,"[[u'Social', u'Arts', u'Art Dealers and Galleries']]"
0,Fine Art Collection Inc.,Los Angeles,90028,1600 Taft Ave,CA,us,"[u'Hollywood Studio District', u'Hollywood', u'Santa Western']",(818) 642-9058,,,"[[u'Social', u'Arts', u'Art Dealers and Galleries']]"
0,Da Vinci Fine Arts Gallery,Los Angeles,90029,855 N Vermont Ave,CA,us,[u'East Hollywood'],,,,"[[u'Social', u'Arts', u'Art Dealers and Galleries']]"
0,Maloney Fine Art,Los Angeles,90034,2680 S La Cienega Blvd,CA,us,"[u'McManus', u'Crestview']",(310) 425-8245,michael@maloneyfineart.com,http://www.maloneyfineart.com,"[[u'Social', u'Arts', u'Art Dealers and Galleries']]"
0,A. Maleki Fine Art,Los Angeles,90034,2041 S La Cienega Blvd,CA,us,[u'Crestview'],(310) 272-9156,info@abyes.com,http://galleryartgroup.com/,"[[u'Social', u'Arts', u'Art Dealers and Galleries']]"
0,Jeffrey Winter Fine Arts,Los Angeles,90035,1639 S La Cienega Blvd,CA,us,[u'West Pico'],(310) 657-4278,,http://www.jwfa.us,"[[u'Social', u'Arts', u'Art Dealers and Galleries']]"
0,Jack Rutberg Fine Arts,Los Angeles,90036,357 N La Brea Ave,CA,us,"[u'Melrose District', u'Bicentennial']",(323) 938-5222,jrutberg@jackrutbergfinearts.com,http://www.jackrutbergfinearts.com,"[[u'Social', u'Arts', u'Art Dealers and Galleries']]"
0,Thomas Paul Fine Art,Los Angeles,90036,7270 Beverly Blvd,CA,us,"[u'Fairfax District', u'Bicentennial', u'Mid City West']",(323) 525-0444,,http://www.tpaulfineart.com,"[[u'Social', u'Arts', u'Art Dealers and Galleries']]"
0,Richard Telles Fine Art,Los Angeles,90036,7380 Beverly Blvd,CA,us,"[u'Fairfax District', u'Bicentennial', u'Mid City West']",(323) 965-5578,artscene@artscenecal.com,http://www.tellesfineart.com,"[[u'Social', u'Arts', u'Art Dealers and Galleries']]"
0,Perrell Fine Art,Los Angeles,90036,145 N La Brea Ave,CA,us,"[u'Greater Wilshire', u'Melrose District', u'Farmer Market']",(323) 933-8630,marty@perrellfineart.com,http://www.perrellfineart.com,"[[u'Social', u'Arts', u'Art Dealers and Galleries']]"
0,Double Vision Fine Art Gallery,Los Angeles,90036,5820 Wilshire Blvd,CA,us,"[u'Mid City West', u'Miracle Mile']",(323) 936-1553,,http://www.doublevisionarts.com,"[[u'Social', u'Arts', u'Art Dealers and Galleries']]"
0,Diane Rosenstein Fine Art,Los Angeles,90038,829 N Highland Ave,CA,us,"[u'Hollywood', u'Wilcox', u'Melrose District']",(323) 462-2790,,http://www.dianerosenstein.com/about/,"[[u'Social', u'Arts', u'Art Dealers and Galleries']]"
0,Redling Fine Art,Los Angeles,90038,6757 Santa Monica Blvd,CA,us,"[u'Wilcox', u'Hollywood']",(323) 378-5238,,http://www.redlingfineart.com,"[[u'Social', u'Arts', u'Art Dealers and Galleries']]"
0,Lendrum Fine Art,Los Angeles,90038,717 N Highland Ave,CA,us,"[u'Wilcox', u'Hollywood', u'Melrose District']",(323) 933-5550,info@lendrumfineart.com,http://www.lendrumfineart.com,"[[u'Social', u'Arts', u'Art Dealers and Galleries']]"
0,Verbre Studio & Gallery,Los Angeles,90041,4540 Eagle Rock Blvd,CA,us,[u'Eagle Rock'],(323) 254-8684,,,"[[u'Social', u'Arts', u'Art Dealers and Galleries']]"
0,Art Works,Los Angeles,90042,202 N Avenue 64,CA,us,"[u'Olga', u'Garvanza']",(323) 550-1085,richard@art-works.net,http://www.fineartpublishing.com,"[[u'Social', u'Arts', u'Art Dealers and Galleries']]"
0,Bezel Gallery & Fine Art Brokers,Los Angeles,90043,4434 W Slauson Ave,CA,us,,(323) 298-0034,,,"[[u'Social', u'Arts', u'Art Dealers and Galleries']]"
0,Jeffrey Winter Fine Arts,Los Angeles,90046,8272 Melrose Ave,CA,us,"[u'Fairfax District', u'Crescent']",(310) 657-4278,,http://www.jeffreywinter.com,"[[u'Social', u'Arts', u'Art Dealers and Galleries']]"
0,Kevin Barry,Los Angeles,90046,8210 Melrose Ave,CA,us,"[u'Crescent', u'Fairfax District']",(323) 951-1860,,http://www.kevinbarryfineart.com/,"[[u'Social', u'Arts', u'Art Dealers and Galleries']]"
0,Trigg Ison Fine Art,West Hollywood,90048,9009 Beverly Blvd,CA,us,"[u'WeHo', u'Briggs', u'Crescent']",(310) 274-8047,,http://www.triggison.com,"[[u'Social', u'Arts', u'Art Dealers and Galleries']]"
0,Trigg Ison Fine Art,West Hollywood,90048,511 N Robertson Blvd,CA,us,"[u'Crescent', u'West Hollywood West', u'WeHo']",(310) 274-8047,,http://www.triggison.com,"[[u'Social', u'Arts', u'Art Dealers and Galleries']]"
0,Denenberg Fine Arts,West Hollywood,90048,417 N San Vicente Blvd,CA,us,"[u'West Hollywood West', u'Briggs', u'Fairfax District']",(310) 360-9360,,http://www.artnet.com/gallery/193202/denenberg-fine-arts-inc.html,"[[u'Social', u'Arts', u'Art Dealers and Galleries']]"
0,Barry Steinberg Fine Art,Los Angeles,90048,6310 San Vicente Blvd,CA,us,"[u'Little Ethiopia', u'Carthay Circle']",(323) 931-5551,,http://www.barrysteinbergfineart.com,"[[u'Social', u'Arts', u'Art Dealers and Galleries']]"
0,Drudis-Biada Art Gallery And Fine Arts Building,Los Angeles,90049,12001 Chalon Rd,CA,us,"[u'Westgate Heights', u'Brentwood']",(310) 954-4360,,http://www.msmc.la.edu/undergraduate-bachelor-programs/art/joseacute-drudis-biada-art-gallery.asp,"[[u'Social', u'Arts', u'Art Dealers and Galleries']]"
0,Leslie Sacks Fine Art,Los Angeles,90049,11640 San Vicente Blvd,CA,us,"[u'Rustic Canyon', u'West L.A.']",(310) 820-9448,sandy@lesliesacks.com,http://www.lesliesacks.com,"[[u'Social', u'Arts', u'Art Dealers and Galleries']]"
0,White Raven Fine Art Studios & Gallery,Los Angeles,90065,3423 Verdugo Rd,CA,us,,(626) 437-5638,,,"[[u'Social', u'Arts', u'Art Dealers and Galleries']]"
0,H Kazan Fine Arts,Los Angeles,90066,11456 W Washington Blvd,CA,us,"[u'Del Rey', u'Cypress Grove']",(310) 398-0090,,http://www.hkazanfinearts.com,"[[u'Social', u'Arts', u'Art Dealers and Galleries']]"
0,Tunkl David Fine Art,Los Angeles,90068,1903 Outpost Dr,CA,us,"[u'Hollywood', u'Hollywood Heights']",(323) 634-1919,info@davidtunklfineart.com,http://www.davidtunklfineart.com,"[[u'Social', u'Arts', u'Art Dealers and Galleries']]"
0,MB Fine Art,West Hollywood,90069,612 N Almont Dr,CA,us,"[u'Crescent', u'Norma Triangle', u'WeHo']",(310) 550-0050,info@mbart.com,http://www.mbart.com,"[[u'Social', u'Arts', u'Art Dealers and Galleries']]"
0,Los Angeles Fine Art Gallery,West Hollywood,90069,736 N La Cienega Blvd,CA,us,"[u'WeHo', u'West Hollywood West', u'Tri-West']",(310) 855-2599,info@lafagallery.com,http://www.lafagallery.com,"[[u'Social', u'Arts', u'Art Dealers and Galleries']]"
0,Louis Stern Fine Arts,West Hollywood,90069,9002 Melrose Ave,CA,us,"[u'Briggs', u'Crescent', u'WeHo']",(310) 276-0147,gallery@louisstern.com,http://www.louissternfinearts.com,"[[u'Social', u'Arts', u'Art Dealers and Galleries']]"
0,Hamilton-Selway Fine Art,West Hollywood,90069,8678 Melrose Ave,CA,us,"[u'Fairfax District', u'West Hollywood West', u'Crescent']",(310) 657-1711,info@visitwesthollywood.com,http://www.hamiltonselway.com,"[[u'Social', u'Arts', u'Art Dealers and Galleries']]"
0,Aboriginal Dreamtime Fine Art Gallery,West Hollywood,90069,9011 Melrose Ave,CA,us,"[u'WeHo', u'Crescent', u'Norma Triangle']",(310) 278-4278,info@aboriginaldreamtimegallery.com,http://www.aboriginaldreamtimegallery.com,"[[u'Social', u'Arts', u'Art Dealers and Galleries']]"
0,Jean Marc Gallery of Fine Arts,West Hollywood,90069,906 N La Cienega Blvd,CA,us,"[u'Tri-West', u'WeHo', u'West Hollywood North']",(310) 659-2975,marcmastey@aol.com,http://www.marc-art.com,"[[u'Social', u'Arts', u'Art Dealers and Galleries']]"
0,George Stern Fine Arts,West Hollywood,90069,8920 Melrose Ave,CA,us,"[u'Crescent', u'Briggs', u'Norma Triangle']",(310) 276-2600,gsfa@sternfinearts.com,http://www.sternfinearts.com,"[[u'Social', u'Arts', u'Art Dealers and Galleries']]"
0,Perrell Fine Art,Los Angeles,90069,910 N La Cienega Blvd,CA,us,"[u'Crescent', u'West Hollywood West', u'West Hollywood North']",(323) 933-8630,marty@perrellfineart.com,http://www.perrellfineart.com/,"[[u'Social', u'Arts', u'Art Dealers and Galleries']]"
0,Vista Fine Arts,West Hollywood,90069,963 N La Cienega Blvd,CA,us,"[u'Crescent', u'WeHo', u'West Hollywood West']",(310) 289-9873,vistaart@pacbell.net,http://www.vistafinearts.com,"[[u'Social', u'Arts', u'Art Dealers and Galleries']]"
0,Marek Fine Art,West Hollywood,90069,8678 Melrose Ave,CA,us,,(310) 657-7771,,,"[[u'Social', u'Arts', u'Art Dealers and Galleries']]"
0,Gallery 13 Irish Fine Art,West Hollywood,90069,8302 Melrose Ave,CA,us,"[u'Tri-West', u'Fairfax District', u'Crescent']",(323) 951-0303,,,"[[u'Social', u'Arts', u'Art Dealers and Galleries']]"
0,Lacy Primitive and Fine Art,West Hollywood,90069,1240 Sierra Alta Way,CA,us,[u'Benedict Canyon'],(310) 271-0807,,,"[[u'Social', u'Arts', u'Art Dealers and Galleries']]"
0,Usc Helen Lindhurst Fine Arts,Campo,90089,104 University Park,CA,us,"[u'St. James Park', u'Dockweiler']",(213) 740-2787,,,"[[u'Social', u'Arts', u'Art Dealers and Galleries']]"
0,Timothy Yarger Fine Art,Beverly Hills,90210,354 N Bedford Dr,CA,us,"[u'Westside Village', u'Golden Triangle', u'Century City']",(310) 278-4400,tim@yargerfineart.com,http://www.yargerfineart.com,"[[u'Social', u'Arts', u'Art Dealers and Galleries']]"
0,David Tunkl Fine Art,Beverly Hills,90210,9615 Brighton Way,CA,us,"[u'Golden Triangle', u'Century City', u'Westside Village']",(310) 288-0128,,http://www.davidtunklfineart.com/,"[[u'Social', u'Arts', u'Art Dealers and Galleries']]"
0,Denis Bloch Fine Arts,Beverly Hills,90210,9626 Brighton Way,CA,us,"[u'Century City', u'Westside Village', u'Golden Triangle']",(310) 270-4880,info@denisbloch.com,http://www.denisbloch.com,"[[u'Social', u'Arts', u'Art Dealers and Galleries']]"
0,William A Karges Fine Arts,Beverly Hills,90210,427 N Canon Dr,CA,us,"[u'Rodeo Drive', u'Golden Triangle', u'Century City']",(310) 276-8551,wganz@kargesfineart.com,http://www.kargesfineart.com,"[[u'Social', u'Arts', u'Art Dealers and Galleries']]"
0,Timothy Yarger Fine Art,Beverly Hills,90210,329 N Beverly Dr,CA,us,"[u'Century City', u'Golden Triangle', u'Rodeo Drive']",(310) 278-4400,info@yargerfineart.com,http://www.yargerfineart.com/,"[[u'Social', u'Arts', u'Art Dealers and Galleries']]"
0,Diane Rosenstein Fine Art,Beverly Hills,90210,9399 Wilshire Blvd,CA,us,"[u'Golden Triangle', u'Rodeo Drive', u'West Hollywood West']",(323) 397-9225,,http://www.​dianerosenstein.​com/​about/,"[[u'Social', u'Arts', u'Art Dealers and Galleries']]"
0,Dawson Cole Fine Art,Beverly Hills,90210,313 N Beverly Dr,CA,us,"[u'Golden Triangle', u'Westside Village', u'Century City']",(310) 275-6060,,http://www.artscenecal.com,"[[u'Social', u'Arts', u'Art Dealers and Galleries']]"
0,Denis Bloch Fine Arts,Beverly Hills,90210,9876 Wilshire Blvd,CA,us,"[u'Westside Village', u'Golden Triangle', u'Century City']",(310) 270-4880,,http://www.denisbloch.com,"[[u'Social', u'Arts', u'Art Dealers and Galleries']]"
0,Christie's Fine ART Auctioneers,Beverly Hills,90210,342 N Rodeo Dr,CA,us,"[u'Westside Village', u'Century City', u'Rodeo Drive']",(310) 275-5534,,,"[[u'Social', u'Arts', u'Art Dealers and Galleries']]"
0,Deborah Hadl Fine Art,Beverly Hills,90210,200 N Elm Dr,CA,us,"[u'West Hollywood West', u'South Carthay', u'Rodeo Drive']",(310) 278-9494,,,"[[u'Social', u'Arts', u'Art Dealers and Galleries']]"
0,Anderson Galleries,Beverly Hills,90210,354 N Bedford Dr,CA,us,"[u'Century City', u'Westside Village', u'Golden Triangle']",(310) 858-1644,info@andersongalleries.com,http://www.andersongalleries.com,"[[u'Social', u'Arts', u'Art Dealers and Galleries']]"
0,Carol Lawrence Galleries,Beverly Hills,90210,244 N Beverly Dr,CA,us,"[u'Century City', u'Rodeo Drive', u'Golden Triangle']",(310) 274-5600,,http://www.art90210.com,"[[u'Social', u'Arts', u'Art Dealers and Galleries']]"
0,Robert Bane Editions,Beverly Hills,90210,1120 Shadow Hill Way,CA,us,[u'Beverly Crest'],(310) 205-0555,rbane@robertbane.com,http://robertbanefineart.com,"[[u'Social', u'Arts', u'Art Dealers and Galleries']]"
0,Gonzalez Fine Art Gallery,Beverly Hills,90211,157 N La Cienega Blvd,CA,us,"[u'Miracle Mile', u'Fairfax District', u'Briggs']",(310) 855-2701,,,"[[u'Social', u'Arts', u'Art Dealers and Galleries']]"
0,Karl Hutter Fine Art,Beverly Hills,90212,9895 Santa Monica Blvd,CA,us,"[u'Century City', u'Golden Triangle', u'Westside Village']",(310) 843-0007,info@khfineart.com,http://www.khfineart.com,"[[u'Social', u'Arts', u'Art Dealers and Galleries']]"
0,Marc Selwyn Fine Art,Beverly Hills,90212,9953 Santa Monica Blvd,CA,us,"[u'Century City', u'Golden Triangle', u'Westside Village']",(310) 277-9953,info@marcselwynfineart.com,http://www.marcselwynfineart.com,"[[u'Social', u'Arts', u'Art Dealers and Galleries']]"
0,Spencer Jon Helfen Fine Arts,Beverly Hills,90212,9200 W Olympic Blvd,CA,us,"[u'Preuss', u'South Carthay']",(310) 273-8838,finconnec@aol.com,http://www.helfenfinearts.com,"[[u'Social', u'Arts', u'Art Dealers and Galleries']]"
0,Billy Shire Fine Arts,Culver City,90232,5790 Washington Blvd,CA,us,"[u'West Adams', u'Sentous', u'McManus']",(323) 297-0600,,http://www.billyshirefinearts.com,"[[u'Social', u'Arts', u'Art Dealers and Galleries']]"
0,Marco Fine Arts,El Segundo,90245,201 Nevada St,CA,us,[u'Aviation Corridor'],(310) 615-1818,al.marco@marcofinearts.com,http://marcofinearts.com/,"[[u'Social', u'Arts', u'Art Dealers and Galleries']]"
0,Fine Art Gallery,Hawthorne,90250,3348 W El Segundo Blvd,CA,us,[u'Hollypark'],(310) 644-1678,,,"[[u'Social', u'Arts', u'Art Dealers and Galleries']]"
0,Margam Fine Art & Tucker Art International,Malibu,90265,23805 Stuart Ranch Rd,CA,us,,(310) 456-2243,,,"[[u'Social', u'Arts', u'Art Dealers and Galleries']]"
0,Fine Art Matters,Malibu,90265,29500 Heathercliff Rd,CA,us,[u'Mahou Riviera'],(310) 457-5862,trish@fineartmatters.com,http://fineartmatters.com,"[[u'Social', u'Arts', u'Art Dealers and Galleries']]"
0,O'Neill's Fine Art,Pacific Palisades,90272,15119 W Sunset Blvd,CA,us,,(310) 459-1030,gallery@tamoneillfinearts.com,http://www.oneillsfineart.com/,"[[u'Social', u'Arts', u'Art Dealers and Galleries']]"
0,Dolores Garren Fine Art,Rancho Palos Verdes,90275,2039 Van Karajan Dr,CA,us,[u'Miraleste'],(310) 833-6652,,http://doloresgarren.com,"[[u'Social', u'Arts', u'Art Dealers and Galleries']]"
0,Ego fine art,Redondo Beach,90277,604 N Francisca Ave,CA,us,,(424) 206-3756,,,"[[u'Social', u'Arts', u'Art Dealers and Galleries']]"
0,Howell-Green Fine Art Gallery,Topanga,90290,120 N Topanga Canyon Blvd,CA,us,,(310) 455-3991,,http://www.howellgreen.com,"[[u'Social', u'Arts', u'Art Dealers and Galleries']]"
0,Diana Hobson Fine Art,Venice,90291,1316 Abbot Kinney Blvd,CA,us,,(310) 779-9512,,http://www.dianahobsonfineart.com/,"[[u'Social', u'Arts', u'Art Dealers and Galleries']]"
0,Marina Fine Arts,Marina Del Rey,90292,4716 Admiralty Way,CA,us,"[u'Del Rey', u'Alla', u'Playa Vista']",(310) 305-7678,sales@satava.com,http://www.satava.com,"[[u'Social', u'Arts', u'Art Dealers and Galleries']]"
0,Marchese Fine Art GAllery,Marina Del Rey,90292,13763 Fiji Way,CA,us,"[u'Playa Del Rey', u'Machado']",(310) 306-0697,,http://www.marchesefineart.com,"[[u'Social', u'Arts', u'Art Dealers and Galleries']]"
0,Tom Binder Fine Arts,Marina Del Rey,90292,4027 Lincoln Blvd,CA,us,"[u'Machado', u'Venice']",(310) 822-1080,,http://www.artman.net,"[[u'Social', u'Arts', u'Art Dealers and Galleries']]"
0,Tom Binder Fine Arts,Santa Monica,90401,825 Wilshire Blvd,CA,us,"[u'Montana', u'Westgate', u'Brentwood Park']",(800) 332-4278,info@artman.net,http://www.artman.net/,"[[u'Social', u'Arts', u'Art Dealers and Galleries']]"
0,Terrence Rogers Fine Art,Santa Monica,90401,1231 5th St,CA,us,"[u'Westgate', u'Brentwood Park', u'Montana']",(310) 394-4999,info@trogart.com,,"[[u'Social', u'Arts', u'Art Dealers and Galleries']]"
0,David Jacobs Atelier,Santa Monica,90402,201 Entrada Dr,CA,us,,(310) 573-1410,,,"[[u'Social', u'Arts', u'Art Dealers and Galleries']]"
0,William A. Karges Fine Art,Santa Monica,90404,2525 Michigan Ave,CA,us,,(310) 276-8551,wganz@kargesfineart.com,http://www.kargesfineart.com/,"[[u'Social', u'Arts', u'Art Dealers and Galleries']]"
0,Evert Fine Art,Santa Monica,90404,2461 Santa Monica Blvd,CA,us,"[u'West L.A.', u'Mid City', u'Westgate']",(310) 593-4421,patty@evertfineart.com,http://evertfineart.com/,"[[u'Social', u'Arts', u'Art Dealers and Galleries']]"
0,Kevin Barry Fine Art Associa,Santa Monica,90404,2525 Michigan Ave,CA,us,"[u'Sawtelle', u'West L.A.', u'Pico']",(310) 264-7777,,,"[[u'Social', u'Arts', u'Art Dealers and Galleries']]"
0,Greenfield Sacks Gallery,Santa Monica,90404,2525 Michigan Ave,CA,us,"[u'Sawtelle', u'West L.A.', u'Pico']",(310) 264-0640,info@greenfieldsacks.com,http://www.greenfieldsacks.com,"[[u'Social', u'Arts', u'Art Dealers and Galleries']]"
0,Lora Schlesinger Gallery,Santa Monica,90404,2525 Michigan Ave,CA,us,"[u'Pico', u'Sawtelle', u'West L.A.']",(310) 828-1133,gallery@loraschlesinger.com,http://www.loraschlesinger.com,"[[u'Social', u'Arts', u'Art Dealers and Galleries']]"
0,Ikon,Santa Monica,90404,2525 Michigan Ave,CA,us,"[u'Sawtelle', u'West L.A.', u'Pico']",(310) 828-6629,,http://www.ikonltd.com,"[[u'Social', u'Arts', u'Art Dealers and Galleries']]"
0,Mc Caw Fine Art,Torrance,90501,1269 Sartori Ave,CA,us,"[u'Harbor Gateway South', u'East Torrance']",(310) 328-7366,,,"[[u'Social', u'Arts', u'Art Dealers and Galleries']]"
0,Joslyn Fine Arts Center,Torrance,90503,3320 Civic Center Dr N,CA,us,,(310) 618-6340,torranceartmuseum@torranceca.gov,http://www.torranceartmuseum.com/,"[[u'Social', u'Arts', u'Art Dealers and Galleries']]"
0,Solas Fine Art Gallery,Torrance,90505,4425 Pacific Coast Hwy,CA,us,,(310) 691-3877,,,"[[u'Social', u'Arts', u'Art Dealers and Galleries']]"
0,Faegre Fine Art,La Habra,90631,120 E La Habra Blvd,CA,us,[u'Des Moines'],(562) 694-2585,,http://faegrefineart.com,"[[u'Social', u'Arts', u'Art Dealers and Galleries']]"
0,Ruth Mayer Fine Arts,Avalon,90704,116 Sumner Ave,CA,us,,(310) 510-8318,,http://www.ruthmayer.com/,"[[u'Social', u'Arts', u'Art Dealers and Galleries']]"
0,Deru's Fine Arts,Bellflower,90706,9100 Artesia Blvd,CA,us,,(562) 920-1312,dewitt@derusfinearts.com,http://www.derusfinearts.com,"[[u'Social', u'Arts', u'Art Dealers and Galleries']]"
0,Bits O' Gold Fine Arts & Animal Communications,San Pedro,90732,2275 W 25th St,CA,us,[u'San Pedro Hill'],(310) 831-3789,,http://www.janetgoldmanmerrill.com/,"[[u'Social', u'Arts', u'Art Dealers and Galleries']]"
0,Functional Fine Art,Signal Hill,90755,1653 E 28th St,CA,us,,(562) 424-9711,,http://functionalfineart.com,"[[u'Social', u'Arts', u'Art Dealers and Galleries']]"
0,Flash Gallery-Events & Parties,Signal Hill,90755,2667 E 28th St,CA,us,,(562) 377-3050,,http://www.flashgallery.us,"[[u'Social', u'Arts', u'Art Dealers and Galleries']]"
0,Belsito Roche Fine Art Gallery,Long Beach,90802,1734 E Broadway,CA,us,"[u'Rose Park', u'Alamitos Beach']",(562) 432-7799,belsitorochegallery@yahoo.com,,"[[u'Social', u'Arts', u'Art Dealers and Galleries']]"
0,Belsito Roche Fine Art Gallery,Long Beach,90803,2238 E Broadway,CA,us,"[u'Rose Park', u'Alamitos Beach']",(562) 433-4500,,http://www.thefilmmakersgallery.com/,"[[u'Social', u'Arts', u'Art Dealers and Galleries']]"
0,Lorraine Peigne Fine Art,Long Beach,90807,1228 E 36th St,CA,us,[u'Bixby Knolls'],(562) 243-0223,,,"[[u'Social', u'Arts', u'Art Dealers and Galleries']]"
0,Aubergine Fine Art Gallery,La Canada Flintridge,91011,1420 Foothill Blvd,CA,us,"[u'Sparr Heights', u'Montrose']",(818) 952-2981,,,"[[u'Social', u'Arts', u'Art Dealers and Galleries']]"
0,Segil Fine Art Source,Monrovia,91016,110 W Lime Ave,CA,us,[u'Old Town'],(626) 358-5563,fscott777@aol.com,http://www.segilfineart.com,"[[u'Social', u'Arts', u'Art Dealers and Galleries']]"
0,Marsha Ubovich Fine Artist,Monrovia,91016,622 W Maple Ave,CA,us,,(626) 429-7753,,http://www.marshaartist.net/,"[[u'Social', u'Arts', u'Art Dealers and Galleries']]"
0,C S Fine Art,Montrose,91020,2623 Honolulu Ave,CA,us,"[u'Sparr Heights', u'La Crescenta']",(818) 248-5129,,,"[[u'Social', u'Arts', u'Art Dealers and Galleries']]"
0,Michael Hollis Fine Art,South Pasadena,91030,238 Pasadena Ave,CA,us,"[u'Olga', u'Monterey Hills']",(626) 441-4333,,http://www.hollisfineart.com,"[[u'Social', u'Arts', u'Art Dealers and Galleries']]"
0,Adriak Lipson Fine Art Gallery,South Pasadena,91030,602 Garfield Ave,CA,us,,(626) 799-1880,olecja@aol.com,,"[[u'Social', u'Arts', u'Art Dealers and Galleries']]"
0,Aarnun Gallery Fine Picture Framing,Pasadena,91101,603 E Green St,CA,us,"[u'Downtown', u'East Pasadena']",(626) 793-4805,info@aarnungallery.com,http://www.aarnungallery.com,"[[u'Social', u'Arts', u'Art Dealers and Galleries']]"
0,American Legacy Fine Arts,Pasadena,91103,949 Linda Vista Ave,CA,us,"[u'North Arroyo', u'Eagle Rock']",(626) 577-7733,info@americanlegacyfinearts.com,http://www.americanlegacyfinearts.com,"[[u'Social', u'Arts', u'Art Dealers and Galleries']]"
0,Michael Hollis Fine Art,Pasadena,91104,1615 N Lake Ave,CA,us,,(626) 441-4333,,,"[[u'Social', u'Arts', u'Art Dealers and Galleries']]"
0,Shain Danny Fine Art,Pasadena,91104,1172 E Washington Blvd,CA,us,[u'East Central'],(626) 791-4554,,,"[[u'Social', u'Arts', u'Art Dealers and Galleries']]"
0,Tirage Art Gallery,Pasadena,91105,1 W California Blvd,CA,us,[u'South Arroyo'],(626) 405-1020,art@tirageart.com,http://www.tirageart.com,"[[u'Social', u'Arts', u'Art Dealers and Galleries']]"
0,Willardson & Associates,Glendale,91203,103 W California Ave,CA,us,"[u'Downtown Glendale', u'West Glendale', u'Atwater Village']",(818) 242-5688,,,"[[u'Social', u'Arts', u'Art Dealers and Galleries']]"
0,Margam Fine Art,Agoura Hills,91301,28720 Roadside Dr,CA,us,[u'Malibu Junction'],(818) 991-4501,,http://margamfineart.ambz.com,"[[u'Social', u'Arts', u'Art Dealers and Galleries']]"
0,Lidya's Fine Art Classes,Santa Clarita,91321,24626 Kansas St,CA,us,"[u'Newhall', u'Vista Valencia']",(661) 600-5842,lidyasfineartclasses@gmail.com,http://lidyaart.com/art-class.html,"[[u'Social', u'Arts', u'Art Dealers and Galleries']]"
0,Gallery Josephs Fine Arts,Santa Clarita,91351,18346 Soledad Canyon Rd,CA,us,,(661) 298-2038,,,"[[u'Social', u'Arts', u'Art Dealers and Galleries']]"
0,Mission Renaissance Fine Art,Valencia,91355,27051 McBean Pkwy,CA,us,,(661) 253-9911,info@fineartclasses.ca,http://www.fineartclasses.com/,"[[u'Social', u'Arts', u'Art Dealers and Galleries']]"
0,Fine Art And Soul,Valencia,91355,28271 Newhall Ranch Rd,CA,us,[u'North Valencia'],(661) 775-4900,,http://www.fineartandsoul.com,"[[u'Social', u'Arts', u'Art Dealers and Galleries']]"
0,William Rolland Gallery of Fine Art,Thousand Oaks,91360,160 Overton Ct,CA,us,[u'Northoaks'],(805) 493-3697,,http://www.callutheran.edu/rolland/,"[[u'Social', u'Arts', u'Art Dealers and Galleries']]"
0,Studio Fine Art,Westlake Village,91361,30941 Agoura Rd,CA,us,[u'Hidden Canyon'],(818) 889-2000,enquiries@thestudiofineart.com,http://www.studiofineart.com,"[[u'Social', u'Arts', u'Art Dealers and Galleries']]"
0,Newcastle Fine Art,Westlake Village,91362,5655 Lindero Canyon Rd,CA,us,,(818) 707-2626,,,"[[u'Social', u'Arts', u'Art Dealers and Galleries']]"
0,Fine Arts,Woodland Hills,91367,22650 Victory Blvd,CA,us,,(818) 340-1155,,,"[[u'Social', u'Arts', u'Art Dealers and Galleries']]"
0,Clark Cierlak Fine Arts,Van Nuys,91411,14931 Califa St,CA,us,,(818) 783-3052,,http://estateauctionservice.com,"[[u'Social', u'Arts', u'Art Dealers and Galleries']]"
0,Sunny Meyer Fine Art,Van Nuys,91411,5658 Columbus Ave,CA,us,[u'West Van Nuys Lake Balbos'],(818) 985-6630,info@oldart.com,http://www.oldart.com/,"[[u'Social', u'Arts', u'Art Dealers and Galleries']]"
0,Solomon Fima Fine Art,Sherman Oaks,91423,4930 Greenbush Ave,CA,us,,(818) 501-6111,,http://solomonfimafineart.com,"[[u'Social', u'Arts', u'Art Dealers and Galleries']]"
0,Clark Cierlak Fine Arts,Sherman Oaks,91423,14452 Ventura Blvd,CA,us,,(818) 783-3052,,http://www.estateauctionservice.com/,"[[u'Social', u'Arts', u'Art Dealers and Galleries']]"
0,Biija Fine Art,North Hollywood,91601,5355 Cartwright Ave,CA,us,[u'La Paco'],(323) 393-3586,,http://www.biijafineart.com/,"[[u'Social', u'Arts', u'Art Dealers and Galleries']]"
0,Vista Fine Arts,North Hollywood,91605,13158 Leadwell St,CA,us,[u'North Hollywood West'],(818) 255-5569,,http://www.vistafinearts.com,"[[u'Social', u'Arts', u'Art Dealers and Galleries']]"
0,Bittan Fine Art,Valley Village,91607,12636 Miranda St,CA,us,"[u'Garnsey', u'Valley Glen']",(818) 501-4091,,http://www.bittanfineart.com/,"[[u'Social', u'Arts', u'Art Dealers and Galleries']]"
0,Claremont Fine Arts,Claremont,91711,206 Yale Ave,CA,us,[u'North Pomona'],(909) 624-5078,rossf@citylimits.com,http://www.claremontfinearts.com,"[[u'Social', u'Arts', u'Art Dealers and Galleries']]"
0,Professional Fine Art Services,Monterey Park,91754,1455 Monterey Pass Rd,CA,us,[u'Maravilla'],(323) 266-6618,carlosg@professionalfineartservices.com,http://www.professionalfineartservices.com,"[[u'Social', u'Arts', u'Art Dealers and Galleries']]"
0,Diamond Bar Fine Art & Framing,Diamond Bar,91765,3207 S Brea Canyon Rd,CA,us,[u'Otterbein'],(909) 444-8325,,http://dbfineart.homestead.com,"[[u'Social', u'Arts', u'Art Dealers and Galleries']]"
0,Pearson Design Fine Arts,San Dimas,91773,615 W Covina Blvd,CA,us,[u'Charter Oak'],(909) 394-0857,,,"[[u'Social', u'Arts', u'Art Dealers and Galleries']]"
0,San Gabriel Fine Arts Association,San Gabriel,91776,320 S Mission Dr,CA,us,"[u'Wilmar', u'East San Gabriel', u'Mission District']",(626) 282-1448,,http://sgfaa.clubexpress.com,"[[u'Social', u'Arts', u'Art Dealers and Galleries']]"
0,Rabi's International Fine Art & Antiques,Temple City,91780,9158 Las Tunas Dr,CA,us,[u'East San Gabriel'],(626) 200-6871,,http://www.yuanlongtang.com/,"[[u'Social', u'Arts', u'Art Dealers and Galleries']]"
0,Zan's Fine Art Gallery,Temple City,91780,9661 Las Tunas Dr,CA,us,[u'East San Gabriel'],(626) 451-0677,,,"[[u'Social', u'Arts', u'Art Dealers and Galleries']]"
0,Moseley Fine Art Gallery,Carlsbad,92008,300 Carlsbad Village Dr,CA,us,[u'Village by the Sea'],(760) 720-0445,,,"[[u'Social', u'Arts', u'Art Dealers and Galleries']]"
0,Santos Fine Art Galleries,Encinitas,92024,978 N Coast Highway 101,CA,us,[u'Coral Cove'],(760) 633-1644,santosfineartgalleries@hotmail.com,http://www.santosfineartgalleries.com,"[[u'Social', u'Arts', u'Art Dealers and Galleries']]"
0,Michael Johnson Fine Arts,Fallbrook,92028,914 De Luz Rd,CA,us,,(760) 731-0189,,http://www.michaeljohnsonfinearts.com,"[[u'Social', u'Arts', u'Art Dealers and Galleries']]"
0,Robert Ferguson Fine Art,Escondido,92029,1291 Simpson Way,CA,us,,(858) 705-0814,,http://www.fergusonart.com/,"[[u'Social', u'Arts', u'Art Dealers and Galleries']]"
0,Stephen Fishwick's Fine Art Collection,Escondido,92029,1205 Auto Park Way,CA,us,,(442) 999-5444,,http://www.stephenfishwick.com,"[[u'Social', u'Arts', u'Art Dealers and Galleries']]"
0,Peerless Fine Art,La Jolla,92037,1273 Prospect St,CA,us,[u'Bella Capri'],(858) 459-0065,chris@peerlessfineart.com,http://www.peerlessfineart.com/,"[[u'Social', u'Arts', u'Art Dealers and Galleries']]"
0,Cosmopolitan Fine Arts,La Jolla,92037,7932 Girard Ave,CA,us,"[u'Draper Villas', u'Bella Capri']",(858) 456-9506,info@cosmopolitanart.com,http://www.cosmopolitanart.com,"[[u'Social', u'Arts', u'Art Dealers and Galleries']]"
0,Contemporary Fine Arts Gallery,La Jolla,92037,7946 Ivanhoe Ave,CA,us,[u'Bella Capri'],(858) 551-2010,preimnitz@sdtg.com,http://www.contemporaryfineartsgallery.com,"[[u'Social', u'Arts', u'Art Dealers and Galleries']]"
0,Prospect Place Fine Art,La Jolla,92037,1268 Prospect St,CA,us,[u'Bella Capri'],(858) 459-1978,prospectplace55@hotmail.com,http://www.prospectplacefineart.com,"[[u'Social', u'Arts', u'Art Dealers and Galleries']]"
0,Fiore Del Mare-Fine Art Gallery,La Jolla,92037,1295 Prospect St,CA,us,[u'Bella Capri'],(858) 551-7559,jcsunshine@mac.com,http://www.fioredelmare.com,"[[u'Social', u'Arts', u'Art Dealers and Galleries']]"
0,Kelmanortiz Fine Frames,La Jolla,92037,7723 Fay Ave,CA,us,[u'Bella Capri'],(858) 459-6800,info@knathangallery.com,http://www.kelmanortiz.com,"[[u'Social', u'Arts', u'Art Dealers and Galleries']]"
0,Siamak Art Gallery,La Jolla,92037,1237 Prospect St,CA,us,[u'Bella Capri'],(858) 459-2599,address@www.siamakart.com,http://www.siamakart.com,"[[u'Social', u'Arts', u'Art Dealers and Galleries']]"
0,SALAZAR Contemporart Art Exhibits,La Jolla,92037,1162 Prospect St,CA,us,[u'Bella Capri'],(858) 551-8453,,http://www.salazarcontemporaryartexhibits.com/,"[[u'Social', u'Arts', u'Art Dealers and Galleries']]"
0,Monarch Gallery,La Jolla,92037,1205 Prospect St,CA,us,[u'Bella Capri'],(858) 454-1231,info@monarchfineart.com,http://www.monarchfineart.com,"[[u'Social', u'Arts', u'Art Dealers and Galleries']]"
0,Peter Lik Gallery,La Jolla,92037,1205 Prospect St,CA,us,[u'Bella Capri'],(858) 200-0990,collectart@lik.com,http://www.lik.com,"[[u'Social', u'Arts', u'Art Dealers and Galleries']]"
0,Madison Gallery,La Jolla,92037,1020 Prospect St,CA,us,"[u'Bella Capri', u'Draper Villas']",(858) 459-0836,info@madisongalleries.com,http://www.madisongalleries.com,"[[u'Social', u'Arts', u'Art Dealers and Galleries']]"
0,Hallmark Galleries,La Jolla,92037,1162 Prospect St,CA,us,[u'Bella Capri'],(858) 551-8108,,http://www.hallmarkgallery.com,"[[u'Social', u'Arts', u'Art Dealers and Galleries']]"
0,Susan Street Fine Art,Solana Beach,92075,200 N Cedros Ave,CA,us,[u'North Rios'],(858) 793-4442,gallery@susanstreetfineart.com,http://www.susanstreetfineart.com,"[[u'Social', u'Arts', u'Art Dealers and Galleries']]"
0,Susan Street Fine Art Gallery,Solana Beach,92075,415 S Cedros Ave,CA,us,[u'North Rios'],(858) 793-4442,gallery@susanstreetfineart.com,http://www.susanstreetfineart.com,"[[u'Social', u'Arts', u'Art Dealers and Galleries']]"
0,Journeys West Art Gallery,Solana Beach,92075,346 S Cedros Ave,CA,us,"[u'North Rios', u'Del Mar Heights']",(858) 337-9929,caroline@water-lotus.com,,"[[u'Social', u'Arts', u'Art Dealers and Galleries']]"
0,Michael J Wolf Fine Arts Gallery,San Diego,92101,363 5th Ave,CA,us,"[u'Horton', u'Central San Diego', u'Gaslamp']",(619) 702-5388,contact@mjwfinearts.com,http://mjwfinearts.com,"[[u'Social', u'Arts', u'Art Dealers and Galleries']]"
0,Noel Baza Fine Art,San Diego,92101,2165 India St,CA,us,"[u'Central San Diego', u'Little Italy']",(619) 876-4160,,http://www.noel-bazafineart.com/Noel-Baza_Fine_Art___India_Street_Gallery/Home.html,"[[u'Social', u'Arts', u'Art Dealers and Galleries']]"
0,Alexander Salazar Fine Arts,San Diego,92101,1040 7th Ave,CA,us,"[u'Samuel Fox Lofts', u'Central San Diego', u'Gaslamp']",(619) 531-8988,,http://www.alexandersalazarfineart.com/,"[[u'Social', u'Arts', u'Art Dealers and Galleries']]"
0,J Dewers Fine Art Services,San Diego,92101,715 8th Ave,CA,us,"[u'Central San Diego', u'Core', u'Gaslamp']",(619) 233-5888,janos@jdewers.com,http://www.jdewers.com,"[[u'Social', u'Arts', u'Art Dealers and Galleries']]"
0,Celebration Fine Art,San Diego,92101,326 Broadway,CA,us,"[u'Gaslamp', u'Central San Diego', u'Downtown']",(619) 238-9111,gallery@celebrationfineart.com,http://www.celebrationfineart.com,"[[u'Social', u'Arts', u'Art Dealers and Galleries']]"
0,Perry L Meyer Fine Art,San Diego,92101,2400 Kettner Blvd,CA,us,"[u'Central San Diego', u'Harborview', u'W Laurel Studios']",(619) 358-9512,,http://www.plmeyerfineart.com,"[[u'Social', u'Arts', u'Art Dealers and Galleries']]"
0,JDC Fine Art,San Diego,92101,2400 Kettner Blvd,CA,us,"[u'Harborview', u'W Laurel Studios', u'Little Italy']",(619) 985-2322,,http://www.jdcfineart.com,"[[u'Social', u'Arts', u'Art Dealers and Galleries']]"
0,Quest Fine Art,San Diego,92101,1501 India St,CA,us,"[u'Little Italy', u'Downtown', u'Central San Diego']",(619) 702-7695,,,"[[u'Social', u'Arts', u'Art Dealers and Galleries']]"
0,Siamak Art Gallery,San Diego,92101,562 5th Ave,CA,us,"[u'Horton', u'Gaslamp', u'Central San Diego']",(619) 238-5335,,http://www.siamakart.com,"[[u'Social', u'Arts', u'Art Dealers and Galleries']]"
0,Lumina Gallery,San Diego,92101,1601 Kettner Blvd,CA,us,"[u'Central San Diego', u'Gaslamp', u'Little Italy']",(619) 231-3432,,,"[[u'Social', u'Arts', u'Art Dealers and Galleries']]"
0,Mee Shim,San Diego,92101,1943 India St,CA,us,"[u'Gaslamp', u'Little Italy', u'Central San Diego']",(619) 405-9456,,http://www.meekyungshim.com/,"[[u'Social', u'Arts', u'Art Dealers and Galleries']]"
0,Ronis & Associates Fine Art,San Diego,92102,1946 Broadway,CA,us,"[u'Sherman Heights', u'Gaslamp', u'Central San Diego']",(619) 232-1266,,,"[[u'Social', u'Arts', u'Art Dealers and Galleries']]"
0,The San Diego Fine Art Society,San Diego,92106,2825 Dewey Rd,CA,us,"[u'Liberty Station', u'Western San Diego', u'Riviera Villas']",(619) 702-9468,,http://www.sdws.org/,"[[u'Social', u'Arts', u'Art Dealers and Galleries']]"
0,San Diego Fine Art Society,San Diego,92113,1955 Julian Ave,CA,us,"[u'Sherman Heights', u'Logan Heights', u'Central San Diego']",(619) 702-9468,,,"[[u'Social', u'Arts', u'Art Dealers and Galleries']]"
0,Art Expressions Gallery,San Diego,92117,2645 Financial Ct,CA,us,"[u'Bay Ho', u'Northern San Diego']",(858) 270-7577,smith@artexpressionsgallery.com,,"[[u'Social', u'Arts', u'Art Dealers and Galleries']]"
0,Van Cleve Fine Art,San Diego,92120,2171 India St,CA,us,,(619) 501-4718,,http://vcfineart.com,"[[u'Social', u'Arts', u'Art Dealers and Galleries']]"
0,Provenance Fine Art,San Diego,92126,9235 Trade Pl,CA,us,[u'Northeastern San Diego'],(858) 689-2000,,http://www.artistmarkking.com/,"[[u'Social', u'Arts', u'Art Dealers and Galleries']]"
0,Phillips Peter Fine Art Service,San Diego,92126,7955 Dunbrook Rd,CA,us,"[u'Mira Mesa', u'Northeastern San Diego', u'Miramar']",(760) 510-1073,,,"[[u'Social', u'Arts', u'Art Dealers and Galleries']]"
0,Fine Art Express,San Diego,92154,7615 Siempre Viva Rd,CA,us,[u'Otay Mesa'],(619) 330-1912,,,"[[u'Social', u'Arts', u'Art Dealers and Galleries']]"
0,Christian Hohmann Fine Art,Palm Desert,92260,73660 El Paseo,CA,us,,(760) 346-4243,,http://www.christianhohmann.com,"[[u'Social', u'Arts', u'Art Dealers and Galleries']]"
0,A Gallery Fine Art,Palm Desert,92260,73956 El Paseo,CA,us,,(760) 346-8885,ldemptom@agalleryfineart.com,http://www.agalleryfineart.com,"[[u'Social', u'Arts', u'Art Dealers and Galleries']]"
0,Buschlen Mowatt Fine Art Galleries,Palm Desert,92260,45188 Portola Ave,CA,us,,(760) 837-9668,,http://www.buschlenmowatt.com,"[[u'Social', u'Arts', u'Art Dealers and Galleries']]"
0,Heather James Art & Antiquities,Palm Desert,92260,45188 Portola Ave,CA,us,,(760) 346-8926,,http://www.heatherjames.com,"[[u'Social', u'Arts', u'Art Dealers and Galleries']]"
0,R E Welch Gallery,Palm Desert,92260,73680 El Paseo,CA,us,,(760) 341-8141,info@rewelch.com,http://www.rewelch.com/,"[[u'Social', u'Arts', u'Art Dealers and Galleries']]"
0,Frederick Scott,Palm Desert,92260,41801 Corporate Way,CA,us,,(310) 362-3135,frederickscott@me.com,,"[[u'Social', u'Arts', u'Art Dealers and Galleries']]"
0,Elena Bulatova Fine Art,Palm Springs,92262,232 N Palm Canyon Dr,CA,us,,(760) 600-0417,,http://www.elenabulatova.com/,"[[u'Social', u'Arts', u'Art Dealers and Galleries']]"
0,Terra Fine Art Gallery,Palm Springs,92262,155 S Palm Canyon Dr,CA,us,,(760) 320-6537,,http://www.terraimages.com,"[[u'Social', u'Arts', u'Art Dealers and Galleries']]"
0,Brian Marki Fine Art & Framing,Palm Springs,92262,170 E Arenas Rd,CA,us,,(760) 327-5777,brian@brianmarkifineart.com,http://www.brianmarkifineart.com,"[[u'Social', u'Arts', u'Art Dealers and Galleries']]"
0,Frederick Scott Fine Art by Appointment,Palm Springs,92262,219 E Alejo Rd,CA,us,,(760) 841-1114,,,"[[u'Social', u'Arts', u'Art Dealers and Galleries']]"
0,Larkspur Fine Arts,Palm Springs,92262,457 N Palm Canyon Dr,CA,us,,(760) 325-3142,,http://larkspurfinearts.com/,"[[u'Social', u'Arts', u'Art Dealers and Galleries']]"
0,Warnock Fine Arts,Palm Springs,92264,2065 S Palm Canyon Dr,CA,us,,(415) 377-7438,,http://www.warnockfinearts.com/,"[[u'Social', u'Arts', u'Art Dealers and Galleries']]"
0,Larkspur Fine Arts,Palm Springs,92264,1925 S Caliente Dr,CA,us,,(760) 325-3142,,http://www.larkspurfinearts.com,"[[u'Social', u'Arts', u'Art Dealers and Galleries']]"
0,Frederick Scott Fine Art by Appointment,Palm Springs,92264,1556 Bolero Cir,CA,us,,(760) 282-0225,alejandrocastro502@yahoo.com,http://www.homesecurityinfo.org/ca/palm-springs-2/,"[[u'Social', u'Arts', u'Art Dealers and Galleries']]"
0,Dalushaka's Fine Art,Helendale,92342,27531 Silver Lakes Pkwy,CA,us,,(760) 955-7867,,,"[[u'Social', u'Arts', u'Art Dealers and Galleries']]"
0,Barnsloft Photography Framing & Fine Arts,Victorville,92395,15048 7th St,CA,us,,(760) 780-0313,,,"[[u'Social', u'Arts', u'Art Dealers and Galleries']]"
0,Okaybabs Studio,San Bernardino,92408,776 S Gifford Ave,CA,us,,(909) 890-9044,,http://okaybabs.com,"[[u'Social', u'Arts', u'Art Dealers and Galleries']]"
0,Childs-Wilds Leilani,Riverside,92501,625 W La Cadena Dr,CA,us,,(951) 684-1375,,,"[[u'Social', u'Arts', u'Art Dealers and Galleries']]"
0,Singerton Fine Arts,Idyllwild,92549,54245 N Circle Dr,CA,us,,(951) 659-2504,,http://singertonfinearts.com,"[[u'Social', u'Arts', u'Art Dealers and Galleries']]"
0,Irvine Fine Arts Center,Irvine,92604,14321 Yale Ave,CA,us,[u'El Camino Real'],(949) 724-6880,smunger@ci.irvine.ca.us,http://www.cityofirvine.org/cityhall/cs/finearts/,"[[u'Social', u'Arts', u'Art Dealers and Galleries']]"
0,Harrison Fine Art,Irvine,92606,58 Calavera,CA,us,[u'Westpark II'],(949) 559-6074,,http://www.harrisonfineart.com/,"[[u'Social', u'Arts', u'Art Dealers and Galleries']]"
0,Caponigro Fine Art & Design,Irvine,92612,19800 MacArthur Blvd,CA,us,[u'Santa Ana Heights'],(562) 433-8470,,http://www.proaps.com,"[[u'Social', u'Arts', u'Art Dealers and Galleries']]"
0,Fine Arts,Irvine,92618,13 Autry,CA,us,[u'Irvine Spectrum'],(949) 859-7898,email@oilandframe.com,http://www.forfinearts.com,"[[u'Social', u'Arts', u'Art Dealers and Galleries']]"
0,Light Speed Fine Art,Irvine,92618,9272 Jeronimo Rd,CA,us,[u'Irvine Spectrum'],(949) 297-8855,,http://www.lightspeedfineart.com/,"[[u'Social', u'Arts', u'Art Dealers and Galleries']]"
0,Jamie Brooks Fine Art,Costa Mesa,92626,2967 Randolph Ave,CA,us,,(949) 929-4143,j@miebrooks.com,http://www.jamiebrooksfineart.com/,"[[u'Social', u'Arts', u'Art Dealers and Galleries']]"
0,The Mint,Dana Point,92629,34085 Pacific Coast Hwy,CA,us,"[u'Monarch Beach', u'Harbor']",(949) 366-6777,,,"[[u'Social', u'Arts', u'Art Dealers and Galleries']]"
0,Rich Johnson Fine Art,Laguna Woods,92637,3293 San Amadeo,CA,us,,(949) 457-0323,,,"[[u'Social', u'Arts', u'Art Dealers and Galleries']]"
0,Scotty Carter Fine Art,Laguna Woods,92637,360 Avenida Castilla,CA,us,,(714) 253-2899,,http://www.scottycarterfineart.com,"[[u'Social', u'Arts', u'Art Dealers and Galleries']]"
0,Fine Art Awards,Laguna Woods,92637,3293 San Amadeo,CA,us,,(949) 457-0323,,,"[[u'Social', u'Arts', u'Art Dealers and Galleries']]"
0,Salt Fine Art,Laguna Beach,92651,1492 S Coast Hwy,CA,us,[u'Woods Cove'],(949) 715-5554,,http://www.saltfineart.com,"[[u'Social', u'Arts', u'Art Dealers and Galleries']]"
0,Dawson Cole Fine Art,Laguna Beach,92651,326 Glenneyre St,CA,us,"[u'Downtown', u'Main Beach']",(949) 497-4988,,http://www.dawsoncolefineart.com,"[[u'Social', u'Arts', u'Art Dealers and Galleries']]"
0,Kush Fine Art,Laguna Beach,92651,265 Forest Ave,CA,us,"[u'Main Beach', u'Downtown']",(949) 376-8017,info@vladimirkush.com,http://www.vladimirkush.com/,"[[u'Social', u'Arts', u'Art Dealers and Galleries']]"
0,Swenson Fine Art,Laguna Beach,92651,460 S Coast Hwy,CA,us,[u'Central Bluffs'],(949) 376-1122,,http://www.swensonfineart.com/,"[[u'Social', u'Arts', u'Art Dealers and Galleries']]"
0,Notion Fine Art,Laguna Beach,92651,1590 S Coast Hwy,CA,us,[u'Woods Cove'],(949) 793-4013,,http://www.jkaminfineart.com/,"[[u'Social', u'Arts', u'Art Dealers and Galleries']]"
0,Cheyne Walls Fine Art Photography,Laguna Beach,92651,3251 Laguna Canyon Rd,CA,us,[u'Canyon'],(949) 370-5643,,http://www.cheynewalls.com,"[[u'Social', u'Arts', u'Art Dealers and Galleries']]"
0,Azali Fine Art Gallery,Laguna Beach,92651,210 Forest Ave,CA,us,,(858) 456-9900,,http://www.fingerhutart.com,"[[u'Social', u'Arts', u'Art Dealers and Galleries']]"
0,Kush Fine Art,Laguna Beach,92651,357 S Coast Hwy,CA,us,"[u'Downtown', u'Main Beach']",(949) 376-8017,,,"[[u'Social', u'Arts', u'Art Dealers and Galleries']]"
0,Shane Townley Fine Arts,Laguna Beach,92651,1294 S Coast Hwy,CA,us,[u'Woods Cove'],(949) 715-1860,info@townley.co,http://www.townleygallery.com,"[[u'Social', u'Arts', u'Art Dealers and Galleries']]"
0,Laguna Fine Art,Laguna Beach,92651,264 Forest Ave,CA,us,"[u'Main Beach', u'Downtown']",(949) 494-8900,,http://www.lagunafineart.com/,"[[u'Social', u'Arts', u'Art Dealers and Galleries']]"
0,Daniel Fine Arts Services,Laguna Beach,92651,3337 Laguna Canyon Rd,CA,us,[u'Canyon'],(949) 497-0501,cathy@kcpstudios.com,http://danielfineart.com,"[[u'Social', u'Arts', u'Art Dealers and Galleries']]"
0,Rohrer Fine Art,Laguna Beach,92651,346 N Coast Hwy,CA,us,"[u'Main Beach', u'Canyon Acres']",(949) 494-8200,,http://www.rohrerfineart.com,"[[u'Social', u'Arts', u'Art Dealers and Galleries']]"
0,Fine Art Laguna Beach,Laguna Beach,92651,378 Pacific Coast Hwy,CA,us,,(714) 980-3590,,http://fineartlagunabeach.com/,"[[u'Social', u'Arts', u'Art Dealers and Galleries']]"
0,Verna Glancy Fine Art,Laguna Beach,92651,698 Vista Ln,CA,us,,(949) 376-6858,,http://www.vernaglancyfineart.com,"[[u'Social', u'Arts', u'Art Dealers and Galleries']]"
0,Contemporary Chinese Fine Art,Laguna Beach,92651,1099 S Coast Hwy,CA,us,[u'Central Bluffs'],(949) 376-6799,,http://contemporarychinesefineart.com,"[[u'Social', u'Arts', u'Art Dealers and Galleries']]"
0,Michaels Kelsey Fine Art,Laguna Beach,92651,354 N Coast Hwy,CA,us,,(949) 715-9965,,,"[[u'Social', u'Arts', u'Art Dealers and Galleries']]"
0,Buck Fine Arts,Laguna Beach,92651,298 Broadway St,CA,us,"[u'Canyon Acres', u'Civic Art District', u'Main Beach']",(949) 715-1278,,,"[[u'Social', u'Arts', u'Art Dealers and Galleries']]"
0,South Coast Fine Art,Laguna Beach,92651,649 N Coast Hwy,CA,us,"[u'Emerald Bay', u'North Laguna']",(949) 922-8262,,http://www.southcoastfineart.com,"[[u'Social', u'Arts', u'Art Dealers and Galleries']]"
0,Amin Fine Art,Laguna Beach,92651,3251 Laguna Canyon Rd,CA,us,[u'Canyon'],(949) 395-8161,,,"[[u'Social', u'Arts', u'Art Dealers and Galleries']]"
0,J Kamin Fine Arts,Laguna Beach,92651,1590 S Coast Hwy,CA,us,,(949) 494-5076,,http://www.jkaminfineart.com/,"[[u'Social', u'Arts', u'Art Dealers and Galleries']]"
0,Steven Lucas Fine Arts,Laguna Beach,92651,1945 Laguna Canyon Rd,CA,us,,(949) 376-7611,carl@stevenlucasfinearts.com,,"[[u'Social', u'Arts', u'Art Dealers and Galleries']]"
0,Cynthia Dennis Fine Arts,Laguna Beach,92651,1278 Glenneyre St,CA,us,,(949) 246-5852,,,"[[u'Social', u'Arts', u'Art Dealers and Galleries']]"
0,Amin Fine Art,Laguna Beach,92651,688 S Coast Hwy,CA,us,[u'Central Bluffs'],(949) 715-9089,,,"[[u'Social', u'Arts', u'Art Dealers and Galleries']]"
0,Joseph Wise Gallery,Laguna Beach,92651,1550 S Coast Hwy,CA,us,[u'Woods Cove'],(949) 376-7902,info@josephwisegallery.com,http://josephwisegallery.com,"[[u'Social', u'Arts', u'Art Dealers and Galleries']]"
0,2013 December Exhibit of William J. Verdult fine art,Newport Beach,92660,1107 Jamboree Rd,CA,us,,(760) 333-3219,,,"[[u'Social', u'Arts', u'Art Dealers and Galleries']]"
0,Rainey Fine Art's,Newport Beach,92661,103 Palm St,CA,us,[u'Balboa Peninsula'],(949) 673-1382,,http://www.raineyfineart.com,"[[u'Social', u'Arts', u'Art Dealers and Galleries']]"
0,Rainey Fine Art Gallery,Newport Beach,92661,515 E Balboa Blvd,CA,us,[u'Balboa Peninsula'],(949) 673-1382,,http://www.raineyfineart.com/,"[[u'Social', u'Arts', u'Art Dealers and Galleries']]"
0,Katherine Norris Fine Art,Newport Beach,92663,177 Riverside Ave,CA,us,[u'Newport Heights'],(949) 515-4045,,http://katherinenorrisfineart.com,"[[u'Social', u'Arts', u'Art Dealers and Galleries']]"
0,Solitary Exposure Ocean Fine Art Gallery,San Clemente,92672,129 Avenida Victoria,CA,us,,(949) 383-0333,,http://www.solitaryexposure.com/,"[[u'Social', u'Arts', u'Art Dealers and Galleries']]"
0,Benfatti Fine Art,San Clemente,92672,150 Avenida Victoria,CA,us,,(949) 842-9513,,,"[[u'Social', u'Arts', u'Art Dealers and Galleries']]"
0,Mission Fine Art Gallery,San Juan Capistrano,92675,31760 Camino Capistrano,CA,us,,(949) 291-7738,connect@missionfineart.gallery,http://www.missionfineart.gallery,"[[u'Social', u'Arts', u'Art Dealers and Galleries']]"
0,Fine Art Rentals,Laguna Niguel,92677,24321 La Hermosa Ave,CA,us,,(949) 249-2730,,http://fineartrentals.net/,"[[u'Social', u'Arts', u'Art Dealers and Galleries']]"
0,Wassmann Cliff Fine Arts,Mission Viejo,92692,27826 Center Dr,CA,us,,(949) 240-8721,,,"[[u'Social', u'Arts', u'Art Dealers and Galleries']]"
0,Liberty Fine Arts Gallery,Santa Ana,92701,921 E Santa Ana Blvd,CA,us,[u'French Park Historic District'],(714) 507-6330,,,"[[u'Social', u'Arts', u'Art Dealers and Galleries']]"
0,Orange County Fine Arts,Santa Ana,92704,3851 S Bear St,CA,us,[u'Bristol'],(714) 540-6430,,http://orangecountyfinearts.com,"[[u'Social', u'Arts', u'Art Dealers and Galleries']]"
0,A & A Fine Art,Santa Ana,92705,11542 Newport Ave,CA,us,[u'Red Hill'],(714) 573-0102,,,"[[u'Social', u'Arts', u'Art Dealers and Galleries']]"
0,Virginia Bader Fine Arts,Santa Ana,92707,19531 Campus Dr,CA,us,[u'Santa Ana Heights'],(949) 263-1404,sales@virginiabader.com,http://www.virginiabader.com/,"[[u'Social', u'Arts', u'Art Dealers and Galleries']]"
0,Haddad's Fine Arts,Anaheim,92806,3855 E Miraloma Ave,CA,us,[u'The Canyon'],(714) 996-2100,mail@haddadsfinearts.com,http://www.haddadsfinearts.com,"[[u'Social', u'Arts', u'Art Dealers and Galleries']]"
0,Fine Art Management,Camarillo,93012,750 Calle Plano,CA,us,,(805) 987-0011,careers@artonroyal.com,http://tatefineartmanagement.com,"[[u'Social', u'Arts', u'Art Dealers and Galleries']]"
0,Tartaglia Fine Art,Ojai,93023,307 E Ojai Ave,CA,us,,(805) 646-0967,info@tartagliafineart.com,http://www.tartagliafineart.com,"[[u'Social', u'Arts', u'Art Dealers and Galleries']]"
0,Plaza Gallery of Fine Arts,Oxnard,93030,424 S C St,CA,us,"[u'Downtown Oxnard', u'Central Community']",(805) 486-1884,,http://www.carnegieam.org,"[[u'Social', u'Arts', u'Art Dealers and Galleries']]"
0,Ezequiel Fine Art Studio,Oxnard,93030,921 Mountain View Ave,CA,us,[u'Five Points Northeast'],(805) 487-8899,,,"[[u'Social', u'Arts', u'Art Dealers and Galleries']]"
0,Riviera Fine Art,Santa Barbara,93101,927 State St,CA,us,,(805) 892-5051,,,"[[u'Social', u'Arts', u'Art Dealers and Galleries']]"
0,Bottoms Art Galleries,Santa Barbara,93101,1114 State St,CA,us,,(805) 962-5772,,http://www.botart.com,"[[u'Social', u'Arts', u'Art Dealers and Galleries']]"
0,Bijou Fine Arts,Santa Barbara,93103,818 Jennings Ave,CA,us,,(805) 963-5933,,http://www.southcoastfinearts.com/,"[[u'Social', u'Arts', u'Art Dealers and Galleries']]"
0,Alexander Merten Fine Art,Santa Barbara,93108,1266 Coast Village Rd,CA,us,,(805) 565-6955,,http://www.mertensfineart.com/,"[[u'Social', u'Arts', u'Art Dealers and Galleries']]"
0,Maureen Murphy Fine Art,Santa Barbara,93108,1187 Coast Village Rd,CA,us,,(805) 969-9215,hohenlohe--bo@artfreak.com,http://mmfa.com,"[[u'Social', u'Arts', u'Art Dealers and Galleries']]"
0,Alex Janos Fine Arts,Santa Barbara,93110,910 Cocopah Dr,CA,us,,(805) 682-8205,,,"[[u'Social', u'Arts', u'Art Dealers and Galleries']]"
0,Foxen Gallery Fine Arts,Lake Isabella,93240,3630 Golden Spur St,CA,us,,(760) 379-4334,,,"[[u'Social', u'Arts', u'Art Dealers and Galleries']]"
0,Design by Arenas Fine Art Gallery,Visalia,93291,208 W Main St,CA,us,,(559) 733-1981,,http://www.designbyarenas.com,"[[u'Social', u'Arts', u'Art Dealers and Galleries']]"
0,Fine Art Rentals & Framing,Visalia,93292,3303 E Paradise Ave,CA,us,,(559) 733-1515,,,"[[u'Social', u'Arts', u'Art Dealers and Galleries']]"
0,Drew Davis Fine Art,San Luis Obispo,93401,331 Pacific St,CA,us,,(805) 234-2302,,http://www.drewdavis.com/,"[[u'Social', u'Arts', u'Art Dealers and Galleries']]"
0,Salisbury Vineyards,San Luis Obispo,93405,6985 Ontario Rd,CA,us,[u'Sunset Palisades'],(805) 595-9463,harvest@salisburyvineyards.com,http://www.salisburyvineyards.com,"[[u'Social', u'Arts', u'Art Dealers and Galleries']]"
0,Olive Tree Fine Arts,Atascadero,93422,5850 Traffic Way,CA,us,[u'Henry'],(805) 461-5600,send3@olivetreefinearts.com,,"[[u'Social', u'Arts', u'Art Dealers and Galleries']]"
0,Visions of Nature Gallery Fine Arts Photography,Cambria,93428,784 Main St,CA,us,,(805) 927-0740,,http://www.visionsofnaturegallery.com/,"[[u'Social', u'Arts', u'Art Dealers and Galleries']]"
0,Fine Art Photography by Christopher L. T. Brown,Solvang,93463,446 Alisal Rd,CA,us,,(805) 694-8626,,http://www.tychobrown.com/,"[[u'Social', u'Arts', u'Art Dealers and Galleries']]"
0,A SENSE OF PLACE Art Gallery,Fresno,93704,2003 N Van Ness Blvd,CA,us,"[u'Hammond', u'Fresno-High']",(559) 392-6775,gallery@ginnyburdick.com,http://www.asenseofplacefineart.com,"[[u'Social', u'Arts', u'Art Dealers and Galleries']]"
0,Ewell Susan Fine Arts and Antiques,Fresno,93711,1734 W Bullard Ave,CA,us,[u'Bullard'],(559) 449-1339,,,"[[u'Social', u'Arts', u'Art Dealers and Galleries']]"
0,Dawson Cole Fine Art,Carmel,93923,14 San Carlos 5th,CA,us,,(831) 624-8200,,http://www.dawsoncolefineart.com/,"[[u'Social', u'Arts', u'Art Dealers and Galleries']]"
0,Edward Montgomery Fine Art,Carmel,93923,Ocean Ave,CA,us,,(831) 622-9292,,,"[[u'Social', u'Arts', u'Art Dealers and Galleries']]"
0,Oliver Elliott and Sebastian Fine Art,Carmel,93923,1 Ocean Ave,CA,us,,(831) 626-0178,,http://www.oesfineart.com/,"[[u'Social', u'Arts', u'Art Dealers and Galleries']]"
0,Delia Bradford Fine Arts Std,Carmel,93923,218 The Crossroads Blvd,CA,us,,(831) 601-4957,,,"[[u'Social', u'Arts', u'Art Dealers and Galleries']]"
0,Winfield Gallery,Carmel,93923,Dolores St,CA,us,,(831) 624-3369,chris@winfieldgallery.com,http://www.winfieldgallery.com,"[[u'Social', u'Arts', u'Art Dealers and Galleries']]"
0,Winters Gallery,Carmel,93923,29251 Highway 1,CA,us,,(831) 626-5452,,http://winterscarmelartgallery.com,"[[u'Social', u'Arts', u'Art Dealers and Galleries']]"
0,Gallery I Fine Art,Monterey,93940,685 Cannery Row,CA,us,"[u'Cannery Row', u'Pacific Grove Acres', u'New Monterey']",(831) 375-1617,,http://www.galleryifineart.com/,"[[u'Social', u'Arts', u'Art Dealers and Galleries']]"
0,Hauk Fine Arts,Pacific Grove,93950,206 Fountain Ave,CA,us,[u'Pacific Grove Acres'],(831) 373-6007,steve_hauk@earlycaliforniaart.com,http://www.haukfinearts.com,"[[u'Social', u'Arts', u'Art Dealers and Galleries']]"
0,Talisman Fine Arts,Brisbane,94005,200 Valley Dr,CA,us,[u'Bayridge Linda Vista'],(415) 468-1169,,,"[[u'Social', u'Arts', u'Art Dealers and Galleries']]"
0,H Momo Zhou Fine Art Studio,Burlingame,94010,1017 California Dr,CA,us,[u'Burlingame Terrace'],(650) 513-1758,hello@domain.com,http://www.mopaintings.com/,"[[u'Social', u'Arts', u'Art Dealers and Galleries']]"
0,Gallery M,Half Moon Bay,94019,328 Main St,CA,us,,(650) 726-7167,info@gallerym.org,http://www.gallerym.net,"[[u'Social', u'Arts', u'Art Dealers and Galleries']]"
0,Sense Fine Art,Menlo Park,94025,3500 Alameda De Las Pulgas,CA,us,[u'University Heights'],(415) 215-7433,,http://www.sensefineart.com/,"[[u'Social', u'Arts', u'Art Dealers and Galleries']]"
0,Atherton Fine Art,Menlo Park,94025,700 El Camino Real,CA,us,"[u'Lindenwood', u'Downtown']",(650) 324-4278,markgallagher_65@msn.com,http://www.athertonfineart.com,"[[u'Social', u'Arts', u'Art Dealers and Galleries']]"
